{
"type": "FeatureCollection",
"name": "datacentre_rings",
"crs": { "type": "name", "properties": { "name": "urn:ogc:def:crs:OGC:1.3:CRS84" } },
"xy_coordinate_resolution": 1e-06,
"features": [
{ "type": "Feature", "properties": { "site_group": "STT Dighi", "ring": "0–0.2 km (campus)", "lst_mean": 43.97, "lst_excess": -0.57, "trees_pct": 3.73, "built_pct": 69.18, "excess_percentile_vs_lookalikes": 34.5 }, "geometry": { "type": "Polygon", "coordinates": [ [ [ 73.866422, 18.603806 ], [ 73.866414, 18.603629 ], [ 73.866388, 18.603454 ], [ 73.866344, 18.603281 ], [ 73.866283, 18.603114 ], [ 73.866204, 18.602953 ], [ 73.86611, 18.6028 ], [ 73.866, 18.602657 ], [ 73.865876, 18.602525 ], [ 73.865739, 18.602405 ], [ 73.86559, 18.602299 ], [ 73.865431, 18.602207 ], [ 73.865263, 18.60213 ], [ 73.865089, 18.602069 ], [ 73.864909, 18.602025 ], [ 73.864725, 18.601998 ], [ 73.864539, 18.601988 ], [ 73.864353, 18.601995 ], [ 73.864169, 18.60202 ], [ 73.863988, 18.602062 ], [ 73.863813, 18.602121 ], [ 73.863644, 18.602196 ], [ 73.863484, 18.602286 ], [ 73.863334, 18.602391 ], [ 73.863195, 18.602509 ], [ 73.863069, 18.60264 ], [ 73.862958, 18.602781 ], [ 73.862861, 18.602933 ], [ 73.86278, 18.603093 ], [ 73.862717, 18.603259 ], [ 73.86267, 18.603431 ], [ 73.862642, 18.603606 ], [ 73.862632, 18.603784 ], [ 73.86264, 18.603961 ], [ 73.862666, 18.604136 ], [ 73.86271, 18.604309 ], [ 73.862771, 18.604476 ], [ 73.86285, 18.604637 ], [ 73.862944, 18.60479 ], [ 73.863054, 18.604933 ], [ 73.863178, 18.605065 ], [ 73.863315, 18.605185 ], [ 73.863464, 18.605291 ], [ 73.863623, 18.605383 ], [ 73.863791, 18.60546 ], [ 73.863965, 18.605521 ], [ 73.864145, 18.605565 ], [ 73.864329, 18.605592 ], [ 73.864515, 18.605602 ], [ 73.864701, 18.605595 ], [ 73.864885, 18.60557 ], [ 73.865066, 18.605528 ], [ 73.865241, 18.605469 ], [ 73.86541, 18.605394 ], [ 73.86557, 18.605304 ], [ 73.86572, 18.605199 ], [ 73.865859, 18.605081 ], [ 73.865985, 18.60495 ], [ 73.866096, 18.604809 ], [ 73.866193, 18.604657 ], [ 73.866274, 18.604497 ], [ 73.866337, 18.604331 ], [ 73.866384, 18.604159 ], [ 73.866412, 18.603984 ], [ 73.866422, 18.603806 ] ] ] } },
{ "type": "Feature", "properties": { "site_group": "STT Dighi", "ring": "0.2–0.5 km", "lst_mean": 44.76, "lst_excess": 0.25, "trees_pct": 18.34, "built_pct": 19.31, "excess_percentile_vs_lookalikes": 61.0 }, "geometry": { "type": "Polygon", "coordinates": [ [ [ 73.869246, 18.603381 ], [ 73.86918, 18.602942 ], [ 73.86907, 18.602511 ], [ 73.868916, 18.602092 ], [ 73.86872, 18.60169 ], [ 73.868484, 18.601309 ], [ 73.868209, 18.600951 ], [ 73.867899, 18.60062 ], [ 73.867556, 18.600321 ], [ 73.867184, 18.600054 ], [ 73.866787, 18.599824 ], [ 73.866368, 18.599632 ], [ 73.865931, 18.59948 ], [ 73.865481, 18.599369 ], [ 73.865021, 18.599301 ], [ 73.864557, 18.599277 ], [ 73.864092, 18.599296 ], [ 73.863632, 18.599358 ], [ 73.86318, 18.599463 ], [ 73.862741, 18.59961 ], [ 73.86232, 18.599797 ], [ 73.861919, 18.600022 ], [ 73.861544, 18.600284 ], [ 73.861198, 18.60058 ], [ 73.860883, 18.600907 ], [ 73.860604, 18.601261 ], [ 73.860362, 18.60164 ], [ 73.860161, 18.60204 ], [ 73.860001, 18.602456 ], [ 73.859885, 18.602885 ], [ 73.859814, 18.603324 ], [ 73.859788, 18.603766 ], [ 73.859808, 18.604209 ], [ 73.859874, 18.604648 ], [ 73.859984, 18.605079 ], [ 73.860138, 18.605498 ], [ 73.860334, 18.6059 ], [ 73.86057, 18.606281 ], [ 73.860845, 18.606639 ], [ 73.861155, 18.60697 ], [ 73.861498, 18.607269 ], [ 73.861869, 18.607536 ], [ 73.862267, 18.607766 ], [ 73.862686, 18.607958 ], [ 73.863123, 18.60811 ], [ 73.863573, 18.608221 ], [ 73.864033, 18.608289 ], [ 73.864497, 18.608313 ], [ 73.864962, 18.608294 ], [ 73.865422, 18.608232 ], [ 73.865874, 18.608127 ], [ 73.866313, 18.60798 ], [ 73.866734, 18.607793 ], [ 73.867135, 18.607568 ], [ 73.86751, 18.607306 ], [ 73.867857, 18.60701 ], [ 73.868171, 18.606683 ], [ 73.86845, 18.606329 ], [ 73.868692, 18.60595 ], [ 73.868893, 18.60555 ], [ 73.869053, 18.605134 ], [ 73.869169, 18.604704 ], [ 73.86924, 18.604266 ], [ 73.869266, 18.603824 ], [ 73.869246, 18.603381 ] ], [ [ 73.866412, 18.603984 ], [ 73.866384, 18.604159 ], [ 73.866337, 18.604331 ], [ 73.866274, 18.604497 ], [ 73.866193, 18.604657 ], [ 73.866096, 18.604809 ], [ 73.865985, 18.60495 ], [ 73.865859, 18.605081 ], [ 73.86572, 18.605199 ], [ 73.86557, 18.605304 ], [ 73.86541, 18.605394 ], [ 73.865241, 18.605469 ], [ 73.865066, 18.605528 ], [ 73.864885, 18.60557 ], [ 73.864701, 18.605595 ], [ 73.864515, 18.605602 ], [ 73.864329, 18.605592 ], [ 73.864145, 18.605565 ], [ 73.863965, 18.605521 ], [ 73.863791, 18.60546 ], [ 73.863623, 18.605383 ], [ 73.863464, 18.605291 ], [ 73.863315, 18.605185 ], [ 73.863178, 18.605065 ], [ 73.863054, 18.604933 ], [ 73.862944, 18.60479 ], [ 73.86285, 18.604637 ], [ 73.862771, 18.604476 ], [ 73.86271, 18.604309 ], [ 73.862666, 18.604136 ], [ 73.86264, 18.603961 ], [ 73.862632, 18.603784 ], [ 73.862642, 18.603606 ], [ 73.86267, 18.603431 ], [ 73.862717, 18.603259 ], [ 73.86278, 18.603093 ], [ 73.862861, 18.602933 ], [ 73.862958, 18.602781 ], [ 73.863069, 18.60264 ], [ 73.863195, 18.602509 ], [ 73.863334, 18.602391 ], [ 73.863484, 18.602286 ], [ 73.863644, 18.602196 ], [ 73.863813, 18.602121 ], [ 73.863988, 18.602062 ], [ 73.864169, 18.60202 ], [ 73.864353, 18.601995 ], [ 73.864539, 18.601988 ], [ 73.864725, 18.601998 ], [ 73.864909, 18.602025 ], [ 73.865089, 18.602069 ], [ 73.865263, 18.60213 ], [ 73.865431, 18.602207 ], [ 73.86559, 18.602299 ], [ 73.865739, 18.602405 ], [ 73.865876, 18.602525 ], [ 73.866, 18.602657 ], [ 73.86611, 18.6028 ], [ 73.866204, 18.602953 ], [ 73.866283, 18.603114 ], [ 73.866344, 18.603281 ], [ 73.866388, 18.603454 ], [ 73.866414, 18.603629 ], [ 73.866422, 18.603806 ], [ 73.866412, 18.603984 ] ] ] } },
{ "type": "Feature", "properties": { "site_group": "STT Dighi", "ring": "0.5–1 km", "lst_mean": 46.48, "lst_excess": 1.12, "trees_pct": 14.85, "built_pct": 13.24, "excess_percentile_vs_lookalikes": 91.0 }, "geometry": { "type": "Polygon", "coordinates": [ [ [ 73.873964, 18.602966 ], [ 73.873834, 18.602088 ], [ 73.873613, 18.601226 ], [ 73.873305, 18.60039 ], [ 73.872913, 18.599586 ], [ 73.87244, 18.598822 ], [ 73.871891, 18.598106 ], [ 73.87127, 18.597446 ], [ 73.870585, 18.596846 ], [ 73.869842, 18.596313 ], [ 73.869047, 18.595853 ], [ 73.868209, 18.595468 ], [ 73.867335, 18.595164 ], [ 73.866435, 18.594943 ], [ 73.865515, 18.594808 ], [ 73.864587, 18.594759 ], [ 73.863658, 18.594797 ], [ 73.862737, 18.594921 ], [ 73.861833, 18.595131 ], [ 73.860956, 18.595425 ], [ 73.860113, 18.595799 ], [ 73.859312, 18.59625 ], [ 73.858561, 18.596774 ], [ 73.857868, 18.597365 ], [ 73.857239, 18.598018 ], [ 73.856681, 18.598727 ], [ 73.856197, 18.599485 ], [ 73.855794, 18.600284 ], [ 73.855476, 18.601117 ], [ 73.855244, 18.601976 ], [ 73.855101, 18.602852 ], [ 73.85505, 18.603738 ], [ 73.85509, 18.604624 ], [ 73.85522, 18.605502 ], [ 73.85544, 18.606363 ], [ 73.855748, 18.6072 ], [ 73.85614, 18.608004 ], [ 73.856614, 18.608768 ], [ 73.857163, 18.609483 ], [ 73.857783, 18.610144 ], [ 73.858468, 18.610744 ], [ 73.859212, 18.611277 ], [ 73.860006, 18.611737 ], [ 73.860845, 18.612122 ], [ 73.861718, 18.612426 ], [ 73.862619, 18.612646 ], [ 73.863538, 18.612782 ], [ 73.864467, 18.612831 ], [ 73.865396, 18.612793 ], [ 73.866317, 18.612669 ], [ 73.867221, 18.612459 ], [ 73.868099, 18.612165 ], [ 73.868942, 18.611791 ], [ 73.869743, 18.61134 ], [ 73.870493, 18.610816 ], [ 73.871186, 18.610225 ], [ 73.871815, 18.609572 ], [ 73.872374, 18.608863 ], [ 73.872857, 18.608105 ], [ 73.87326, 18.607306 ], [ 73.873579, 18.606473 ], [ 73.87381, 18.605614 ], [ 73.873953, 18.604737 ], [ 73.874004, 18.603852 ], [ 73.873964, 18.602966 ] ], [ [ 73.86924, 18.604266 ], [ 73.869169, 18.604704 ], [ 73.869053, 18.605134 ], [ 73.868893, 18.60555 ], [ 73.868692, 18.60595 ], [ 73.86845, 18.606329 ], [ 73.868171, 18.606683 ], [ 73.867857, 18.60701 ], [ 73.86751, 18.607306 ], [ 73.867135, 18.607568 ], [ 73.866734, 18.607793 ], [ 73.866313, 18.60798 ], [ 73.865874, 18.608127 ], [ 73.865422, 18.608232 ], [ 73.864962, 18.608294 ], [ 73.864497, 18.608313 ], [ 73.864033, 18.608289 ], [ 73.863573, 18.608221 ], [ 73.863123, 18.60811 ], [ 73.862686, 18.607958 ], [ 73.862267, 18.607766 ], [ 73.861869, 18.607536 ], [ 73.861498, 18.607269 ], [ 73.861155, 18.60697 ], [ 73.860845, 18.606639 ], [ 73.86057, 18.606281 ], [ 73.860334, 18.6059 ], [ 73.860138, 18.605498 ], [ 73.859984, 18.605079 ], [ 73.859874, 18.604648 ], [ 73.859808, 18.604209 ], [ 73.859788, 18.603766 ], [ 73.859814, 18.603324 ], [ 73.859885, 18.602885 ], [ 73.860001, 18.602456 ], [ 73.860161, 18.60204 ], [ 73.860362, 18.60164 ], [ 73.860604, 18.601261 ], [ 73.860883, 18.600907 ], [ 73.861198, 18.60058 ], [ 73.861544, 18.600284 ], [ 73.861919, 18.600022 ], [ 73.86232, 18.599797 ], [ 73.862741, 18.59961 ], [ 73.86318, 18.599463 ], [ 73.863632, 18.599358 ], [ 73.864092, 18.599296 ], [ 73.864557, 18.599277 ], [ 73.865021, 18.599301 ], [ 73.865481, 18.599369 ], [ 73.865931, 18.59948 ], [ 73.866368, 18.599632 ], [ 73.866787, 18.599824 ], [ 73.867184, 18.600054 ], [ 73.867556, 18.600321 ], [ 73.867899, 18.60062 ], [ 73.868209, 18.600951 ], [ 73.868484, 18.601309 ], [ 73.86872, 18.60169 ], [ 73.868916, 18.602092 ], [ 73.86907, 18.602511 ], [ 73.86918, 18.602942 ], [ 73.869246, 18.603381 ], [ 73.869266, 18.603824 ], [ 73.86924, 18.604266 ] ] ] } },
{ "type": "Feature", "properties": { "site_group": "STT Dighi", "ring": "1–2 km", "lst_mean": 44.99, "lst_excess": 0.45, "trees_pct": 13.05, "built_pct": 30.65, "excess_percentile_vs_lookalikes": 84.5 }, "geometry": { "type": "Polygon", "coordinates": [ [ [ 73.883402, 18.602136 ], [ 73.88314, 18.60038 ], [ 73.882699, 18.598657 ], [ 73.882084, 18.596984 ], [ 73.881299, 18.595376 ], [ 73.880353, 18.593849 ], [ 73.879254, 18.592418 ], [ 73.878013, 18.591096 ], [ 73.876643, 18.589897 ], [ 73.875156, 18.588831 ], [ 73.873567, 18.58791 ], [ 73.87189, 18.587142 ], [ 73.870143, 18.586534 ], [ 73.868342, 18.586092 ], [ 73.866504, 18.585821 ], [ 73.864647, 18.585722 ], [ 73.862789, 18.585798 ], [ 73.860947, 18.586047 ], [ 73.85914, 18.586467 ], [ 73.857385, 18.587054 ], [ 73.855699, 18.587802 ], [ 73.854097, 18.588704 ], [ 73.852596, 18.589752 ], [ 73.85121, 18.590935 ], [ 73.849952, 18.592241 ], [ 73.848835, 18.593659 ], [ 73.847868, 18.595174 ], [ 73.847062, 18.596773 ], [ 73.846424, 18.598439 ], [ 73.845961, 18.600156 ], [ 73.845676, 18.601909 ], [ 73.845573, 18.60368 ], [ 73.845652, 18.605452 ], [ 73.845913, 18.607208 ], [ 73.846354, 18.608931 ], [ 73.846969, 18.610605 ], [ 73.847754, 18.612213 ], [ 73.8487, 18.61374 ], [ 73.849798, 18.615171 ], [ 73.851039, 18.616493 ], [ 73.852409, 18.617692 ], [ 73.853896, 18.618758 ], [ 73.855485, 18.619679 ], [ 73.857162, 18.620448 ], [ 73.85891, 18.621056 ], [ 73.860711, 18.621498 ], [ 73.86255, 18.621769 ], [ 73.864407, 18.621868 ], [ 73.866266, 18.621792 ], [ 73.868108, 18.621543 ], [ 73.869915, 18.621122 ], [ 73.87167, 18.620535 ], [ 73.873357, 18.619787 ], [ 73.874959, 18.618885 ], [ 73.87646, 18.617837 ], [ 73.877846, 18.616655 ], [ 73.879104, 18.615348 ], [ 73.880221, 18.61393 ], [ 73.881188, 18.612414 ], [ 73.881993, 18.610816 ], [ 73.882631, 18.60915 ], [ 73.883094, 18.607432 ], [ 73.883378, 18.605679 ], [ 73.883481, 18.603908 ], [ 73.883402, 18.602136 ] ], [ [ 73.873953, 18.604737 ], [ 73.87381, 18.605614 ], [ 73.873579, 18.606473 ], [ 73.87326, 18.607306 ], [ 73.872857, 18.608105 ], [ 73.872374, 18.608863 ], [ 73.871815, 18.609572 ], [ 73.871186, 18.610225 ], [ 73.870493, 18.610816 ], [ 73.869743, 18.61134 ], [ 73.868942, 18.611791 ], [ 73.868099, 18.612165 ], [ 73.867221, 18.612459 ], [ 73.866317, 18.612669 ], [ 73.865396, 18.612793 ], [ 73.864467, 18.612831 ], [ 73.863538, 18.612782 ], [ 73.862619, 18.612646 ], [ 73.861718, 18.612426 ], [ 73.860845, 18.612122 ], [ 73.860006, 18.611737 ], [ 73.859212, 18.611277 ], [ 73.858468, 18.610744 ], [ 73.857783, 18.610144 ], [ 73.857163, 18.609483 ], [ 73.856614, 18.608768 ], [ 73.85614, 18.608004 ], [ 73.855748, 18.6072 ], [ 73.85544, 18.606363 ], [ 73.85522, 18.605502 ], [ 73.85509, 18.604624 ], [ 73.85505, 18.603738 ], [ 73.855101, 18.602852 ], [ 73.855244, 18.601976 ], [ 73.855476, 18.601117 ], [ 73.855794, 18.600284 ], [ 73.856197, 18.599485 ], [ 73.856681, 18.598727 ], [ 73.857239, 18.598018 ], [ 73.857868, 18.597365 ], [ 73.858561, 18.596774 ], [ 73.859312, 18.59625 ], [ 73.860113, 18.595799 ], [ 73.860956, 18.595425 ], [ 73.861833, 18.595131 ], [ 73.862737, 18.594921 ], [ 73.863658, 18.594797 ], [ 73.864587, 18.594759 ], [ 73.865515, 18.594808 ], [ 73.866435, 18.594943 ], [ 73.867335, 18.595164 ], [ 73.868209, 18.595468 ], [ 73.869047, 18.595853 ], [ 73.869842, 18.596313 ], [ 73.870585, 18.596846 ], [ 73.87127, 18.597446 ], [ 73.871891, 18.598106 ], [ 73.87244, 18.598822 ], [ 73.872913, 18.599586 ], [ 73.873305, 18.60039 ], [ 73.873613, 18.601226 ], [ 73.873834, 18.602088 ], [ 73.873964, 18.602966 ], [ 73.874004, 18.603852 ], [ 73.873953, 18.604737 ] ] ] } },
{ "type": "Feature", "properties": { "site_group": "STT Dighi", "ring": "2–4 km (reference)", "lst_mean": 45.07, "lst_excess": -0.0, "trees_pct": 12.04, "built_pct": 36.05, "excess_percentile_vs_lookalikes": 16.0 }, "geometry": { "type": "Polygon", "coordinates": [ [ [ 73.902276, 18.600476 ], [ 73.901753, 18.596964 ], [ 73.900871, 18.593518 ], [ 73.899639, 18.590171 ], [ 73.898069, 18.586955 ], [ 73.896176, 18.583901 ], [ 73.893979, 18.581039 ], [ 73.891498, 18.578396 ], [ 73.888757, 18.575998 ], [ 73.885783, 18.573867 ], [ 73.882605, 18.572024 ], [ 73.879252, 18.570488 ], [ 73.875758, 18.569272 ], [ 73.872156, 18.568389 ], [ 73.86848, 18.567846 ], [ 73.864766, 18.56765 ], [ 73.86105, 18.567801 ], [ 73.857368, 18.5683 ], [ 73.853754, 18.56914 ], [ 73.850244, 18.570313 ], [ 73.846872, 18.571809 ], [ 73.843669, 18.573613 ], [ 73.840667, 18.575708 ], [ 73.837895, 18.578073 ], [ 73.835379, 18.580686 ], [ 73.833144, 18.583521 ], [ 73.831211, 18.586552 ], [ 73.829599, 18.589749 ], [ 73.828323, 18.593081 ], [ 73.827395, 18.596516 ], [ 73.826826, 18.600021 ], [ 73.826619, 18.603563 ], [ 73.826777, 18.607107 ], [ 73.827299, 18.610619 ], [ 73.828179, 18.614065 ], [ 73.82941, 18.617413 ], [ 73.830979, 18.620629 ], [ 73.832871, 18.623683 ], [ 73.835067, 18.626546 ], [ 73.837548, 18.62919 ], [ 73.840289, 18.631589 ], [ 73.843263, 18.63372 ], [ 73.846442, 18.635563 ], [ 73.849796, 18.637101 ], [ 73.853291, 18.638317 ], [ 73.856895, 18.639201 ], [ 73.860572, 18.639744 ], [ 73.864287, 18.63994 ], [ 73.868005, 18.639788 ], [ 73.871689, 18.63929 ], [ 73.875304, 18.63845 ], [ 73.878815, 18.637276 ], [ 73.882189, 18.635779 ], [ 73.885392, 18.633975 ], [ 73.888394, 18.631879 ], [ 73.891167, 18.629513 ], [ 73.893683, 18.6269 ], [ 73.895917, 18.624064 ], [ 73.89785, 18.621032 ], [ 73.899461, 18.617835 ], [ 73.900736, 18.614503 ], [ 73.901662, 18.611067 ], [ 73.90223, 18.607562 ], [ 73.902436, 18.60402 ], [ 73.902276, 18.600476 ] ], [ [ 73.883378, 18.605679 ], [ 73.883094, 18.607432 ], [ 73.882631, 18.60915 ], [ 73.881993, 18.610816 ], [ 73.881188, 18.612414 ], [ 73.880221, 18.61393 ], [ 73.879104, 18.615348 ], [ 73.877846, 18.616655 ], [ 73.87646, 18.617837 ], [ 73.874959, 18.618885 ], [ 73.873357, 18.619787 ], [ 73.87167, 18.620535 ], [ 73.869915, 18.621122 ], [ 73.868108, 18.621543 ], [ 73.866266, 18.621792 ], [ 73.864407, 18.621868 ], [ 73.86255, 18.621769 ], [ 73.860711, 18.621498 ], [ 73.85891, 18.621056 ], [ 73.857162, 18.620448 ], [ 73.855485, 18.619679 ], [ 73.853896, 18.618758 ], [ 73.852409, 18.617692 ], [ 73.851039, 18.616493 ], [ 73.849798, 18.615171 ], [ 73.8487, 18.61374 ], [ 73.847754, 18.612213 ], [ 73.846969, 18.610605 ], [ 73.846354, 18.608931 ], [ 73.845913, 18.607208 ], [ 73.845652, 18.605452 ], [ 73.845573, 18.60368 ], [ 73.845676, 18.601909 ], [ 73.845961, 18.600156 ], [ 73.846424, 18.598439 ], [ 73.847062, 18.596773 ], [ 73.847868, 18.595174 ], [ 73.848835, 18.593659 ], [ 73.849952, 18.592241 ], [ 73.85121, 18.590935 ], [ 73.852596, 18.589752 ], [ 73.854097, 18.588704 ], [ 73.855699, 18.587802 ], [ 73.857385, 18.587054 ], [ 73.85914, 18.586467 ], [ 73.860947, 18.586047 ], [ 73.862789, 18.585798 ], [ 73.864647, 18.585722 ], [ 73.866504, 18.585821 ], [ 73.868342, 18.586092 ], [ 73.870143, 18.586534 ], [ 73.87189, 18.587142 ], [ 73.873567, 18.58791 ], [ 73.875156, 18.588831 ], [ 73.876643, 18.589897 ], [ 73.878013, 18.591096 ], [ 73.879254, 18.592418 ], [ 73.880353, 18.593849 ], [ 73.881299, 18.595376 ], [ 73.882084, 18.596984 ], [ 73.882699, 18.598657 ], [ 73.88314, 18.60038 ], [ 73.883402, 18.602136 ], [ 73.883481, 18.603908 ], [ 73.883378, 18.605679 ] ] ] } },
{ "type": "Feature", "properties": { "site_group": "Nxtra Hinjewadi", "ring": "0–0.2 km (campus)", "lst_mean": 45.17, "lst_excess": -1.13, "trees_pct": 4.15, "built_pct": 61.63, "excess_percentile_vs_lookalikes": 16.0 }, "geometry": { "type": "Polygon", "coordinates": [ [ [ 73.692927, 18.592846 ], [ 73.692901, 18.59267 ], [ 73.692858, 18.592498 ], [ 73.692796, 18.592331 ], [ 73.692718, 18.59217 ], [ 73.692623, 18.592017 ], [ 73.692514, 18.591874 ], [ 73.69239, 18.591741 ], [ 73.692253, 18.591621 ], [ 73.692104, 18.591515 ], [ 73.691946, 18.591422 ], [ 73.691778, 18.591345 ], [ 73.691603, 18.591284 ], [ 73.691423, 18.59124 ], [ 73.691239, 18.591213 ], [ 73.691054, 18.591203 ], [ 73.690868, 18.59121 ], [ 73.690684, 18.591235 ], [ 73.690503, 18.591277 ], [ 73.690328, 18.591335 ], [ 73.690159, 18.59141 ], [ 73.689999, 18.5915 ], [ 73.689848, 18.591605 ], [ 73.68971, 18.591723 ], [ 73.689584, 18.591853 ], [ 73.689472, 18.591995 ], [ 73.689375, 18.592147 ], [ 73.689294, 18.592306 ], [ 73.68923, 18.592473 ], [ 73.689184, 18.592645 ], [ 73.689155, 18.59282 ], [ 73.689145, 18.592997 ], [ 73.689153, 18.593174 ], [ 73.689179, 18.59335 ], [ 73.689222, 18.593522 ], [ 73.689284, 18.593689 ], [ 73.689362, 18.59385 ], [ 73.689457, 18.594003 ], [ 73.689566, 18.594146 ], [ 73.68969, 18.594279 ], [ 73.689827, 18.594399 ], [ 73.689912, 18.59446 ], [ 73.6898, 18.594443 ], [ 73.689614, 18.594433 ], [ 73.689428, 18.59444 ], [ 73.689244, 18.594465 ], [ 73.689063, 18.594507 ], [ 73.688888, 18.594565 ], [ 73.688719, 18.59464 ], [ 73.688559, 18.59473 ], [ 73.688408, 18.594835 ], [ 73.68827, 18.594953 ], [ 73.688144, 18.595083 ], [ 73.688032, 18.595225 ], [ 73.687935, 18.595376 ], [ 73.687854, 18.595536 ], [ 73.68779, 18.595703 ], [ 73.687744, 18.595875 ], [ 73.687715, 18.59605 ], [ 73.687705, 18.596227 ], [ 73.687713, 18.596404 ], [ 73.687739, 18.59658 ], [ 73.687782, 18.596752 ], [ 73.687844, 18.596919 ], [ 73.687922, 18.59708 ], [ 73.688016, 18.597233 ], [ 73.688126, 18.597376 ], [ 73.68825, 18.597509 ], [ 73.688387, 18.597629 ], [ 73.688536, 18.597735 ], [ 73.688694, 18.597828 ], [ 73.688862, 18.597905 ], [ 73.689037, 18.597965 ], [ 73.689217, 18.59801 ], [ 73.6894, 18.598037 ], [ 73.689586, 18.598047 ], [ 73.689772, 18.59804 ], [ 73.689956, 18.598015 ], [ 73.690137, 18.597973 ], [ 73.690313, 18.597915 ], [ 73.690481, 18.59784 ], [ 73.690641, 18.59775 ], [ 73.690792, 18.597645 ], [ 73.69093, 18.597527 ], [ 73.691056, 18.597397 ], [ 73.691168, 18.597255 ], [ 73.691265, 18.597103 ], [ 73.691346, 18.596944 ], [ 73.69141, 18.596777 ], [ 73.691456, 18.596605 ], [ 73.691485, 18.59643 ], [ 73.691495, 18.596253 ], [ 73.691487, 18.596076 ], [ 73.691461, 18.5959 ], [ 73.691418, 18.595728 ], [ 73.691356, 18.595561 ], [ 73.691278, 18.5954 ], [ 73.691183, 18.595247 ], [ 73.691074, 18.595104 ], [ 73.69095, 18.594971 ], [ 73.690813, 18.594851 ], [ 73.690728, 18.59479 ], [ 73.69084, 18.594807 ], [ 73.691026, 18.594817 ], [ 73.691212, 18.59481 ], [ 73.691396, 18.594785 ], [ 73.691577, 18.594743 ], [ 73.691753, 18.594685 ], [ 73.691921, 18.59461 ], [ 73.692081, 18.59452 ], [ 73.692232, 18.594415 ], [ 73.69237, 18.594297 ], [ 73.692496, 18.594167 ], [ 73.692608, 18.594025 ], [ 73.692705, 18.593873 ], [ 73.692786, 18.593714 ], [ 73.69285, 18.593547 ], [ 73.692896, 18.593375 ], [ 73.692925, 18.5932 ], [ 73.692935, 18.593023 ], [ 73.692927, 18.592846 ] ] ] } },
{ "type": "Feature", "properties": { "site_group": "Nxtra Hinjewadi", "ring": "0.2–0.5 km", "lst_mean": 46.89, "lst_excess": -0.27, "trees_pct": 9.89, "built_pct": 34.76, "excess_percentile_vs_lookalikes": 38.5 }, "geometry": { "type": "Polygon", "coordinates": [ [ [ 73.695694, 18.592161 ], [ 73.695584, 18.59173 ], [ 73.69543, 18.591311 ], [ 73.695235, 18.590909 ], [ 73.694999, 18.590527 ], [ 73.694724, 18.590169 ], [ 73.694415, 18.589839 ], [ 73.694072, 18.589539 ], [ 73.693701, 18.589272 ], [ 73.693304, 18.589041 ], [ 73.692885, 18.588849 ], [ 73.692448, 18.588696 ], [ 73.691998, 18.588585 ], [ 73.691539, 18.588517 ], [ 73.691075, 18.588492 ], [ 73.69061, 18.588511 ], [ 73.69015, 18.588573 ], [ 73.689698, 18.588677 ], [ 73.689259, 18.588823 ], [ 73.688837, 18.58901 ], [ 73.688436, 18.589235 ], [ 73.688061, 18.589497 ], [ 73.687714, 18.589792 ], [ 73.687399, 18.590118 ], [ 73.68712, 18.590473 ], [ 73.686878, 18.590851 ], [ 73.686676, 18.591251 ], [ 73.686516, 18.591667 ], [ 73.6864, 18.592096 ], [ 73.686328, 18.592534 ], [ 73.686302, 18.592977 ], [ 73.686303, 18.592998 ], [ 73.686274, 18.593022 ], [ 73.685959, 18.593348 ], [ 73.68568, 18.593703 ], [ 73.685438, 18.594081 ], [ 73.685236, 18.594481 ], [ 73.685076, 18.594897 ], [ 73.68496, 18.595326 ], [ 73.684888, 18.595764 ], [ 73.684862, 18.596207 ], [ 73.684881, 18.59665 ], [ 73.684946, 18.597089 ], [ 73.685056, 18.59752 ], [ 73.685209, 18.597938 ], [ 73.685405, 18.598341 ], [ 73.685641, 18.598723 ], [ 73.685915, 18.599081 ], [ 73.686225, 18.599411 ], [ 73.686567, 18.599711 ], [ 73.686939, 18.599978 ], [ 73.687336, 18.600209 ], [ 73.687755, 18.600401 ], [ 73.688192, 18.600554 ], [ 73.688642, 18.600665 ], [ 73.689101, 18.600733 ], [ 73.689565, 18.600758 ], [ 73.69003, 18.600739 ], [ 73.69049, 18.600677 ], [ 73.690942, 18.600573 ], [ 73.691381, 18.600427 ], [ 73.691803, 18.60024 ], [ 73.692204, 18.600015 ], [ 73.692579, 18.599753 ], [ 73.692926, 18.599458 ], [ 73.693241, 18.599132 ], [ 73.69352, 18.598777 ], [ 73.693762, 18.598399 ], [ 73.693964, 18.597999 ], [ 73.694124, 18.597583 ], [ 73.69424, 18.597154 ], [ 73.694312, 18.596716 ], [ 73.694338, 18.596273 ], [ 73.694337, 18.596252 ], [ 73.694366, 18.596228 ], [ 73.694681, 18.595902 ], [ 73.69496, 18.595547 ], [ 73.695202, 18.595169 ], [ 73.695404, 18.594769 ], [ 73.695564, 18.594353 ], [ 73.69568, 18.593924 ], [ 73.695752, 18.593486 ], [ 73.695778, 18.593043 ], [ 73.695759, 18.5926 ], [ 73.695694, 18.592161 ] ], [ [ 73.692935, 18.593023 ], [ 73.692925, 18.5932 ], [ 73.692896, 18.593375 ], [ 73.69285, 18.593547 ], [ 73.692786, 18.593714 ], [ 73.692705, 18.593873 ], [ 73.692608, 18.594025 ], [ 73.692496, 18.594167 ], [ 73.69237, 18.594297 ], [ 73.692232, 18.594415 ], [ 73.692081, 18.59452 ], [ 73.691921, 18.59461 ], [ 73.691753, 18.594685 ], [ 73.691577, 18.594743 ], [ 73.691396, 18.594785 ], [ 73.691212, 18.59481 ], [ 73.691026, 18.594817 ], [ 73.69084, 18.594807 ], [ 73.690728, 18.59479 ], [ 73.690813, 18.594851 ], [ 73.69095, 18.594971 ], [ 73.691074, 18.595104 ], [ 73.691183, 18.595247 ], [ 73.691278, 18.5954 ], [ 73.691356, 18.595561 ], [ 73.691418, 18.595728 ], [ 73.691461, 18.5959 ], [ 73.691487, 18.596076 ], [ 73.691495, 18.596253 ], [ 73.691485, 18.59643 ], [ 73.691456, 18.596605 ], [ 73.69141, 18.596777 ], [ 73.691346, 18.596944 ], [ 73.691265, 18.597103 ], [ 73.691168, 18.597255 ], [ 73.691056, 18.597397 ], [ 73.69093, 18.597527 ], [ 73.690792, 18.597645 ], [ 73.690641, 18.59775 ], [ 73.690481, 18.59784 ], [ 73.690313, 18.597915 ], [ 73.690137, 18.597973 ], [ 73.689956, 18.598015 ], [ 73.689772, 18.59804 ], [ 73.689586, 18.598047 ], [ 73.6894, 18.598037 ], [ 73.689217, 18.59801 ], [ 73.689037, 18.597965 ], [ 73.688862, 18.597905 ], [ 73.688694, 18.597828 ], [ 73.688536, 18.597735 ], [ 73.688387, 18.597629 ], [ 73.68825, 18.597509 ], [ 73.688126, 18.597376 ], [ 73.688016, 18.597233 ], [ 73.687922, 18.59708 ], [ 73.687844, 18.596919 ], [ 73.687782, 18.596752 ], [ 73.687739, 18.59658 ], [ 73.687713, 18.596404 ], [ 73.687705, 18.596227 ], [ 73.687715, 18.59605 ], [ 73.687744, 18.595875 ], [ 73.68779, 18.595703 ], [ 73.687854, 18.595536 ], [ 73.687935, 18.595376 ], [ 73.688032, 18.595225 ], [ 73.688144, 18.595083 ], [ 73.68827, 18.594953 ], [ 73.688408, 18.594835 ], [ 73.688559, 18.59473 ], [ 73.688719, 18.59464 ], [ 73.688888, 18.594565 ], [ 73.689063, 18.594507 ], [ 73.689244, 18.594465 ], [ 73.689428, 18.59444 ], [ 73.689614, 18.594433 ], [ 73.6898, 18.594443 ], [ 73.689912, 18.59446 ], [ 73.689827, 18.594399 ], [ 73.68969, 18.594279 ], [ 73.689566, 18.594146 ], [ 73.689457, 18.594003 ], [ 73.689362, 18.59385 ], [ 73.689284, 18.593689 ], [ 73.689222, 18.593522 ], [ 73.689179, 18.59335 ], [ 73.689153, 18.593174 ], [ 73.689145, 18.592997 ], [ 73.689155, 18.59282 ], [ 73.689184, 18.592645 ], [ 73.68923, 18.592473 ], [ 73.689294, 18.592306 ], [ 73.689375, 18.592147 ], [ 73.689472, 18.591995 ], [ 73.689584, 18.591853 ], [ 73.68971, 18.591723 ], [ 73.689848, 18.591605 ], [ 73.689999, 18.5915 ], [ 73.690159, 18.59141 ], [ 73.690328, 18.591335 ], [ 73.690503, 18.591277 ], [ 73.690684, 18.591235 ], [ 73.690868, 18.59121 ], [ 73.691054, 18.591203 ], [ 73.691239, 18.591213 ], [ 73.691423, 18.59124 ], [ 73.691603, 18.591284 ], [ 73.691778, 18.591345 ], [ 73.691946, 18.591422 ], [ 73.692104, 18.591515 ], [ 73.692253, 18.591621 ], [ 73.69239, 18.591741 ], [ 73.692514, 18.591874 ], [ 73.692623, 18.592017 ], [ 73.692718, 18.59217 ], [ 73.692796, 18.592331 ], [ 73.692858, 18.592498 ], [ 73.692901, 18.59267 ], [ 73.692927, 18.592846 ], [ 73.692935, 18.593023 ] ] ] } },
{ "type": "Feature", "properties": { "site_group": "Nxtra Hinjewadi", "ring": "0.5–1 km", "lst_mean": 46.61, "lst_excess": 0.4, "trees_pct": 15.12, "built_pct": 28.55, "excess_percentile_vs_lookalikes": 59.0 }, "geometry": { "type": "Polygon", "coordinates": [ [ [ 73.700347, 18.591312 ], [ 73.700128, 18.59045 ], [ 73.699821, 18.589613 ], [ 73.699429, 18.588808 ], [ 73.698957, 18.588045 ], [ 73.698409, 18.587329 ], [ 73.697789, 18.586667 ], [ 73.697105, 18.586067 ], [ 73.696362, 18.585534 ], [ 73.695568, 18.585072 ], [ 73.69473, 18.584687 ], [ 73.693857, 18.584382 ], [ 73.692956, 18.584161 ], [ 73.692037, 18.584024 ], [ 73.691109, 18.583974 ], [ 73.69018, 18.584011 ], [ 73.689259, 18.584135 ], [ 73.688355, 18.584344 ], [ 73.687478, 18.584637 ], [ 73.686634, 18.58501 ], [ 73.685833, 18.58546 ], [ 73.685082, 18.585983 ], [ 73.684389, 18.586574 ], [ 73.683759, 18.587227 ], [ 73.6832, 18.587935 ], [ 73.682716, 18.588692 ], [ 73.682312, 18.589491 ], [ 73.681992, 18.590324 ], [ 73.681767, 18.591156 ], [ 73.68176, 18.591165 ], [ 73.681276, 18.591922 ], [ 73.680872, 18.592721 ], [ 73.680552, 18.593554 ], [ 73.68032, 18.594412 ], [ 73.680176, 18.595289 ], [ 73.680124, 18.596174 ], [ 73.680163, 18.59706 ], [ 73.680292, 18.597938 ], [ 73.680512, 18.5988 ], [ 73.680819, 18.599637 ], [ 73.68121, 18.600441 ], [ 73.681682, 18.601205 ], [ 73.682231, 18.601921 ], [ 73.68285, 18.602582 ], [ 73.683535, 18.603183 ], [ 73.684278, 18.603716 ], [ 73.685072, 18.604178 ], [ 73.68591, 18.604563 ], [ 73.686783, 18.604867 ], [ 73.687683, 18.605089 ], [ 73.688602, 18.605226 ], [ 73.689531, 18.605276 ], [ 73.69046, 18.605239 ], [ 73.691381, 18.605115 ], [ 73.692285, 18.604906 ], [ 73.693163, 18.604613 ], [ 73.694006, 18.60424 ], [ 73.694807, 18.603789 ], [ 73.695558, 18.603266 ], [ 73.696252, 18.602676 ], [ 73.696882, 18.602023 ], [ 73.697441, 18.601315 ], [ 73.697925, 18.600557 ], [ 73.698328, 18.599759 ], [ 73.698648, 18.598926 ], [ 73.698873, 18.598094 ], [ 73.698881, 18.598085 ], [ 73.699365, 18.597327 ], [ 73.699768, 18.596528 ], [ 73.700088, 18.595696 ], [ 73.70032, 18.594837 ], [ 73.700464, 18.593961 ], [ 73.700516, 18.593076 ], [ 73.700477, 18.59219 ], [ 73.700347, 18.591312 ] ], [ [ 73.695778, 18.593043 ], [ 73.695752, 18.593486 ], [ 73.69568, 18.593924 ], [ 73.695564, 18.594353 ], [ 73.695404, 18.594769 ], [ 73.695202, 18.595169 ], [ 73.69496, 18.595547 ], [ 73.694681, 18.595902 ], [ 73.694366, 18.596228 ], [ 73.694337, 18.596252 ], [ 73.694338, 18.596273 ], [ 73.694312, 18.596716 ], [ 73.69424, 18.597154 ], [ 73.694124, 18.597583 ], [ 73.693964, 18.597999 ], [ 73.693762, 18.598399 ], [ 73.69352, 18.598777 ], [ 73.693241, 18.599132 ], [ 73.692926, 18.599458 ], [ 73.692579, 18.599753 ], [ 73.692204, 18.600015 ], [ 73.691803, 18.60024 ], [ 73.691381, 18.600427 ], [ 73.690942, 18.600573 ], [ 73.69049, 18.600677 ], [ 73.69003, 18.600739 ], [ 73.689565, 18.600758 ], [ 73.689101, 18.600733 ], [ 73.688642, 18.600665 ], [ 73.688192, 18.600554 ], [ 73.687755, 18.600401 ], [ 73.687336, 18.600209 ], [ 73.686939, 18.599978 ], [ 73.686567, 18.599711 ], [ 73.686225, 18.599411 ], [ 73.685915, 18.599081 ], [ 73.685641, 18.598723 ], [ 73.685405, 18.598341 ], [ 73.685209, 18.597938 ], [ 73.685056, 18.59752 ], [ 73.684946, 18.597089 ], [ 73.684881, 18.59665 ], [ 73.684862, 18.596207 ], [ 73.684888, 18.595764 ], [ 73.68496, 18.595326 ], [ 73.685076, 18.594897 ], [ 73.685236, 18.594481 ], [ 73.685438, 18.594081 ], [ 73.68568, 18.593703 ], [ 73.685959, 18.593348 ], [ 73.686274, 18.593022 ], [ 73.686303, 18.592998 ], [ 73.686302, 18.592977 ], [ 73.686328, 18.592534 ], [ 73.6864, 18.592096 ], [ 73.686516, 18.591667 ], [ 73.686676, 18.591251 ], [ 73.686878, 18.590851 ], [ 73.68712, 18.590473 ], [ 73.687399, 18.590118 ], [ 73.687714, 18.589792 ], [ 73.688061, 18.589497 ], [ 73.688436, 18.589235 ], [ 73.688837, 18.58901 ], [ 73.689259, 18.588823 ], [ 73.689698, 18.588677 ], [ 73.69015, 18.588573 ], [ 73.69061, 18.588511 ], [ 73.691075, 18.588492 ], [ 73.691539, 18.588517 ], [ 73.691998, 18.588585 ], [ 73.692448, 18.588696 ], [ 73.692885, 18.588849 ], [ 73.693304, 18.589041 ], [ 73.693701, 18.589272 ], [ 73.694072, 18.589539 ], [ 73.694415, 18.589839 ], [ 73.694724, 18.590169 ], [ 73.694999, 18.590527 ], [ 73.695235, 18.590909 ], [ 73.69543, 18.591311 ], [ 73.695584, 18.59173 ], [ 73.695694, 18.592161 ], [ 73.695759, 18.5926 ], [ 73.695778, 18.593043 ] ] ] } },
{ "type": "Feature", "properties": { "site_group": "Nxtra Hinjewadi", "ring": "1–2 km", "lst_mean": 46.26, "lst_excess": -0.13, "trees_pct": 10.61, "built_pct": 36.4, "excess_percentile_vs_lookalikes": 35.5 }, "geometry": { "type": "Polygon", "coordinates": [ [ [ 73.709654, 18.589613 ], [ 73.709215, 18.587889 ], [ 73.708601, 18.586215 ], [ 73.707818, 18.584607 ], [ 73.706874, 18.583079 ], [ 73.705777, 18.581647 ], [ 73.704538, 18.580324 ], [ 73.703169, 18.579124 ], [ 73.701683, 18.578057 ], [ 73.700095, 18.577134 ], [ 73.698419, 18.576364 ], [ 73.696673, 18.575755 ], [ 73.694872, 18.575311 ], [ 73.693035, 18.575038 ], [ 73.691178, 18.574939 ], [ 73.68932, 18.575013 ], [ 73.687478, 18.57526 ], [ 73.685671, 18.575678 ], [ 73.683916, 18.576264 ], [ 73.682229, 18.57701 ], [ 73.680627, 18.577911 ], [ 73.679125, 18.578957 ], [ 73.677738, 18.580138 ], [ 73.676479, 18.581443 ], [ 73.67536, 18.58286 ], [ 73.674392, 18.584374 ], [ 73.673584, 18.585972 ], [ 73.672967, 18.587581 ], [ 73.672952, 18.587604 ], [ 73.672144, 18.589202 ], [ 73.671505, 18.590867 ], [ 73.671039, 18.592584 ], [ 73.670753, 18.594337 ], [ 73.670648, 18.596107 ], [ 73.670725, 18.597879 ], [ 73.670985, 18.599635 ], [ 73.671423, 18.601359 ], [ 73.672037, 18.603033 ], [ 73.67282, 18.604642 ], [ 73.673764, 18.60617 ], [ 73.674861, 18.607602 ], [ 73.6761, 18.608925 ], [ 73.677469, 18.610125 ], [ 73.678955, 18.611192 ], [ 73.680543, 18.612115 ], [ 73.682219, 18.612885 ], [ 73.683966, 18.613495 ], [ 73.685767, 18.613938 ], [ 73.687605, 18.614211 ], [ 73.689462, 18.614311 ], [ 73.69132, 18.614237 ], [ 73.693162, 18.61399 ], [ 73.69497, 18.613571 ], [ 73.696726, 18.612986 ], [ 73.698413, 18.61224 ], [ 73.700015, 18.611339 ], [ 73.701517, 18.610293 ], [ 73.702904, 18.609111 ], [ 73.704164, 18.607806 ], [ 73.705282, 18.606389 ], [ 73.70625, 18.604874 ], [ 73.707057, 18.603277 ], [ 73.707675, 18.601667 ], [ 73.70769, 18.601644 ], [ 73.708497, 18.600047 ], [ 73.709136, 18.598381 ], [ 73.709601, 18.596664 ], [ 73.709887, 18.594911 ], [ 73.709992, 18.593141 ], [ 73.709914, 18.591369 ], [ 73.709654, 18.589613 ] ], [ [ 73.700516, 18.593076 ], [ 73.700464, 18.593961 ], [ 73.70032, 18.594837 ], [ 73.700088, 18.595696 ], [ 73.699768, 18.596528 ], [ 73.699365, 18.597327 ], [ 73.698881, 18.598085 ], [ 73.698873, 18.598094 ], [ 73.698648, 18.598926 ], [ 73.698328, 18.599759 ], [ 73.697925, 18.600557 ], [ 73.697441, 18.601315 ], [ 73.696882, 18.602023 ], [ 73.696252, 18.602676 ], [ 73.695558, 18.603266 ], [ 73.694807, 18.603789 ], [ 73.694006, 18.60424 ], [ 73.693163, 18.604613 ], [ 73.692285, 18.604906 ], [ 73.691381, 18.605115 ], [ 73.69046, 18.605239 ], [ 73.689531, 18.605276 ], [ 73.688602, 18.605226 ], [ 73.687683, 18.605089 ], [ 73.686783, 18.604867 ], [ 73.68591, 18.604563 ], [ 73.685072, 18.604178 ], [ 73.684278, 18.603716 ], [ 73.683535, 18.603183 ], [ 73.68285, 18.602582 ], [ 73.682231, 18.601921 ], [ 73.681682, 18.601205 ], [ 73.68121, 18.600441 ], [ 73.680819, 18.599637 ], [ 73.680512, 18.5988 ], [ 73.680292, 18.597938 ], [ 73.680163, 18.59706 ], [ 73.680124, 18.596174 ], [ 73.680176, 18.595289 ], [ 73.68032, 18.594412 ], [ 73.680552, 18.593554 ], [ 73.680872, 18.592721 ], [ 73.681276, 18.591922 ], [ 73.68176, 18.591165 ], [ 73.681767, 18.591156 ], [ 73.681992, 18.590324 ], [ 73.682312, 18.589491 ], [ 73.682716, 18.588692 ], [ 73.6832, 18.587935 ], [ 73.683759, 18.587227 ], [ 73.684389, 18.586574 ], [ 73.685082, 18.585983 ], [ 73.685833, 18.58546 ], [ 73.686634, 18.58501 ], [ 73.687478, 18.584637 ], [ 73.688355, 18.584344 ], [ 73.689259, 18.584135 ], [ 73.69018, 18.584011 ], [ 73.691109, 18.583974 ], [ 73.692037, 18.584024 ], [ 73.692956, 18.584161 ], [ 73.693857, 18.584382 ], [ 73.69473, 18.584687 ], [ 73.695568, 18.585072 ], [ 73.696362, 18.585534 ], [ 73.697105, 18.586067 ], [ 73.697789, 18.586667 ], [ 73.698409, 18.587329 ], [ 73.698957, 18.588045 ], [ 73.699429, 18.588808 ], [ 73.699821, 18.589613 ], [ 73.700128, 18.59045 ], [ 73.700347, 18.591312 ], [ 73.700477, 18.59219 ], [ 73.700516, 18.593076 ] ] ] } },
{ "type": "Feature", "properties": { "site_group": "Nxtra Hinjewadi", "ring": "2–4 km (reference)", "lst_mean": 46.58, "lst_excess": -0.0, "trees_pct": 11.12, "built_pct": 29.52, "excess_percentile_vs_lookalikes": 18.5 }, "geometry": { "type": "Polygon", "coordinates": [ [ [ 73.728268, 18.586213 ], [ 73.72739, 18.582767 ], [ 73.726161, 18.579419 ], [ 73.724595, 18.576201 ], [ 73.722706, 18.573146 ], [ 73.720511, 18.570282 ], [ 73.718033, 18.567637 ], [ 73.715295, 18.565236 ], [ 73.712324, 18.563103 ], [ 73.709148, 18.561258 ], [ 73.705797, 18.559718 ], [ 73.702305, 18.558499 ], [ 73.698704, 18.557613 ], [ 73.695029, 18.557067 ], [ 73.691316, 18.556867 ], [ 73.6876, 18.557015 ], [ 73.683917, 18.55751 ], [ 73.680303, 18.558347 ], [ 73.676793, 18.559517 ], [ 73.673419, 18.56101 ], [ 73.670215, 18.562811 ], [ 73.667212, 18.564903 ], [ 73.664437, 18.567265 ], [ 73.661919, 18.569876 ], [ 73.659682, 18.572709 ], [ 73.657746, 18.575737 ], [ 73.65613, 18.578932 ], [ 73.655522, 18.580516 ], [ 73.65469, 18.582162 ], [ 73.653411, 18.585493 ], [ 73.65248, 18.588927 ], [ 73.651906, 18.592431 ], [ 73.651696, 18.595973 ], [ 73.651851, 18.599516 ], [ 73.652369, 18.603029 ], [ 73.653246, 18.606476 ], [ 73.654473, 18.609824 ], [ 73.656038, 18.613042 ], [ 73.657927, 18.616098 ], [ 73.66012, 18.618962 ], [ 73.662598, 18.621608 ], [ 73.665336, 18.62401 ], [ 73.668308, 18.626144 ], [ 73.671485, 18.62799 ], [ 73.674836, 18.62953 ], [ 73.67833, 18.630749 ], [ 73.681932, 18.631637 ], [ 73.685608, 18.632183 ], [ 73.689323, 18.632383 ], [ 73.693041, 18.632235 ], [ 73.696725, 18.63174 ], [ 73.70034, 18.630903 ], [ 73.703853, 18.629732 ], [ 73.707227, 18.628239 ], [ 73.710432, 18.626437 ], [ 73.713436, 18.624345 ], [ 73.716211, 18.621982 ], [ 73.718729, 18.619371 ], [ 73.720966, 18.616537 ], [ 73.722902, 18.613507 ], [ 73.724516, 18.610312 ], [ 73.725124, 18.608728 ], [ 73.725956, 18.607081 ], [ 73.727234, 18.60375 ], [ 73.728163, 18.600316 ], [ 73.728735, 18.596811 ], [ 73.728944, 18.59327 ], [ 73.728788, 18.589726 ], [ 73.728268, 18.586213 ] ], [ [ 73.709992, 18.593141 ], [ 73.709887, 18.594911 ], [ 73.709601, 18.596664 ], [ 73.709136, 18.598381 ], [ 73.708497, 18.600047 ], [ 73.70769, 18.601644 ], [ 73.707675, 18.601667 ], [ 73.707057, 18.603277 ], [ 73.70625, 18.604874 ], [ 73.705282, 18.606389 ], [ 73.704164, 18.607806 ], [ 73.702904, 18.609111 ], [ 73.701517, 18.610293 ], [ 73.700015, 18.611339 ], [ 73.698413, 18.61224 ], [ 73.696726, 18.612986 ], [ 73.69497, 18.613571 ], [ 73.693162, 18.61399 ], [ 73.69132, 18.614237 ], [ 73.689462, 18.614311 ], [ 73.687605, 18.614211 ], [ 73.685767, 18.613938 ], [ 73.683966, 18.613495 ], [ 73.682219, 18.612885 ], [ 73.680543, 18.612115 ], [ 73.678955, 18.611192 ], [ 73.677469, 18.610125 ], [ 73.6761, 18.608925 ], [ 73.674861, 18.607602 ], [ 73.673764, 18.60617 ], [ 73.67282, 18.604642 ], [ 73.672037, 18.603033 ], [ 73.671423, 18.601359 ], [ 73.670985, 18.599635 ], [ 73.670725, 18.597879 ], [ 73.670648, 18.596107 ], [ 73.670753, 18.594337 ], [ 73.671039, 18.592584 ], [ 73.671505, 18.590867 ], [ 73.672144, 18.589202 ], [ 73.672952, 18.587604 ], [ 73.672967, 18.587581 ], [ 73.673584, 18.585972 ], [ 73.674392, 18.584374 ], [ 73.67536, 18.58286 ], [ 73.676479, 18.581443 ], [ 73.677738, 18.580138 ], [ 73.679125, 18.578957 ], [ 73.680627, 18.577911 ], [ 73.682229, 18.57701 ], [ 73.683916, 18.576264 ], [ 73.685671, 18.575678 ], [ 73.687478, 18.57526 ], [ 73.68932, 18.575013 ], [ 73.691178, 18.574939 ], [ 73.693035, 18.575038 ], [ 73.694872, 18.575311 ], [ 73.696673, 18.575755 ], [ 73.698419, 18.576364 ], [ 73.700095, 18.577134 ], [ 73.701683, 18.578057 ], [ 73.703169, 18.579124 ], [ 73.704538, 18.580324 ], [ 73.705777, 18.581647 ], [ 73.706874, 18.583079 ], [ 73.707818, 18.584607 ], [ 73.708601, 18.586215 ], [ 73.709215, 18.587889 ], [ 73.709654, 18.589613 ], [ 73.709914, 18.591369 ], [ 73.709992, 18.593141 ] ] ] } },
{ "type": "Feature", "properties": { "site_group": "Hinjewadi Phase 1", "ring": "0–0.2 km (campus)", "lst_mean": 46.02, "lst_excess": 0.33, "trees_pct": 2.89, "built_pct": 67.48, "excess_percentile_vs_lookalikes": 64.0 }, "geometry": { "type": "Polygon", "coordinates": [ [ [ 73.729175, 18.589902 ], [ 73.729026, 18.589795 ], [ 73.728867, 18.589703 ], [ 73.7287, 18.589626 ], [ 73.728525, 18.589565 ], [ 73.728345, 18.589521 ], [ 73.728161, 18.589494 ], [ 73.727975, 18.589484 ], [ 73.72779, 18.589491 ], [ 73.727605, 18.589516 ], [ 73.727425, 18.589558 ], [ 73.727249, 18.589616 ], [ 73.72708, 18.589691 ], [ 73.72692, 18.589781 ], [ 73.72677, 18.589886 ], [ 73.726631, 18.590004 ], [ 73.726506, 18.590135 ], [ 73.726394, 18.590276 ], [ 73.726297, 18.590428 ], [ 73.726216, 18.590588 ], [ 73.726152, 18.590754 ], [ 73.726106, 18.590926 ], [ 73.726077, 18.591101 ], [ 73.726067, 18.591278 ], [ 73.726075, 18.591455 ], [ 73.726101, 18.591631 ], [ 73.726145, 18.591803 ], [ 73.726206, 18.591971 ], [ 73.726284, 18.592132 ], [ 73.726379, 18.592284 ], [ 73.726488, 18.592428 ], [ 73.726612, 18.59256 ], [ 73.726749, 18.59268 ], [ 73.726898, 18.592786 ], [ 73.727057, 18.592879 ], [ 73.727224, 18.592956 ], [ 73.727399, 18.593017 ], [ 73.727579, 18.593061 ], [ 73.727744, 18.593085 ], [ 73.727778, 18.593116 ], [ 73.727927, 18.593223 ], [ 73.728086, 18.593315 ], [ 73.728253, 18.593392 ], [ 73.728428, 18.593453 ], [ 73.728608, 18.593497 ], [ 73.728792, 18.593524 ], [ 73.728978, 18.593534 ], [ 73.729163, 18.593527 ], [ 73.729348, 18.593502 ], [ 73.729528, 18.59346 ], [ 73.729704, 18.593401 ], [ 73.729873, 18.593327 ], [ 73.730033, 18.593237 ], [ 73.730183, 18.593132 ], [ 73.730322, 18.593014 ], [ 73.730448, 18.592883 ], [ 73.730559, 18.592742 ], [ 73.730656, 18.59259 ], [ 73.730737, 18.59243 ], [ 73.730801, 18.592264 ], [ 73.730847, 18.592092 ], [ 73.730876, 18.591917 ], [ 73.730886, 18.59174 ], [ 73.730878, 18.591563 ], [ 73.730852, 18.591387 ], [ 73.730808, 18.591215 ], [ 73.730747, 18.591047 ], [ 73.730669, 18.590886 ], [ 73.730574, 18.590734 ], [ 73.730465, 18.59059 ], [ 73.730341, 18.590458 ], [ 73.730204, 18.590338 ], [ 73.730055, 18.590231 ], [ 73.729896, 18.590139 ], [ 73.729729, 18.590062 ], [ 73.729554, 18.590001 ], [ 73.729374, 18.589957 ], [ 73.729209, 18.589933 ], [ 73.729175, 18.589902 ] ] ] } },
{ "type": "Feature", "properties": { "site_group": "Hinjewadi Phase 1", "ring": "0.2–0.5 km", "lst_mean": 45.94, "lst_excess": 0.34, "trees_pct": 3.47, "built_pct": 63.08, "excess_percentile_vs_lookalikes": 67.0 }, "geometry": { "type": "Polygon", "coordinates": [ [ [ 73.729806, 18.587129 ], [ 73.729369, 18.586977 ], [ 73.728919, 18.586866 ], [ 73.72846, 18.586798 ], [ 73.727996, 18.586773 ], [ 73.727531, 18.586792 ], [ 73.727071, 18.586854 ], [ 73.726619, 18.586958 ], [ 73.72618, 18.587105 ], [ 73.725758, 18.587291 ], [ 73.725358, 18.587517 ], [ 73.724982, 18.587778 ], [ 73.724636, 18.588074 ], [ 73.724321, 18.5884 ], [ 73.724041, 18.588754 ], [ 73.723799, 18.589133 ], [ 73.723598, 18.589532 ], [ 73.723438, 18.589949 ], [ 73.723322, 18.590378 ], [ 73.72325, 18.590816 ], [ 73.723224, 18.591259 ], [ 73.723244, 18.591702 ], [ 73.723309, 18.592141 ], [ 73.723418, 18.592572 ], [ 73.723572, 18.59299 ], [ 73.723768, 18.593392 ], [ 73.724004, 18.593774 ], [ 73.724278, 18.594132 ], [ 73.724588, 18.594463 ], [ 73.72493, 18.594763 ], [ 73.725302, 18.59503 ], [ 73.725699, 18.59526 ], [ 73.726118, 18.595453 ], [ 73.726555, 18.595605 ], [ 73.726583, 18.595612 ], [ 73.726728, 18.595696 ], [ 73.727147, 18.595889 ], [ 73.727584, 18.596041 ], [ 73.728034, 18.596152 ], [ 73.728493, 18.59622 ], [ 73.728957, 18.596245 ], [ 73.729422, 18.596226 ], [ 73.729882, 18.596164 ], [ 73.730334, 18.59606 ], [ 73.730773, 18.595913 ], [ 73.731195, 18.595727 ], [ 73.731595, 18.595501 ], [ 73.731971, 18.59524 ], [ 73.732318, 18.594944 ], [ 73.732632, 18.594618 ], [ 73.732912, 18.594264 ], [ 73.733154, 18.593885 ], [ 73.733356, 18.593485 ], [ 73.733515, 18.593069 ], [ 73.733631, 18.59264 ], [ 73.733703, 18.592202 ], [ 73.733729, 18.591759 ], [ 73.733709, 18.591316 ], [ 73.733644, 18.590877 ], [ 73.733535, 18.590446 ], [ 73.733381, 18.590028 ], [ 73.733185, 18.589625 ], [ 73.732949, 18.589244 ], [ 73.732675, 18.588886 ], [ 73.732365, 18.588555 ], [ 73.732023, 18.588255 ], [ 73.731651, 18.587988 ], [ 73.731254, 18.587758 ], [ 73.730835, 18.587565 ], [ 73.730398, 18.587413 ], [ 73.73037, 18.587406 ], [ 73.730225, 18.587322 ], [ 73.729806, 18.587129 ] ], [ [ 73.729209, 18.589933 ], [ 73.729374, 18.589957 ], [ 73.729554, 18.590001 ], [ 73.729729, 18.590062 ], [ 73.729896, 18.590139 ], [ 73.730055, 18.590231 ], [ 73.730204, 18.590338 ], [ 73.730341, 18.590458 ], [ 73.730465, 18.59059 ], [ 73.730574, 18.590734 ], [ 73.730669, 18.590886 ], [ 73.730747, 18.591047 ], [ 73.730808, 18.591215 ], [ 73.730852, 18.591387 ], [ 73.730878, 18.591563 ], [ 73.730886, 18.59174 ], [ 73.730876, 18.591917 ], [ 73.730847, 18.592092 ], [ 73.730801, 18.592264 ], [ 73.730737, 18.59243 ], [ 73.730656, 18.59259 ], [ 73.730559, 18.592742 ], [ 73.730448, 18.592883 ], [ 73.730322, 18.593014 ], [ 73.730183, 18.593132 ], [ 73.730033, 18.593237 ], [ 73.729873, 18.593327 ], [ 73.729704, 18.593401 ], [ 73.729528, 18.59346 ], [ 73.729348, 18.593502 ], [ 73.729163, 18.593527 ], [ 73.728978, 18.593534 ], [ 73.728792, 18.593524 ], [ 73.728608, 18.593497 ], [ 73.728428, 18.593453 ], [ 73.728253, 18.593392 ], [ 73.728086, 18.593315 ], [ 73.727927, 18.593223 ], [ 73.727778, 18.593116 ], [ 73.727744, 18.593085 ], [ 73.727579, 18.593061 ], [ 73.727399, 18.593017 ], [ 73.727224, 18.592956 ], [ 73.727057, 18.592879 ], [ 73.726898, 18.592786 ], [ 73.726749, 18.59268 ], [ 73.726612, 18.59256 ], [ 73.726488, 18.592428 ], [ 73.726379, 18.592284 ], [ 73.726284, 18.592132 ], [ 73.726206, 18.591971 ], [ 73.726145, 18.591803 ], [ 73.726101, 18.591631 ], [ 73.726075, 18.591455 ], [ 73.726067, 18.591278 ], [ 73.726077, 18.591101 ], [ 73.726106, 18.590926 ], [ 73.726152, 18.590754 ], [ 73.726216, 18.590588 ], [ 73.726297, 18.590428 ], [ 73.726394, 18.590276 ], [ 73.726506, 18.590135 ], [ 73.726631, 18.590004 ], [ 73.72677, 18.589886 ], [ 73.72692, 18.589781 ], [ 73.72708, 18.589691 ], [ 73.727249, 18.589616 ], [ 73.727425, 18.589558 ], [ 73.727605, 18.589516 ], [ 73.72779, 18.589491 ], [ 73.727975, 18.589484 ], [ 73.728161, 18.589494 ], [ 73.728345, 18.589521 ], [ 73.728525, 18.589565 ], [ 73.7287, 18.589626 ], [ 73.728867, 18.589703 ], [ 73.729026, 18.589795 ], [ 73.729175, 18.589902 ], [ 73.729209, 18.589933 ] ] ] } },
{ "type": "Feature", "properties": { "site_group": "Hinjewadi Phase 1", "ring": "0.5–1 km", "lst_mean": 46.04, "lst_excess": 0.22, "trees_pct": 3.82, "built_pct": 59.59, "excess_percentile_vs_lookalikes": 67.5 }, "geometry": { "type": "Polygon", "coordinates": [ [ [ 73.730777, 18.582663 ], [ 73.729876, 18.582441 ], [ 73.728957, 18.582305 ], [ 73.728029, 18.582255 ], [ 73.7271, 18.582292 ], [ 73.726179, 18.582416 ], [ 73.725276, 18.582626 ], [ 73.724398, 18.582918 ], [ 73.723554, 18.583292 ], [ 73.722753, 18.583742 ], [ 73.722003, 18.584266 ], [ 73.721309, 18.584856 ], [ 73.72068, 18.585509 ], [ 73.720121, 18.586218 ], [ 73.719637, 18.586975 ], [ 73.719233, 18.587774 ], [ 73.718914, 18.588607 ], [ 73.718681, 18.589465 ], [ 73.718538, 18.590341 ], [ 73.718486, 18.591227 ], [ 73.718525, 18.592113 ], [ 73.718655, 18.592991 ], [ 73.718874, 18.593853 ], [ 73.719182, 18.59469 ], [ 73.719573, 18.595494 ], [ 73.720046, 18.596258 ], [ 73.720594, 18.596974 ], [ 73.721214, 18.597635 ], [ 73.721898, 18.598235 ], [ 73.722641, 18.598768 ], [ 73.723436, 18.59923 ], [ 73.724274, 18.599614 ], [ 73.724605, 18.59973 ], [ 73.725303, 18.600051 ], [ 73.726176, 18.600355 ], [ 73.727076, 18.600577 ], [ 73.727995, 18.600713 ], [ 73.728924, 18.600763 ], [ 73.729853, 18.600726 ], [ 73.730774, 18.600602 ], [ 73.731678, 18.600392 ], [ 73.732556, 18.600099 ], [ 73.733399, 18.599726 ], [ 73.7342, 18.599275 ], [ 73.734951, 18.598752 ], [ 73.735644, 18.598161 ], [ 73.736274, 18.597509 ], [ 73.736833, 18.5968 ], [ 73.737317, 18.596043 ], [ 73.73772, 18.595244 ], [ 73.73804, 18.594411 ], [ 73.738272, 18.593552 ], [ 73.738415, 18.592676 ], [ 73.738467, 18.591791 ], [ 73.738428, 18.590905 ], [ 73.738298, 18.590027 ], [ 73.738078, 18.589165 ], [ 73.737771, 18.588328 ], [ 73.737379, 18.587524 ], [ 73.736907, 18.58676 ], [ 73.736358, 18.586044 ], [ 73.735739, 18.585383 ], [ 73.735054, 18.584783 ], [ 73.734311, 18.584249 ], [ 73.733517, 18.583788 ], [ 73.732679, 18.583403 ], [ 73.732348, 18.583288 ], [ 73.73165, 18.582967 ], [ 73.730777, 18.582663 ] ], [ [ 73.73037, 18.587406 ], [ 73.730398, 18.587413 ], [ 73.730835, 18.587565 ], [ 73.731254, 18.587758 ], [ 73.731651, 18.587988 ], [ 73.732023, 18.588255 ], [ 73.732365, 18.588555 ], [ 73.732675, 18.588886 ], [ 73.732949, 18.589244 ], [ 73.733185, 18.589625 ], [ 73.733381, 18.590028 ], [ 73.733535, 18.590446 ], [ 73.733644, 18.590877 ], [ 73.733709, 18.591316 ], [ 73.733729, 18.591759 ], [ 73.733703, 18.592202 ], [ 73.733631, 18.59264 ], [ 73.733515, 18.593069 ], [ 73.733356, 18.593485 ], [ 73.733154, 18.593885 ], [ 73.732912, 18.594264 ], [ 73.732632, 18.594618 ], [ 73.732318, 18.594944 ], [ 73.731971, 18.59524 ], [ 73.731595, 18.595501 ], [ 73.731195, 18.595727 ], [ 73.730773, 18.595913 ], [ 73.730334, 18.59606 ], [ 73.729882, 18.596164 ], [ 73.729422, 18.596226 ], [ 73.728957, 18.596245 ], [ 73.728493, 18.59622 ], [ 73.728034, 18.596152 ], [ 73.727584, 18.596041 ], [ 73.727147, 18.595889 ], [ 73.726728, 18.595696 ], [ 73.726583, 18.595612 ], [ 73.726555, 18.595605 ], [ 73.726118, 18.595453 ], [ 73.725699, 18.59526 ], [ 73.725302, 18.59503 ], [ 73.72493, 18.594763 ], [ 73.724588, 18.594463 ], [ 73.724278, 18.594132 ], [ 73.724004, 18.593774 ], [ 73.723768, 18.593392 ], [ 73.723572, 18.59299 ], [ 73.723418, 18.592572 ], [ 73.723309, 18.592141 ], [ 73.723244, 18.591702 ], [ 73.723224, 18.591259 ], [ 73.72325, 18.590816 ], [ 73.723322, 18.590378 ], [ 73.723438, 18.589949 ], [ 73.723598, 18.589532 ], [ 73.723799, 18.589133 ], [ 73.724041, 18.588754 ], [ 73.724321, 18.5884 ], [ 73.724636, 18.588074 ], [ 73.724982, 18.587778 ], [ 73.725358, 18.587517 ], [ 73.725758, 18.587291 ], [ 73.72618, 18.587105 ], [ 73.726619, 18.586958 ], [ 73.727071, 18.586854 ], [ 73.727531, 18.586792 ], [ 73.727996, 18.586773 ], [ 73.72846, 18.586798 ], [ 73.728919, 18.586866 ], [ 73.729369, 18.586977 ], [ 73.729806, 18.587129 ], [ 73.730225, 18.587322 ], [ 73.73037, 18.587406 ] ] ] } },
{ "type": "Feature", "properties": { "site_group": "Hinjewadi Phase 1", "ring": "1–2 km", "lst_mean": 46.01, "lst_excess": 0.31, "trees_pct": 4.05, "built_pct": 59.54, "excess_percentile_vs_lookalikes": 78.0 }, "geometry": { "type": "Polygon", "coordinates": [ [ [ 73.733591, 18.574034 ], [ 73.73179, 18.573591 ], [ 73.729953, 18.573319 ], [ 73.728096, 18.573219 ], [ 73.726238, 18.573294 ], [ 73.724397, 18.573542 ], [ 73.722589, 18.57396 ], [ 73.720834, 18.574546 ], [ 73.719147, 18.575293 ], [ 73.717545, 18.576194 ], [ 73.716044, 18.57724 ], [ 73.714657, 18.578422 ], [ 73.713398, 18.579727 ], [ 73.71228, 18.581144 ], [ 73.711312, 18.582659 ], [ 73.710505, 18.584256 ], [ 73.709866, 18.585922 ], [ 73.709401, 18.587639 ], [ 73.709115, 18.589391 ], [ 73.70901, 18.591162 ], [ 73.709088, 18.592934 ], [ 73.709348, 18.59469 ], [ 73.709787, 18.596414 ], [ 73.710401, 18.598088 ], [ 73.711184, 18.599696 ], [ 73.712129, 18.601224 ], [ 73.713226, 18.602656 ], [ 73.714465, 18.603979 ], [ 73.715834, 18.605179 ], [ 73.71732, 18.606246 ], [ 73.718909, 18.607168 ], [ 73.720585, 18.607938 ], [ 73.720916, 18.608053 ], [ 73.721614, 18.608374 ], [ 73.723361, 18.608983 ], [ 73.725162, 18.609426 ], [ 73.727, 18.609699 ], [ 73.728857, 18.609799 ], [ 73.730715, 18.609724 ], [ 73.732557, 18.609476 ], [ 73.734365, 18.609058 ], [ 73.73612, 18.608472 ], [ 73.737807, 18.607725 ], [ 73.73941, 18.606824 ], [ 73.740911, 18.605777 ], [ 73.742298, 18.604596 ], [ 73.743557, 18.60329 ], [ 73.744675, 18.601873 ], [ 73.745643, 18.600358 ], [ 73.74645, 18.59876 ], [ 73.747089, 18.597094 ], [ 73.747553, 18.595377 ], [ 73.747839, 18.593625 ], [ 73.747943, 18.591854 ], [ 73.747865, 18.590082 ], [ 73.747605, 18.588326 ], [ 73.747165, 18.586602 ], [ 73.746551, 18.584929 ], [ 73.745768, 18.58332 ], [ 73.744823, 18.581792 ], [ 73.743725, 18.580361 ], [ 73.742486, 18.579038 ], [ 73.741117, 18.577838 ], [ 73.739631, 18.576772 ], [ 73.738042, 18.575849 ], [ 73.736367, 18.57508 ], [ 73.736035, 18.574964 ], [ 73.735338, 18.574644 ], [ 73.733591, 18.574034 ] ], [ [ 73.732348, 18.583288 ], [ 73.732679, 18.583403 ], [ 73.733517, 18.583788 ], [ 73.734311, 18.584249 ], [ 73.735054, 18.584783 ], [ 73.735739, 18.585383 ], [ 73.736358, 18.586044 ], [ 73.736907, 18.58676 ], [ 73.737379, 18.587524 ], [ 73.737771, 18.588328 ], [ 73.738078, 18.589165 ], [ 73.738298, 18.590027 ], [ 73.738428, 18.590905 ], [ 73.738467, 18.591791 ], [ 73.738415, 18.592676 ], [ 73.738272, 18.593552 ], [ 73.73804, 18.594411 ], [ 73.73772, 18.595244 ], [ 73.737317, 18.596043 ], [ 73.736833, 18.5968 ], [ 73.736274, 18.597509 ], [ 73.735644, 18.598161 ], [ 73.734951, 18.598752 ], [ 73.7342, 18.599275 ], [ 73.733399, 18.599726 ], [ 73.732556, 18.600099 ], [ 73.731678, 18.600392 ], [ 73.730774, 18.600602 ], [ 73.729853, 18.600726 ], [ 73.728924, 18.600763 ], [ 73.727995, 18.600713 ], [ 73.727076, 18.600577 ], [ 73.726176, 18.600355 ], [ 73.725303, 18.600051 ], [ 73.724605, 18.59973 ], [ 73.724274, 18.599614 ], [ 73.723436, 18.59923 ], [ 73.722641, 18.598768 ], [ 73.721898, 18.598235 ], [ 73.721214, 18.597635 ], [ 73.720594, 18.596974 ], [ 73.720046, 18.596258 ], [ 73.719573, 18.595494 ], [ 73.719182, 18.59469 ], [ 73.718874, 18.593853 ], [ 73.718655, 18.592991 ], [ 73.718525, 18.592113 ], [ 73.718486, 18.591227 ], [ 73.718538, 18.590341 ], [ 73.718681, 18.589465 ], [ 73.718914, 18.588607 ], [ 73.719233, 18.587774 ], [ 73.719637, 18.586975 ], [ 73.720121, 18.586218 ], [ 73.72068, 18.585509 ], [ 73.721309, 18.584856 ], [ 73.722003, 18.584266 ], [ 73.722753, 18.583742 ], [ 73.723554, 18.583292 ], [ 73.724398, 18.582918 ], [ 73.725276, 18.582626 ], [ 73.726179, 18.582416 ], [ 73.7271, 18.582292 ], [ 73.728029, 18.582255 ], [ 73.728957, 18.582305 ], [ 73.729876, 18.582441 ], [ 73.730777, 18.582663 ], [ 73.73165, 18.582967 ], [ 73.732348, 18.583288 ] ] ] } },
{ "type": "Feature", "properties": { "site_group": "Hinjewadi Phase 1", "ring": "2–4 km (reference)", "lst_mean": 45.6, "lst_excess": -0.0, "trees_pct": 5.53, "built_pct": 50.39, "excess_percentile_vs_lookalikes": 14.0 }, "geometry": { "type": "Polygon", "coordinates": [ [ [ 73.739219, 18.556778 ], [ 73.735618, 18.555892 ], [ 73.731943, 18.555347 ], [ 73.72823, 18.555148 ], [ 73.724514, 18.555297 ], [ 73.720832, 18.555792 ], [ 73.717218, 18.556629 ], [ 73.713707, 18.557801 ], [ 73.710334, 18.559294 ], [ 73.70713, 18.561096 ], [ 73.704127, 18.563188 ], [ 73.701354, 18.565551 ], [ 73.698836, 18.568162 ], [ 73.696599, 18.570996 ], [ 73.694664, 18.574025 ], [ 73.693049, 18.57722 ], [ 73.691771, 18.580551 ], [ 73.690841, 18.583985 ], [ 73.690268, 18.58749 ], [ 73.690059, 18.591031 ], [ 73.690214, 18.594575 ], [ 73.690733, 18.598087 ], [ 73.69161, 18.601534 ], [ 73.692838, 18.604883 ], [ 73.694404, 18.6081 ], [ 73.696293, 18.611156 ], [ 73.698488, 18.61402 ], [ 73.700966, 18.616665 ], [ 73.703705, 18.619066 ], [ 73.706677, 18.621199 ], [ 73.709854, 18.623045 ], [ 73.713206, 18.624584 ], [ 73.713537, 18.6247 ], [ 73.714235, 18.62502 ], [ 73.717729, 18.626239 ], [ 73.721332, 18.627126 ], [ 73.725008, 18.627671 ], [ 73.728723, 18.62787 ], [ 73.73244, 18.627721 ], [ 73.736124, 18.627226 ], [ 73.739739, 18.626388 ], [ 73.743251, 18.625217 ], [ 73.746625, 18.623722 ], [ 73.74983, 18.62192 ], [ 73.752834, 18.619827 ], [ 73.755608, 18.617463 ], [ 73.758125, 18.614852 ], [ 73.760362, 18.612017 ], [ 73.762296, 18.608988 ], [ 73.76391, 18.605792 ], [ 73.765187, 18.60246 ], [ 73.766116, 18.599025 ], [ 73.766687, 18.59552 ], [ 73.766895, 18.591979 ], [ 73.766738, 18.588435 ], [ 73.766218, 18.584923 ], [ 73.765339, 18.581476 ], [ 73.76411, 18.578128 ], [ 73.762542, 18.574911 ], [ 73.760652, 18.571856 ], [ 73.758457, 18.568993 ], [ 73.755979, 18.566348 ], [ 73.75324, 18.563948 ], [ 73.750268, 18.561815 ], [ 73.747092, 18.559971 ], [ 73.743741, 18.558432 ], [ 73.74341, 18.558316 ], [ 73.742712, 18.557996 ], [ 73.739219, 18.556778 ] ], [ [ 73.736035, 18.574964 ], [ 73.736367, 18.57508 ], [ 73.738042, 18.575849 ], [ 73.739631, 18.576772 ], [ 73.741117, 18.577838 ], [ 73.742486, 18.579038 ], [ 73.743725, 18.580361 ], [ 73.744823, 18.581792 ], [ 73.745768, 18.58332 ], [ 73.746551, 18.584929 ], [ 73.747165, 18.586602 ], [ 73.747605, 18.588326 ], [ 73.747865, 18.590082 ], [ 73.747943, 18.591854 ], [ 73.747839, 18.593625 ], [ 73.747553, 18.595377 ], [ 73.747089, 18.597094 ], [ 73.74645, 18.59876 ], [ 73.745643, 18.600358 ], [ 73.744675, 18.601873 ], [ 73.743557, 18.60329 ], [ 73.742298, 18.604596 ], [ 73.740911, 18.605777 ], [ 73.73941, 18.606824 ], [ 73.737807, 18.607725 ], [ 73.73612, 18.608472 ], [ 73.734365, 18.609058 ], [ 73.732557, 18.609476 ], [ 73.730715, 18.609724 ], [ 73.728857, 18.609799 ], [ 73.727, 18.609699 ], [ 73.725162, 18.609426 ], [ 73.723361, 18.608983 ], [ 73.721614, 18.608374 ], [ 73.720916, 18.608053 ], [ 73.720585, 18.607938 ], [ 73.718909, 18.607168 ], [ 73.71732, 18.606246 ], [ 73.715834, 18.605179 ], [ 73.714465, 18.603979 ], [ 73.713226, 18.602656 ], [ 73.712129, 18.601224 ], [ 73.711184, 18.599696 ], [ 73.710401, 18.598088 ], [ 73.709787, 18.596414 ], [ 73.709348, 18.59469 ], [ 73.709088, 18.592934 ], [ 73.70901, 18.591162 ], [ 73.709115, 18.589391 ], [ 73.709401, 18.587639 ], [ 73.709866, 18.585922 ], [ 73.710505, 18.584256 ], [ 73.711312, 18.582659 ], [ 73.71228, 18.581144 ], [ 73.713398, 18.579727 ], [ 73.714657, 18.578422 ], [ 73.716044, 18.57724 ], [ 73.717545, 18.576194 ], [ 73.719147, 18.575293 ], [ 73.720834, 18.574546 ], [ 73.722589, 18.57396 ], [ 73.724397, 18.573542 ], [ 73.726238, 18.573294 ], [ 73.728096, 18.573219 ], [ 73.729953, 18.573319 ], [ 73.73179, 18.573591 ], [ 73.733591, 18.574034 ], [ 73.735338, 18.574644 ], [ 73.736035, 18.574964 ] ] ] } }
]
}
