{
"type": "FeatureCollection",
"name": "pune_pmc_outline",
"crs": { "type": "name", "properties": { "name": "urn:ogc:def:crs:OGC:1.3:CRS84" } },
"xy_coordinate_resolution": 1e-06,
"features": [
{ "type": "Feature", "properties": { "city": "pune" }, "geometry": { "type": "Polygon", "coordinates": [ [ [ 73.900005, 18.409803 ], [ 73.89858, 18.409742 ], [ 73.897251, 18.409776 ], [ 73.894819, 18.410031 ], [ 73.892909, 18.409732 ], [ 73.891636, 18.409305 ], [ 73.89006, 18.405784 ], [ 73.885753, 18.401033 ], [ 73.883254, 18.401078 ], [ 73.876969, 18.395192 ], [ 73.875887, 18.39638 ], [ 73.874543, 18.396804 ], [ 73.872857, 18.397382 ], [ 73.87199, 18.400542 ], [ 73.869337, 18.400443 ], [ 73.865971, 18.399166 ], [ 73.859882, 18.400867 ], [ 73.857299, 18.401208 ], [ 73.851274, 18.402 ], [ 73.851123, 18.401888 ], [ 73.847214, 18.399242 ], [ 73.84263, 18.397209 ], [ 73.83727, 18.394831 ], [ 73.831977, 18.39307 ], [ 73.830766, 18.390341 ], [ 73.829025, 18.390247 ], [ 73.823583, 18.392009 ], [ 73.820721, 18.389188 ], [ 73.816987, 18.389344 ], [ 73.812033, 18.38828 ], [ 73.804821, 18.385562 ], [ 73.802757, 18.385957 ], [ 73.801635, 18.385789 ], [ 73.799902, 18.386463 ], [ 73.798872, 18.388029 ], [ 73.79581, 18.392763 ], [ 73.794756, 18.393626 ], [ 73.794783, 18.395243 ], [ 73.793464, 18.40075 ], [ 73.792528, 18.403824 ], [ 73.787888, 18.406872 ], [ 73.786788, 18.40749 ], [ 73.785671, 18.408335 ], [ 73.784926, 18.409007 ], [ 73.784342, 18.409832 ], [ 73.783988, 18.410047 ], [ 73.78347, 18.410053 ], [ 73.782057, 18.40989 ], [ 73.781575, 18.40964 ], [ 73.781257, 18.409772 ], [ 73.778839, 18.410506 ], [ 73.778312, 18.410479 ], [ 73.777985, 18.410751 ], [ 73.778075, 18.411387 ], [ 73.778457, 18.411914 ], [ 73.77962, 18.411687 ], [ 73.780679, 18.411559 ], [ 73.781104, 18.4116 ], [ 73.781435, 18.411658 ], [ 73.781522, 18.411832 ], [ 73.780456, 18.412829 ], [ 73.780308, 18.413253 ], [ 73.77965, 18.413827 ], [ 73.778569, 18.415019 ], [ 73.778505, 18.415949 ], [ 73.778342, 18.416123 ], [ 73.777853, 18.416193 ], [ 73.777417, 18.416187 ], [ 73.77704, 18.416012 ], [ 73.775868, 18.416575 ], [ 73.77306, 18.417911 ], [ 73.769072, 18.418955 ], [ 73.767474, 18.419519 ], [ 73.764957, 18.41949 ], [ 73.764782, 18.419647 ], [ 73.764579, 18.420193 ], [ 73.763675, 18.420627 ], [ 73.763476, 18.421345 ], [ 73.762803, 18.422726 ], [ 73.762526, 18.42349 ], [ 73.762486, 18.424107 ], [ 73.761904, 18.424906 ], [ 73.762076, 18.42566 ], [ 73.761559, 18.426523 ], [ 73.761522, 18.427341 ], [ 73.759115, 18.432591 ], [ 73.758657, 18.432521 ], [ 73.757593, 18.432401 ], [ 73.752119, 18.43227 ], [ 73.750583, 18.431649 ], [ 73.749407, 18.434835 ], [ 73.748962, 18.435544 ], [ 73.747634, 18.436746 ], [ 73.745961, 18.437332 ], [ 73.74365, 18.439811 ], [ 73.742259, 18.440961 ], [ 73.741297, 18.441473 ], [ 73.740868, 18.441609 ], [ 73.740199, 18.442007 ], [ 73.739331, 18.442802 ], [ 73.738954, 18.443345 ], [ 73.737908, 18.444245 ], [ 73.737375, 18.444893 ], [ 73.736936, 18.445552 ], [ 73.736967, 18.446054 ], [ 73.738212, 18.447779 ], [ 73.738609, 18.449066 ], [ 73.739592, 18.450331 ], [ 73.73978, 18.451095 ], [ 73.740251, 18.451356 ], [ 73.74068, 18.452161 ], [ 73.741359, 18.453217 ], [ 73.741663, 18.453395 ], [ 73.742855, 18.455121 ], [ 73.74298, 18.455665 ], [ 73.743566, 18.456188 ], [ 73.743911, 18.456679 ], [ 73.743859, 18.456993 ], [ 73.743587, 18.457233 ], [ 73.743012, 18.458279 ], [ 73.742928, 18.45875 ], [ 73.742384, 18.458917 ], [ 73.742186, 18.459063 ], [ 73.742186, 18.45945 ], [ 73.742196, 18.459743 ], [ 73.7416, 18.46013 ], [ 73.741788, 18.46035 ], [ 73.741966, 18.460611 ], [ 73.7416, 18.461207 ], [ 73.741234, 18.46172 ], [ 73.741014, 18.462033 ], [ 73.740125, 18.462148 ], [ 73.739677, 18.46276 ], [ 73.739208, 18.463269 ], [ 73.738298, 18.463905 ], [ 73.737508, 18.464246 ], [ 73.736712, 18.464588 ], [ 73.736156, 18.464742 ], [ 73.735755, 18.464715 ], [ 73.735494, 18.464936 ], [ 73.7354, 18.465324 ], [ 73.735393, 18.465659 ], [ 73.735219, 18.466073 ], [ 73.734891, 18.466569 ], [ 73.734651, 18.46691 ], [ 73.73445, 18.467205 ], [ 73.734376, 18.467539 ], [ 73.734356, 18.468108 ], [ 73.734363, 18.46851 ], [ 73.734055, 18.468818 ], [ 73.733693, 18.469487 ], [ 73.733426, 18.470357 ], [ 73.733419, 18.470692 ], [ 73.733319, 18.470986 ], [ 73.732991, 18.471488 ], [ 73.732295, 18.472285 ], [ 73.732121, 18.472726 ], [ 73.732134, 18.473001 ], [ 73.732455, 18.473101 ], [ 73.73246, 18.474499 ], [ 73.732753, 18.476423 ], [ 73.733443, 18.477982 ], [ 73.733767, 18.478986 ], [ 73.7352, 18.47955 ], [ 73.736685, 18.479759 ], [ 73.73707, 18.47953 ], [ 73.73726, 18.479676 ], [ 73.73725, 18.481224 ], [ 73.737176, 18.482301 ], [ 73.737019, 18.48275 ], [ 73.736923, 18.484837 ], [ 73.736857, 18.485588 ], [ 73.737168, 18.486307 ], [ 73.737135, 18.48732 ], [ 73.737772, 18.487876 ], [ 73.738884, 18.488203 ], [ 73.740321, 18.488366 ], [ 73.742822, 18.488644 ], [ 73.743197, 18.487566 ], [ 73.744302, 18.485704 ], [ 73.744703, 18.485537 ], [ 73.744703, 18.485162 ], [ 73.744623, 18.484794 ], [ 73.74471, 18.484545 ], [ 73.745211, 18.484493 ], [ 73.745537, 18.484344 ], [ 73.746141, 18.484314 ], [ 73.746693, 18.484553 ], [ 73.747394, 18.4848 ], [ 73.747833, 18.485197 ], [ 73.748167, 18.485679 ], [ 73.748418, 18.486254 ], [ 73.748554, 18.486526 ], [ 73.749171, 18.486787 ], [ 73.749548, 18.486954 ], [ 73.749786, 18.487162 ], [ 73.750103, 18.487959 ], [ 73.750274, 18.488464 ], [ 73.750403, 18.488837 ], [ 73.750711, 18.489132 ], [ 73.751169, 18.489184 ], [ 73.751833, 18.489115 ], [ 73.752566, 18.488944 ], [ 73.752998, 18.488756 ], [ 73.753294, 18.488387 ], [ 73.754274, 18.488361 ], [ 73.75479, 18.488308 ], [ 73.755252, 18.488053 ], [ 73.755667, 18.487618 ], [ 73.755874, 18.487263 ], [ 73.756102, 18.487163 ], [ 73.756537, 18.487163 ], [ 73.756798, 18.487016 ], [ 73.757548, 18.486296 ], [ 73.759294, 18.485423 ], [ 73.759897, 18.485276 ], [ 73.760211, 18.485075 ], [ 73.760332, 18.48466 ], [ 73.760265, 18.484386 ], [ 73.760164, 18.484125 ], [ 73.760238, 18.48375 ], [ 73.760827, 18.48373 ], [ 73.761349, 18.483689 ], [ 73.76175, 18.48377 ], [ 73.762065, 18.483863 ], [ 73.762426, 18.483763 ], [ 73.763329, 18.483235 ], [ 73.764244, 18.483137 ], [ 73.765077, 18.483186 ], [ 73.765649, 18.483284 ], [ 73.766319, 18.483726 ], [ 73.767071, 18.484183 ], [ 73.767806, 18.484494 ], [ 73.768362, 18.484657 ], [ 73.769084, 18.484867 ], [ 73.768382, 18.486329 ], [ 73.765971, 18.489739 ], [ 73.765706, 18.490955 ], [ 73.765368, 18.491467 ], [ 73.765128, 18.492056 ], [ 73.765061, 18.492671 ], [ 73.76517, 18.493597 ], [ 73.765438, 18.494127 ], [ 73.766186, 18.494768 ], [ 73.767096, 18.496438 ], [ 73.76586, 18.497198 ], [ 73.764888, 18.498134 ], [ 73.764015, 18.499313 ], [ 73.761885, 18.501278 ], [ 73.761095, 18.502041 ], [ 73.760432, 18.502469 ], [ 73.760255, 18.502873 ], [ 73.760174, 18.503649 ], [ 73.760303, 18.504093 ], [ 73.760626, 18.504182 ], [ 73.761041, 18.504133 ], [ 73.761458, 18.504146 ], [ 73.761785, 18.504378 ], [ 73.761994, 18.504629 ], [ 73.761914, 18.504957 ], [ 73.761775, 18.505298 ], [ 73.761911, 18.505678 ], [ 73.762149, 18.505788 ], [ 73.762475, 18.505812 ], [ 73.762002, 18.507655 ], [ 73.761896, 18.508493 ], [ 73.761164, 18.509684 ], [ 73.759679, 18.512046 ], [ 73.75916, 18.513022 ], [ 73.758689, 18.513239 ], [ 73.758248, 18.513903 ], [ 73.756964, 18.515256 ], [ 73.756139, 18.515746 ], [ 73.753955, 18.515889 ], [ 73.753644, 18.515969 ], [ 73.753272, 18.516397 ], [ 73.75277, 18.517123 ], [ 73.75232, 18.518351 ], [ 73.750344, 18.52213 ], [ 73.74927, 18.522707 ], [ 73.748025, 18.52378 ], [ 73.747637, 18.52441 ], [ 73.747501, 18.52473 ], [ 73.747482, 18.525399 ], [ 73.747783, 18.526902 ], [ 73.747686, 18.52887 ], [ 73.747251, 18.529169 ], [ 73.747175, 18.529222 ], [ 73.74363, 18.532058 ], [ 73.739106, 18.532466 ], [ 73.736896, 18.533678 ], [ 73.735975, 18.534434 ], [ 73.735926, 18.538807 ], [ 73.737758, 18.540678 ], [ 73.738263, 18.540862 ], [ 73.740279, 18.543586 ], [ 73.740405, 18.544051 ], [ 73.740124, 18.545302 ], [ 73.739891, 18.547609 ], [ 73.740172, 18.54853 ], [ 73.740279, 18.549374 ], [ 73.740192, 18.550091 ], [ 73.739945, 18.550746 ], [ 73.739125, 18.552127 ], [ 73.738757, 18.552922 ], [ 73.73865, 18.553562 ], [ 73.738195, 18.556431 ], [ 73.736954, 18.559427 ], [ 73.736037, 18.561234 ], [ 73.736124, 18.56156 ], [ 73.733691, 18.563719 ], [ 73.732832, 18.565463 ], [ 73.732284, 18.56611 ], [ 73.731951, 18.566928 ], [ 73.731827, 18.567294 ], [ 73.731911, 18.56754 ], [ 73.732046, 18.56774 ], [ 73.733343, 18.568894 ], [ 73.733796, 18.569155 ], [ 73.734485, 18.569614 ], [ 73.735204, 18.569961 ], [ 73.735533, 18.570036 ], [ 73.737581, 18.571693 ], [ 73.737736, 18.572063 ], [ 73.737943, 18.57236 ], [ 73.738312, 18.57263 ], [ 73.739257, 18.573198 ], [ 73.739865, 18.573802 ], [ 73.741572, 18.574393 ], [ 73.742676, 18.574477 ], [ 73.743145, 18.574699 ], [ 73.744002, 18.574703 ], [ 73.744514, 18.574564 ], [ 73.746004, 18.574219 ], [ 73.746663, 18.574139 ], [ 73.747493, 18.574155 ], [ 73.74785, 18.574434 ], [ 73.74914, 18.574473 ], [ 73.750304, 18.574814 ], [ 73.750947, 18.574945 ], [ 73.751361, 18.575558 ], [ 73.752174, 18.576286 ], [ 73.752265, 18.576756 ], [ 73.75284, 18.577649 ], [ 73.753401, 18.578831 ], [ 73.753794, 18.579573 ], [ 73.754203, 18.579921 ], [ 73.755188, 18.581512 ], [ 73.755779, 18.582072 ], [ 73.756763, 18.584284 ], [ 73.757783, 18.585566 ], [ 73.75872, 18.586701 ], [ 73.759694, 18.587446 ], [ 73.76091, 18.588221 ], [ 73.762323, 18.588692 ], [ 73.763792, 18.588631 ], [ 73.765898, 18.588056 ], [ 73.767579, 18.587541 ], [ 73.769124, 18.587283 ], [ 73.771245, 18.58751 ], [ 73.773365, 18.588253 ], [ 73.774653, 18.58845 ], [ 73.775728, 18.588389 ], [ 73.776516, 18.58801 ], [ 73.777925, 18.586617 ], [ 73.778561, 18.585693 ], [ 73.779076, 18.584269 ], [ 73.779859, 18.582079 ], [ 73.780912, 18.578634 ], [ 73.781122, 18.578114 ], [ 73.781627, 18.577693 ], [ 73.783681, 18.576104 ], [ 73.786058, 18.574187 ], [ 73.787309, 18.573282 ], [ 73.78906, 18.572381 ], [ 73.789544, 18.571779 ], [ 73.789977, 18.570764 ], [ 73.789985, 18.570093 ], [ 73.789826, 18.569211 ], [ 73.789469, 18.568437 ], [ 73.789207, 18.568354 ], [ 73.788659, 18.568108 ], [ 73.788484, 18.56777 ], [ 73.788124, 18.56611 ], [ 73.788124, 18.565309 ], [ 73.788325, 18.564844 ], [ 73.788712, 18.564402 ], [ 73.789122, 18.564148 ], [ 73.792284, 18.563413 ], [ 73.792602, 18.563424 ], [ 73.792828, 18.563549 ], [ 73.79292, 18.563684 ], [ 73.792999, 18.56399 ], [ 73.79311, 18.564204 ], [ 73.793409, 18.564445 ], [ 73.794234, 18.56501 ], [ 73.7946, 18.5653 ], [ 73.794754, 18.56555 ], [ 73.795537, 18.566462 ], [ 73.795973, 18.566887 ], [ 73.796257, 18.567163 ], [ 73.798118, 18.568305 ], [ 73.799472, 18.569037 ], [ 73.799849, 18.569184 ], [ 73.800866, 18.56945 ], [ 73.801993, 18.569497 ], [ 73.802923, 18.569497 ], [ 73.803868, 18.56935 ], [ 73.804864, 18.569131 ], [ 73.80835, 18.568156 ], [ 73.810279, 18.56792 ], [ 73.811544, 18.567949 ], [ 73.812941, 18.568006 ], [ 73.814079, 18.568371 ], [ 73.821064, 18.569432 ], [ 73.821817, 18.569429 ], [ 73.822741, 18.569322 ], [ 73.826892, 18.568226 ], [ 73.827818, 18.568149 ], [ 73.829101, 18.568568 ], [ 73.830129, 18.56961 ], [ 73.830891, 18.57112 ], [ 73.831335, 18.572238 ], [ 73.832059, 18.573203 ], [ 73.832465, 18.573533 ], [ 73.834158, 18.574458 ], [ 73.835093, 18.57497 ], [ 73.836141, 18.57536 ], [ 73.836767, 18.575457 ], [ 73.837807, 18.575311 ], [ 73.842661, 18.573153 ], [ 73.844112, 18.572746 ], [ 73.843955, 18.57147 ], [ 73.84377, 18.570314 ], [ 73.843511, 18.567593 ], [ 73.84086, 18.567551 ], [ 73.840801, 18.567173 ], [ 73.839748, 18.565652 ], [ 73.83889, 18.565037 ], [ 73.840224, 18.562873 ], [ 73.839222, 18.56204 ], [ 73.832657, 18.558554 ], [ 73.832854, 18.557054 ], [ 73.834553, 18.551666 ], [ 73.834719, 18.551148 ], [ 73.83495, 18.548634 ], [ 73.834873, 18.548422 ], [ 73.83446, 18.548232 ], [ 73.834159, 18.547903 ], [ 73.834021, 18.547532 ], [ 73.834093, 18.547051 ], [ 73.834256, 18.546354 ], [ 73.83447, 18.545445 ], [ 73.837564, 18.54451 ], [ 73.840733, 18.544272 ], [ 73.848037, 18.544465 ], [ 73.847654, 18.545844 ], [ 73.849631, 18.546641 ], [ 73.850914, 18.548571 ], [ 73.851041, 18.549015 ], [ 73.852031, 18.550222 ], [ 73.852953, 18.551586 ], [ 73.854243, 18.551331 ], [ 73.854566, 18.552052 ], [ 73.855518, 18.551179 ], [ 73.856907, 18.550525 ], [ 73.856431, 18.54989 ], [ 73.855866, 18.548 ], [ 73.854926, 18.545638 ], [ 73.853994, 18.542312 ], [ 73.856716, 18.542507 ], [ 73.860005, 18.543073 ], [ 73.865865, 18.542043 ], [ 73.8694, 18.542198 ], [ 73.873225, 18.542844 ], [ 73.873428, 18.542875 ], [ 73.873485, 18.543026 ], [ 73.873471, 18.543945 ], [ 73.873496, 18.546224 ], [ 73.872856, 18.54626 ], [ 73.871733, 18.546182 ], [ 73.869865, 18.547261 ], [ 73.870803, 18.548656 ], [ 73.870896, 18.549136 ], [ 73.872711, 18.552025 ], [ 73.872711, 18.552025 ], [ 73.873993, 18.554047 ], [ 73.874289, 18.554992 ], [ 73.874591, 18.555702 ], [ 73.875322, 18.557113 ], [ 73.875358, 18.557462 ], [ 73.87522, 18.557661 ], [ 73.874745, 18.558008 ], [ 73.874354, 18.558112 ], [ 73.872522, 18.558569 ], [ 73.871818, 18.56431 ], [ 73.871281, 18.565773 ], [ 73.871202, 18.566083 ], [ 73.871234, 18.566462 ], [ 73.871831, 18.568557 ], [ 73.872135, 18.569108 ], [ 73.872505, 18.570694 ], [ 73.872612, 18.572702 ], [ 73.871236, 18.574987 ], [ 73.871058, 18.575282 ], [ 73.870403, 18.575953 ], [ 73.867958, 18.578249 ], [ 73.866309, 18.579987 ], [ 73.864714, 18.582092 ], [ 73.864116, 18.582622 ], [ 73.863334, 18.582939 ], [ 73.862301, 18.583125 ], [ 73.860868, 18.58299 ], [ 73.860176, 18.586483 ], [ 73.859758, 18.58734 ], [ 73.86015, 18.587855 ], [ 73.862557, 18.587708 ], [ 73.862511, 18.588701 ], [ 73.862635, 18.589456 ], [ 73.863031, 18.590683 ], [ 73.863541, 18.592145 ], [ 73.863586, 18.592794 ], [ 73.864181, 18.594421 ], [ 73.86859, 18.601752 ], [ 73.872453, 18.599779 ], [ 73.872876, 18.599627 ], [ 73.87317, 18.599627 ], [ 73.874371, 18.599793 ], [ 73.877282, 18.599406 ], [ 73.883767, 18.599158 ], [ 73.886555, 18.599337 ], [ 73.887877, 18.60722 ], [ 73.888631, 18.60977 ], [ 73.889086, 18.610894 ], [ 73.889729, 18.611274 ], [ 73.890976, 18.613648 ], [ 73.891243, 18.614936 ], [ 73.891942, 18.617111 ], [ 73.89185, 18.617994 ], [ 73.893183, 18.621573 ], [ 73.896859, 18.620525 ], [ 73.897572, 18.620083 ], [ 73.898355, 18.619849 ], [ 73.899063, 18.619476 ], [ 73.900566, 18.61887 ], [ 73.901942, 18.618036 ], [ 73.903319, 18.617317 ], [ 73.904506, 18.616818 ], [ 73.905866, 18.616369 ], [ 73.905867, 18.617187 ], [ 73.907112, 18.617273 ], [ 73.90728, 18.617445 ], [ 73.910494, 18.618082 ], [ 73.911491, 18.618503 ], [ 73.913906, 18.618647 ], [ 73.915606, 18.618494 ], [ 73.918748, 18.619075 ], [ 73.919339, 18.619213 ], [ 73.921964, 18.620102 ], [ 73.923633, 18.620868 ], [ 73.926419, 18.621077 ], [ 73.929475, 18.620764 ], [ 73.933081, 18.620225 ], [ 73.934723, 18.619967 ], [ 73.935973, 18.620263 ], [ 73.939413, 18.62038 ], [ 73.940818, 18.619607 ], [ 73.941143, 18.619462 ], [ 73.94203, 18.619573 ], [ 73.942695, 18.619756 ], [ 73.94302, 18.619994 ], [ 73.943292, 18.620146 ], [ 73.943548, 18.6202 ], [ 73.943931, 18.620181 ], [ 73.944626, 18.620029 ], [ 73.946192, 18.620502 ], [ 73.947005, 18.620608 ], [ 73.947678, 18.620599 ], [ 73.95087, 18.620143 ], [ 73.951658, 18.620041 ], [ 73.952298, 18.619961 ], [ 73.952869, 18.620132 ], [ 73.954027, 18.620664 ], [ 73.954729, 18.620561 ], [ 73.956351, 18.62024 ], [ 73.956951, 18.620057 ], [ 73.957294, 18.619714 ], [ 73.958288, 18.619721 ], [ 73.959385, 18.619757 ], [ 73.959977, 18.620006 ], [ 73.960745, 18.620301 ], [ 73.963169, 18.620357 ], [ 73.964056, 18.619407 ], [ 73.965606, 18.618727 ], [ 73.965562, 18.618529 ], [ 73.965423, 18.618273 ], [ 73.96469, 18.61789 ], [ 73.964371, 18.617644 ], [ 73.964296, 18.6174 ], [ 73.96429, 18.617082 ], [ 73.965788, 18.610298 ], [ 73.965919, 18.609588 ], [ 73.966, 18.608135 ], [ 73.965782, 18.607204 ], [ 73.967999, 18.603858 ], [ 73.972057, 18.603163 ], [ 73.973278, 18.603186 ], [ 73.975046, 18.60305 ], [ 73.976501, 18.602826 ], [ 73.981138, 18.602988 ], [ 73.982291, 18.603628 ], [ 73.982949, 18.603634 ], [ 73.983417, 18.60376 ], [ 73.983827, 18.603949 ], [ 73.98409, 18.604091 ], [ 73.985916, 18.605538 ], [ 73.990302, 18.606299 ], [ 73.99327, 18.607146 ], [ 73.995576, 18.608148 ], [ 73.998187, 18.609723 ], [ 73.998995, 18.610423 ], [ 74.00038, 18.611247 ], [ 74.002272, 18.612999 ], [ 74.004344, 18.613871 ], [ 74.005388, 18.612383 ], [ 74.005504, 18.611347 ], [ 74.007706, 18.60847 ], [ 74.008677, 18.607832 ], [ 74.009071, 18.606001 ], [ 74.010074, 18.604211 ], [ 74.010822, 18.603346 ], [ 74.011213, 18.603313 ], [ 74.011605, 18.602983 ], [ 74.009959, 18.601281 ], [ 74.011435, 18.602808 ], [ 74.011605, 18.602983 ], [ 74.011813, 18.602808 ], [ 74.013196, 18.601845 ], [ 74.01326, 18.60164 ], [ 74.013328, 18.601371 ], [ 74.013538, 18.60115 ], [ 74.014956, 18.600641 ], [ 74.015414, 18.597735 ], [ 74.015767, 18.59628 ], [ 74.015878, 18.59594 ], [ 74.016054, 18.595735 ], [ 74.016346, 18.595516 ], [ 74.0179, 18.595086 ], [ 74.018295, 18.594765 ], [ 74.018311, 18.59451 ], [ 74.01813, 18.594346 ], [ 74.016692, 18.594034 ], [ 74.016766, 18.593327 ], [ 74.017168, 18.592315 ], [ 74.016733, 18.591345 ], [ 74.01573, 18.590416 ], [ 74.007977, 18.57848 ], [ 74.005168, 18.576248 ], [ 74.000883, 18.563567 ], [ 73.99928, 18.563674 ], [ 73.997783, 18.564003 ], [ 73.996139, 18.564159 ], [ 73.995934, 18.563814 ], [ 73.993731, 18.563789 ], [ 73.992473, 18.564389 ], [ 73.991733, 18.564858 ], [ 73.991133, 18.565343 ], [ 73.989735, 18.567044 ], [ 73.985164, 18.56824 ], [ 73.985201, 18.568851 ], [ 73.982525, 18.568984 ], [ 73.982353, 18.568056 ], [ 73.98098, 18.568064 ], [ 73.979387, 18.564814 ], [ 73.978539, 18.562387 ], [ 73.977593, 18.560862 ], [ 73.976278, 18.559917 ], [ 73.975529, 18.558692 ], [ 73.97542, 18.558202 ], [ 73.97534, 18.555782 ], [ 73.975351, 18.553077 ], [ 73.975604, 18.55284 ], [ 73.975551, 18.552756 ], [ 73.975204, 18.552188 ], [ 73.975102, 18.550504 ], [ 73.974321, 18.550348 ], [ 73.972438, 18.546189 ], [ 73.970613, 18.542998 ], [ 73.970424, 18.54248 ], [ 73.970931, 18.541936 ], [ 73.971729, 18.541279 ], [ 73.972412, 18.540807 ], [ 73.972612, 18.540993 ], [ 73.974654, 18.538367 ], [ 73.976015, 18.533981 ], [ 73.978268, 18.53204 ], [ 73.979731, 18.530183 ], [ 73.98496, 18.526751 ], [ 73.989464, 18.523845 ], [ 73.99114, 18.522558 ], [ 73.991651, 18.521622 ], [ 73.991928, 18.520599 ], [ 73.991928, 18.518519 ], [ 73.99185, 18.517388 ], [ 73.991572, 18.516401 ], [ 73.991206, 18.513361 ], [ 73.991129, 18.511719 ], [ 73.991173, 18.510798 ], [ 73.991417, 18.510166 ], [ 73.991861, 18.509689 ], [ 73.992759, 18.508857 ], [ 73.997008, 18.505972 ], [ 73.99784, 18.505362 ], [ 73.997276, 18.504126 ], [ 73.997035, 18.503678 ], [ 73.996694, 18.503302 ], [ 73.99619, 18.503004 ], [ 73.995806, 18.502649 ], [ 73.995174, 18.501783 ], [ 73.993165, 18.499532 ], [ 73.99286, 18.499255 ], [ 73.992533, 18.499014 ], [ 73.992244, 18.498702 ], [ 73.992008, 18.498361 ], [ 73.991908, 18.497938 ], [ 73.991529, 18.496504 ], [ 73.991929, 18.494498 ], [ 73.991929, 18.494107 ], [ 73.991738, 18.493838 ], [ 73.991432, 18.493724 ], [ 73.989631, 18.49297 ], [ 73.989098, 18.491872 ], [ 73.989448, 18.491392 ], [ 73.989572, 18.490677 ], [ 73.98967, 18.489441 ], [ 73.989374, 18.488823 ], [ 73.987981, 18.488171 ], [ 73.987766, 18.488036 ], [ 73.987581, 18.487597 ], [ 73.987362, 18.486675 ], [ 73.987213, 18.486397 ], [ 73.987064, 18.486306 ], [ 73.986736, 18.486349 ], [ 73.986069, 18.486525 ], [ 73.985816, 18.486505 ], [ 73.985564, 18.486316 ], [ 73.985378, 18.485659 ], [ 73.985254, 18.48528 ], [ 73.985082, 18.485033 ], [ 73.984872, 18.484975 ], [ 73.984638, 18.485025 ], [ 73.984403, 18.485299 ], [ 73.983967, 18.485868 ], [ 73.983775, 18.485936 ], [ 73.983595, 18.485947 ], [ 73.983392, 18.485865 ], [ 73.983279, 18.485653 ], [ 73.983157, 18.484966 ], [ 73.982577, 18.484467 ], [ 73.981595, 18.483355 ], [ 73.981724, 18.48288 ], [ 73.981637, 18.48224 ], [ 73.981351, 18.481946 ], [ 73.980657, 18.481701 ], [ 73.980352, 18.481602 ], [ 73.980203, 18.481356 ], [ 73.980081, 18.480161 ], [ 73.979923, 18.479919 ], [ 73.979194, 18.479513 ], [ 73.977988, 18.480651 ], [ 73.977139, 18.48119 ], [ 73.976628, 18.481411 ], [ 73.976406, 18.481432 ], [ 73.975867, 18.481281 ], [ 73.974233, 18.480751 ], [ 73.973831, 18.480674 ], [ 73.973531, 18.480684 ], [ 73.973273, 18.480769 ], [ 73.973002, 18.480933 ], [ 73.971893, 18.48182 ], [ 73.971407, 18.48196 ], [ 73.970957, 18.481981 ], [ 73.969996, 18.481842 ], [ 73.967497, 18.481336 ], [ 73.966822, 18.481252 ], [ 73.966307, 18.481294 ], [ 73.96595, 18.481435 ], [ 73.965601, 18.481675 ], [ 73.962394, 18.4855 ], [ 73.962249, 18.48585 ], [ 73.962238, 18.48619 ], [ 73.962395, 18.486575 ], [ 73.963144, 18.488243 ], [ 73.963386, 18.488593 ], [ 73.96374, 18.488863 ], [ 73.964263, 18.489161 ], [ 73.964662, 18.489478 ], [ 73.965921, 18.490905 ], [ 73.966023, 18.491138 ], [ 73.966021, 18.491451 ], [ 73.965832, 18.491745 ], [ 73.96538, 18.492064 ], [ 73.964721, 18.492526 ], [ 73.9613, 18.492579 ], [ 73.959063, 18.492915 ], [ 73.958807, 18.493028 ], [ 73.956826, 18.493192 ], [ 73.957129, 18.494787 ], [ 73.957898, 18.497861 ], [ 73.957129, 18.494787 ], [ 73.956826, 18.493192 ], [ 73.953331, 18.493536 ], [ 73.951345, 18.49358 ], [ 73.94997, 18.49368 ], [ 73.949082, 18.491162 ], [ 73.948069, 18.488138 ], [ 73.947828, 18.487164 ], [ 73.945861, 18.484611 ], [ 73.945228, 18.483758 ], [ 73.945021, 18.482792 ], [ 73.944263, 18.480111 ], [ 73.944212, 18.479919 ], [ 73.935973, 18.485908 ], [ 73.93906, 18.483664 ], [ 73.943721, 18.480275 ], [ 73.943721, 18.480275 ], [ 73.944212, 18.479919 ], [ 73.943202, 18.475619 ], [ 73.941848, 18.471821 ], [ 73.941102, 18.468954 ], [ 73.940527, 18.46738 ], [ 73.940246, 18.466863 ], [ 73.939636, 18.466441 ], [ 73.939143, 18.466246 ], [ 73.938146, 18.466179 ], [ 73.938334, 18.464299 ], [ 73.938849, 18.461929 ], [ 73.938819, 18.459937 ], [ 73.93853, 18.458067 ], [ 73.936829, 18.458153 ], [ 73.935728, 18.458119 ], [ 73.935644, 18.458125 ], [ 73.935699, 18.456286 ], [ 73.934718, 18.455962 ], [ 73.93622, 18.450647 ], [ 73.936794, 18.446529 ], [ 73.939456, 18.446579 ], [ 73.94076, 18.446335 ], [ 73.941819, 18.446408 ], [ 73.942791, 18.446458 ], [ 73.942962, 18.446455 ], [ 73.943487, 18.446445 ], [ 73.943985, 18.446408 ], [ 73.944525, 18.446283 ], [ 73.94495, 18.446106 ], [ 73.944807, 18.44502 ], [ 73.944912, 18.444357 ], [ 73.944687, 18.443788 ], [ 73.944676, 18.44372 ], [ 73.945079, 18.443661 ], [ 73.945215, 18.443499 ], [ 73.945306, 18.442964 ], [ 73.945297, 18.442522 ], [ 73.94513, 18.442388 ], [ 73.945082, 18.442206 ], [ 73.945169, 18.442038 ], [ 73.945283, 18.441914 ], [ 73.945293, 18.44131 ], [ 73.946285, 18.440879 ], [ 73.946274, 18.440678 ], [ 73.947053, 18.439812 ], [ 73.947603, 18.438752 ], [ 73.947606, 18.438294 ], [ 73.947936, 18.437866 ], [ 73.947996, 18.437626 ], [ 73.947904, 18.437396 ], [ 73.947483, 18.437316 ], [ 73.94739, 18.437243 ], [ 73.947392, 18.43693 ], [ 73.947545, 18.436707 ], [ 73.947898, 18.436508 ], [ 73.948105, 18.436045 ], [ 73.948958, 18.435784 ], [ 73.949368, 18.43541 ], [ 73.949907, 18.435268 ], [ 73.950161, 18.434844 ], [ 73.952083, 18.434067 ], [ 73.953087, 18.433458 ], [ 73.955967, 18.434606 ], [ 73.959741, 18.435098 ], [ 73.961039, 18.435201 ], [ 73.961689, 18.435091 ], [ 73.962082, 18.435067 ], [ 73.962157, 18.434849 ], [ 73.961392, 18.434208 ], [ 73.959405, 18.433132 ], [ 73.958161, 18.431606 ], [ 73.95855, 18.425822 ], [ 73.957936, 18.423037 ], [ 73.955886, 18.42207 ], [ 73.954603, 18.419504 ], [ 73.954459, 18.419163 ], [ 73.95256, 18.414045 ], [ 73.952182, 18.413061 ], [ 73.948668, 18.413711 ], [ 73.948409, 18.413978 ], [ 73.944195, 18.411991 ], [ 73.94219, 18.412259 ], [ 73.941687, 18.412309 ], [ 73.939809, 18.411647 ], [ 73.938932, 18.411199 ], [ 73.938582, 18.410945 ], [ 73.937148, 18.411356 ], [ 73.936028, 18.411626 ], [ 73.935363, 18.41161 ], [ 73.934773, 18.411583 ], [ 73.934854, 18.412638 ], [ 73.934264, 18.412599 ], [ 73.933206, 18.413169 ], [ 73.932613, 18.413501 ], [ 73.931784, 18.413592 ], [ 73.930856, 18.413299 ], [ 73.929126, 18.41275 ], [ 73.927784, 18.412467 ], [ 73.926554, 18.4124 ], [ 73.926213, 18.412614 ], [ 73.925023, 18.412211 ], [ 73.923906, 18.412061 ], [ 73.92281, 18.410628 ], [ 73.921583, 18.409938 ], [ 73.920552, 18.408389 ], [ 73.919126, 18.407239 ], [ 73.919003, 18.40677 ], [ 73.917683, 18.406919 ], [ 73.914544, 18.406877 ], [ 73.913515, 18.406715 ], [ 73.911075, 18.407312 ], [ 73.909937, 18.408589 ], [ 73.904398, 18.408653 ], [ 73.90383, 18.409057 ], [ 73.902861, 18.409351 ], [ 73.900005, 18.409803 ] ], [ [ 73.947646, 18.619998 ], [ 73.947464, 18.619534 ], [ 73.947646, 18.619998 ], [ 73.947678, 18.620599 ], [ 73.947646, 18.619998 ] ], [ [ 73.969548, 18.542785 ], [ 73.967103, 18.543434 ], [ 73.969548, 18.542785 ], [ 73.970424, 18.54248 ], [ 73.969548, 18.542785 ] ], [ [ 73.857425, 18.489464 ], [ 73.857427, 18.489357 ], [ 73.85742, 18.489694 ], [ 73.857493, 18.490353 ], [ 73.85788, 18.496 ], [ 73.857639, 18.492482 ], [ 73.857639, 18.492482 ], [ 73.857493, 18.490353 ], [ 73.85742, 18.489694 ], [ 73.857425, 18.489464 ] ], [ [ 73.857445, 18.488539 ], [ 73.857475, 18.487108 ], [ 73.857525, 18.48479 ], [ 73.857159, 18.48274 ], [ 73.857075, 18.47748 ], [ 73.857075, 18.47748 ], [ 73.857159, 18.48274 ], [ 73.857525, 18.48479 ], [ 73.857475, 18.487108 ], [ 73.857427, 18.489357 ], [ 73.857445, 18.488539 ] ], [ [ 73.857859, 18.496461 ], [ 73.858399, 18.500547 ], [ 73.858399, 18.500547 ], [ 73.857859, 18.496461 ], [ 73.85787, 18.496226 ], [ 73.85788, 18.496 ], [ 73.857859, 18.496461 ] ], [ [ 73.856289, 18.476247 ], [ 73.856242, 18.47456 ], [ 73.856291, 18.473458 ], [ 73.856242, 18.47456 ], [ 73.856289, 18.476247 ], [ 73.856948, 18.47728 ], [ 73.856289, 18.476247 ] ], [ [ 73.857618, 18.468435 ], [ 73.857629, 18.468329 ], [ 73.857667, 18.467954 ], [ 73.857667, 18.467954 ], [ 73.857598, 18.46863 ], [ 73.857618, 18.468435 ] ], [ [ 73.860784, 18.467983 ], [ 73.85908, 18.467968 ], [ 73.857667, 18.467954 ], [ 73.860784, 18.467983 ] ], [ [ 73.861987, 18.465285 ], [ 73.861463, 18.466472 ], [ 73.862318, 18.466617 ], [ 73.861463, 18.466472 ], [ 73.861987, 18.465285 ] ], [ [ 73.867515, 18.464574 ], [ 73.867713, 18.464544 ], [ 73.867824, 18.464527 ], [ 73.867515, 18.464574 ], [ 73.866521, 18.464774 ], [ 73.867515, 18.464574 ] ], [ [ 73.869475, 18.464544 ], [ 73.870031, 18.464613 ], [ 73.869475, 18.464544 ], [ 73.869395, 18.464578 ], [ 73.869475, 18.464544 ] ], [ [ 73.870491, 18.465265 ], [ 73.870387, 18.466087 ], [ 73.870388, 18.466577 ], [ 73.870391, 18.467301 ], [ 73.870387, 18.466087 ], [ 73.870565, 18.464678 ], [ 73.870491, 18.465265 ] ], [ [ 73.869869, 18.467931 ], [ 73.86978, 18.467706 ], [ 73.86978, 18.467706 ], [ 73.869869, 18.467931 ] ], [ [ 73.869869, 18.467931 ], [ 73.869944, 18.468123 ], [ 73.869869, 18.467931 ], [ 73.869869, 18.467931 ] ], [ [ 73.87037, 18.469489 ], [ 73.869953, 18.469481 ], [ 73.869953, 18.469481 ], [ 73.87037, 18.469489 ] ], [ [ 73.872082, 18.469327 ], [ 73.872082, 18.469327 ], [ 73.872081, 18.469596 ], [ 73.87274, 18.469615 ], [ 73.872081, 18.469596 ], [ 73.872082, 18.469327 ], [ 73.872082, 18.469327 ] ], [ [ 73.872937, 18.469621 ], [ 73.872937, 18.469621 ], [ 73.87274, 18.469615 ], [ 73.872937, 18.469621 ] ], [ [ 73.873776, 18.469646 ], [ 73.873668, 18.471128 ], [ 73.87367, 18.471192 ], [ 73.873703, 18.472101 ], [ 73.873668, 18.471128 ], [ 73.873776, 18.469646 ], [ 73.872937, 18.469621 ], [ 73.873776, 18.469646 ] ], [ [ 73.874265, 18.47214 ], [ 73.874854, 18.47218 ], [ 73.875006, 18.471274 ], [ 73.875006, 18.471274 ], [ 73.875006, 18.471274 ], [ 73.874854, 18.47218 ], [ 73.873703, 18.472101 ], [ 73.874265, 18.47214 ] ], [ [ 73.87624, 18.467865 ], [ 73.876275, 18.467724 ], [ 73.87624, 18.467865 ], [ 73.875573, 18.469707 ], [ 73.87624, 18.467865 ] ], [ [ 73.876488, 18.466889 ], [ 73.876724, 18.466282 ], [ 73.876488, 18.466889 ], [ 73.881655, 18.467076 ], [ 73.876488, 18.466889 ], [ 73.876488, 18.466889 ] ], [ [ 73.884271, 18.464486 ], [ 73.884271, 18.464486 ], [ 73.884271, 18.464486 ], [ 73.884223, 18.465567 ], [ 73.884271, 18.464486 ] ], [ [ 73.884461, 18.464489 ], [ 73.884479, 18.462997 ], [ 73.884591, 18.462906 ], [ 73.884578, 18.462247 ], [ 73.884561, 18.461427 ], [ 73.885117, 18.461265 ], [ 73.884561, 18.461427 ], [ 73.884591, 18.462906 ], [ 73.884479, 18.462997 ], [ 73.884461, 18.464489 ], [ 73.884388, 18.464488 ], [ 73.884461, 18.464489 ] ], [ [ 73.885117, 18.461265 ], [ 73.885222, 18.461234 ], [ 73.885117, 18.461265 ], [ 73.885117, 18.461265 ] ], [ [ 73.885873, 18.461337 ], [ 73.885873, 18.461337 ], [ 73.885653, 18.461302 ], [ 73.885873, 18.461337 ] ], [ [ 73.885962, 18.461782 ], [ 73.88602, 18.461868 ], [ 73.886198, 18.462038 ], [ 73.88602, 18.461868 ], [ 73.885876, 18.461655 ], [ 73.885962, 18.461782 ] ], [ [ 73.887231, 18.464701 ], [ 73.887231, 18.464701 ], [ 73.88722, 18.463956 ], [ 73.887231, 18.464701 ] ], [ [ 73.887806, 18.464774 ], [ 73.888029, 18.464803 ], [ 73.889575, 18.464616 ], [ 73.890611, 18.464687 ], [ 73.891657, 18.464692 ], [ 73.892372, 18.464695 ], [ 73.890611, 18.464687 ], [ 73.889575, 18.464616 ], [ 73.888029, 18.464803 ], [ 73.887319, 18.464712 ], [ 73.887806, 18.464774 ] ], [ [ 73.899767, 18.46497 ], [ 73.900663, 18.465309 ], [ 73.899767, 18.46497 ], [ 73.898867, 18.464971 ], [ 73.899767, 18.46497 ] ], [ [ 73.902796, 18.465105 ], [ 73.902254, 18.465911 ], [ 73.902254, 18.465911 ], [ 73.902796, 18.465105 ] ], [ [ 73.90202, 18.417259 ], [ 73.903815, 18.413163 ], [ 73.90202, 18.417259 ], [ 73.901865, 18.423804 ], [ 73.90202, 18.417259 ] ], [ [ 73.879615, 18.552903 ], [ 73.879615, 18.552903 ], [ 73.872711, 18.552025 ], [ 73.879615, 18.552903 ] ], [ [ 73.879615, 18.552903 ], [ 73.879615, 18.552903 ], [ 73.879615, 18.552903 ], [ 73.879615, 18.552903 ] ], [ [ 73.879394, 18.552601 ], [ 73.877037, 18.54491 ], [ 73.878543, 18.549823 ], [ 73.879404, 18.552634 ], [ 73.879394, 18.552601 ] ], [ [ 73.877518, 18.543448 ], [ 73.877391, 18.543768 ], [ 73.87722, 18.544201 ], [ 73.877518, 18.543448 ] ], [ [ 73.863306, 18.535754 ], [ 73.863028, 18.535327 ], [ 73.863306, 18.535754 ], [ 73.863484, 18.535971 ], [ 73.864013, 18.536615 ], [ 73.863306, 18.535754 ] ], [ [ 73.860474, 18.53171 ], [ 73.860513, 18.530466 ], [ 73.860612, 18.528556 ], [ 73.860611, 18.52858 ], [ 73.860513, 18.530466 ], [ 73.860474, 18.53171 ], [ 73.860622, 18.531843 ], [ 73.860474, 18.53171 ] ], [ [ 73.857837, 18.525068 ], [ 73.854977, 18.522441 ], [ 73.856926, 18.524231 ], [ 73.857837, 18.525068 ], [ 73.858766, 18.526118 ], [ 73.860479, 18.528053 ], [ 73.857837, 18.525068 ] ], [ [ 73.85311, 18.521692 ], [ 73.854746, 18.522349 ], [ 73.854977, 18.522441 ], [ 73.85311, 18.521692 ] ], [ [ 73.851637, 18.52126 ], [ 73.852631, 18.521552 ], [ 73.852907, 18.521633 ], [ 73.852967, 18.52165 ], [ 73.85311, 18.521692 ], [ 73.851637, 18.52126 ] ], [ [ 73.848599, 18.520579 ], [ 73.846126, 18.518185 ], [ 73.847648, 18.519659 ], [ 73.848599, 18.520579 ], [ 73.849067, 18.520821 ], [ 73.848599, 18.520579 ] ], [ [ 73.845993, 18.518003 ], [ 73.845993, 18.518003 ], [ 73.846126, 18.518185 ], [ 73.845993, 18.518003 ] ], [ [ 73.845761, 18.517685 ], [ 73.844981, 18.516199 ], [ 73.845045, 18.51632 ], [ 73.845761, 18.517685 ], [ 73.845993, 18.518003 ], [ 73.845761, 18.517685 ] ], [ [ 73.844541, 18.515585 ], [ 73.844215, 18.515136 ], [ 73.844541, 18.515585 ], [ 73.844747, 18.515822 ], [ 73.844863, 18.515957 ], [ 73.844541, 18.515585 ] ], [ [ 73.844212, 18.515132 ], [ 73.844215, 18.515136 ], [ 73.844215, 18.515136 ], [ 73.844212, 18.515132 ] ], [ [ 73.844007, 18.514901 ], [ 73.844212, 18.515132 ], [ 73.844212, 18.515132 ], [ 73.844007, 18.514901 ] ], [ [ 73.842937, 18.513739 ], [ 73.842673, 18.513501 ], [ 73.842937, 18.513739 ], [ 73.842998, 18.513794 ], [ 73.843132, 18.513916 ], [ 73.842937, 18.513739 ] ], [ [ 73.843759, 18.512869 ], [ 73.843831, 18.51283 ], [ 73.843792, 18.512352 ], [ 73.844035, 18.512009 ], [ 73.844043, 18.511997 ], [ 73.843792, 18.512352 ], [ 73.843831, 18.51283 ], [ 73.843591, 18.51296 ], [ 73.843759, 18.512869 ] ], [ [ 73.844043, 18.511997 ], [ 73.844105, 18.511973 ], [ 73.844509, 18.511808 ], [ 73.844043, 18.511997 ], [ 73.844043, 18.511997 ] ], [ [ 73.846639, 18.510271 ], [ 73.847615, 18.509577 ], [ 73.846639, 18.510271 ], [ 73.846237, 18.510579 ], [ 73.846639, 18.510271 ] ], [ [ 73.8525, 18.506258 ], [ 73.853098, 18.505847 ], [ 73.853215, 18.505738 ], [ 73.853098, 18.505847 ], [ 73.8525, 18.506258 ], [ 73.852364, 18.506351 ], [ 73.8525, 18.506258 ] ], [ [ 73.854358, 18.504712 ], [ 73.854373, 18.504699 ], [ 73.854482, 18.504627 ], [ 73.855004, 18.504282 ], [ 73.854373, 18.504699 ], [ 73.853927, 18.505077 ], [ 73.854358, 18.504712 ] ], [ [ 73.857791, 18.501741 ], [ 73.858076, 18.501481 ], [ 73.857791, 18.501741 ], [ 73.857387, 18.502109 ], [ 73.857791, 18.501741 ] ], [ [ 73.858391, 18.501193 ], [ 73.858687, 18.502408 ], [ 73.858391, 18.501193 ], [ 73.858391, 18.501193 ] ], [ [ 73.852342, 18.468377 ], [ 73.852726, 18.468426 ], [ 73.851954, 18.468327 ], [ 73.852342, 18.468377 ] ], [ [ 73.850417, 18.467864 ], [ 73.850417, 18.467864 ], [ 73.850224, 18.46811 ], [ 73.850417, 18.467864 ] ], [ [ 73.844711, 18.468454 ], [ 73.845616, 18.468608 ], [ 73.845616, 18.468608 ], [ 73.844711, 18.468454 ] ], [ [ 73.842372, 18.462969 ], [ 73.842191, 18.463125 ], [ 73.842191, 18.463125 ], [ 73.842372, 18.462969 ] ], [ [ 73.839878, 18.462949 ], [ 73.840339, 18.462984 ], [ 73.839878, 18.462949 ], [ 73.839878, 18.462949 ] ], [ [ 73.838724, 18.464713 ], [ 73.839392, 18.463693 ], [ 73.838724, 18.464713 ], [ 73.838724, 18.464713 ] ], [ [ 73.837405, 18.464727 ], [ 73.837405, 18.464727 ], [ 73.837381, 18.464745 ], [ 73.837405, 18.464727 ] ], [ [ 73.835089, 18.465485 ], [ 73.835089, 18.465485 ], [ 73.836423, 18.465513 ], [ 73.836423, 18.465513 ], [ 73.835089, 18.465485 ] ], [ [ 73.832863, 18.464978 ], [ 73.833678, 18.465001 ], [ 73.834109, 18.465012 ], [ 73.833678, 18.465001 ], [ 73.832863, 18.464978 ] ], [ [ 73.831728, 18.46453 ], [ 73.831728, 18.46453 ], [ 73.83226, 18.464904 ], [ 73.83226, 18.464904 ], [ 73.831728, 18.46453 ] ], [ [ 73.831533, 18.462301 ], [ 73.831559, 18.463674 ], [ 73.831644, 18.464103 ], [ 73.831559, 18.463674 ], [ 73.831533, 18.462301 ] ], [ [ 73.83152, 18.461621 ], [ 73.83152, 18.461621 ], [ 73.830632, 18.46188 ], [ 73.83152, 18.461621 ] ], [ [ 73.826542, 18.459511 ], [ 73.826542, 18.459511 ], [ 73.826036, 18.458571 ], [ 73.826542, 18.459511 ] ], [ [ 73.836043, 18.437589 ], [ 73.83593, 18.438572 ], [ 73.836043, 18.437589 ], [ 73.836043, 18.437589 ] ], [ [ 73.822814, 18.398256 ], [ 73.824492, 18.39526 ], [ 73.822814, 18.398256 ], [ 73.82165, 18.402605 ], [ 73.821495, 18.404014 ], [ 73.82165, 18.402605 ], [ 73.822814, 18.398256 ] ], [ [ 73.790196, 18.516267 ], [ 73.788154, 18.516689 ], [ 73.787772, 18.516766 ], [ 73.788154, 18.516689 ], [ 73.790196, 18.516267 ] ], [ [ 73.793142, 18.517353 ], [ 73.793142, 18.517353 ], [ 73.792649, 18.517071 ], [ 73.792164, 18.516073 ], [ 73.792649, 18.517071 ], [ 73.793142, 18.517353 ] ], [ [ 73.79549, 18.519708 ], [ 73.79549, 18.519708 ], [ 73.793614, 18.517911 ], [ 73.794178, 18.518451 ], [ 73.79549, 18.519708 ] ], [ [ 73.799061, 18.512078 ], [ 73.798683, 18.512007 ], [ 73.798683, 18.512007 ], [ 73.799061, 18.512078 ] ], [ [ 73.805827, 18.511907 ], [ 73.805809, 18.512971 ], [ 73.805556, 18.512971 ], [ 73.805809, 18.512971 ], [ 73.805827, 18.511907 ] ], [ [ 73.811125, 18.509111 ], [ 73.811529, 18.509379 ], [ 73.811529, 18.509379 ], [ 73.811125, 18.509111 ], [ 73.810396, 18.50849 ], [ 73.809596, 18.508373 ], [ 73.810396, 18.50849 ], [ 73.811125, 18.509111 ] ], [ [ 73.8143, 18.509664 ], [ 73.815487, 18.50999 ], [ 73.816234, 18.510145 ], [ 73.815487, 18.50999 ], [ 73.8143, 18.509664 ], [ 73.812506, 18.509596 ], [ 73.812195, 18.509556 ], [ 73.812506, 18.509596 ], [ 73.8143, 18.509664 ] ], [ [ 73.823344, 18.508506 ], [ 73.823687, 18.509122 ], [ 73.823695, 18.50929 ], [ 73.823687, 18.509122 ], [ 73.823344, 18.508506 ], [ 73.823025, 18.508062 ], [ 73.823025, 18.508062 ], [ 73.823344, 18.508506 ] ], [ [ 73.823476, 18.510378 ], [ 73.82363, 18.509869 ], [ 73.823668, 18.509643 ], [ 73.82363, 18.509869 ], [ 73.823476, 18.510378 ] ], [ [ 73.823331, 18.511804 ], [ 73.823439, 18.510542 ], [ 73.823331, 18.511804 ], [ 73.823331, 18.511804 ] ], [ [ 73.824058, 18.512067 ], [ 73.823637, 18.511915 ], [ 73.824058, 18.512067 ], [ 73.824058, 18.512067 ] ], [ [ 73.824554, 18.514851 ], [ 73.824624, 18.515418 ], [ 73.824675, 18.51564 ], [ 73.824624, 18.515418 ], [ 73.824554, 18.514851 ], [ 73.82436, 18.514754 ], [ 73.824171, 18.513642 ], [ 73.82436, 18.514754 ], [ 73.824554, 18.514851 ] ], [ [ 73.822707, 18.50817 ], [ 73.823932, 18.506775 ], [ 73.823932, 18.506775 ], [ 73.822707, 18.50817 ] ], [ [ 73.815268, 18.480571 ], [ 73.81318, 18.479734 ], [ 73.815268, 18.480571 ], [ 73.815683, 18.480777 ], [ 73.815268, 18.480571 ] ], [ [ 73.817517, 18.481762 ], [ 73.817018, 18.481477 ], [ 73.817517, 18.481762 ], [ 73.8185, 18.482224 ], [ 73.817517, 18.481762 ] ], [ [ 73.820664, 18.482788 ], [ 73.821383, 18.482844 ], [ 73.821383, 18.482844 ], [ 73.820664, 18.482788 ] ], [ [ 73.822376, 18.482761 ], [ 73.82146, 18.482838 ], [ 73.822376, 18.482761 ], [ 73.823422, 18.482698 ], [ 73.822376, 18.482761 ] ], [ [ 73.826833, 18.480626 ], [ 73.826833, 18.480626 ], [ 73.825844, 18.48111 ], [ 73.825509, 18.480751 ], [ 73.825509, 18.480751 ], [ 73.825844, 18.48111 ], [ 73.826833, 18.480626 ] ], [ [ 73.828281, 18.479495 ], [ 73.827984, 18.479822 ], [ 73.827482, 18.480021 ], [ 73.827984, 18.479822 ], [ 73.828281, 18.479495 ], [ 73.828281, 18.479495 ] ], [ [ 73.828914, 18.479152 ], [ 73.828949, 18.479124 ], [ 73.828949, 18.479124 ], [ 73.828914, 18.479152 ] ], [ [ 73.829603, 18.479089 ], [ 73.829134, 18.479114 ], [ 73.829603, 18.479089 ], [ 73.830107, 18.478929 ], [ 73.829603, 18.479089 ] ], [ [ 73.831725, 18.478369 ], [ 73.831725, 18.478369 ], [ 73.832018, 18.479004 ], [ 73.831725, 18.478369 ] ], [ [ 73.836487, 18.479928 ], [ 73.835592, 18.479502 ], [ 73.835592, 18.479502 ], [ 73.836487, 18.479928 ], [ 73.836487, 18.479928 ] ], [ [ 73.836723, 18.480213 ], [ 73.837234, 18.48083 ], [ 73.837234, 18.48083 ], [ 73.836723, 18.480213 ] ], [ [ 73.837273, 18.480944 ], [ 73.837273, 18.480944 ], [ 73.837305, 18.481072 ], [ 73.837273, 18.480944 ] ], [ [ 73.836643, 18.483185 ], [ 73.836643, 18.483185 ], [ 73.836039, 18.48321 ], [ 73.836643, 18.483185 ] ], [ [ 73.833208, 18.483546 ], [ 73.833756, 18.483338 ], [ 73.835289, 18.483347 ], [ 73.835918, 18.483225 ], [ 73.835289, 18.483347 ], [ 73.833756, 18.483338 ], [ 73.833208, 18.483546 ] ], [ [ 73.83153, 18.484128 ], [ 73.831607, 18.484122 ], [ 73.83153, 18.484128 ], [ 73.831418, 18.484144 ], [ 73.83153, 18.484128 ] ], [ [ 73.830679, 18.485367 ], [ 73.830695, 18.484867 ], [ 73.830848, 18.484433 ], [ 73.831082, 18.484251 ], [ 73.830848, 18.484433 ], [ 73.830695, 18.484867 ], [ 73.830679, 18.485367 ] ], [ [ 73.830924, 18.486213 ], [ 73.83083, 18.486017 ], [ 73.830924, 18.486213 ], [ 73.831324, 18.486668 ], [ 73.830924, 18.486213 ] ], [ [ 73.837791, 18.487569 ], [ 73.836966, 18.487886 ], [ 73.837791, 18.487569 ], [ 73.838176, 18.4878 ], [ 73.837791, 18.487569 ] ], [ [ 73.840601, 18.489613 ], [ 73.840273, 18.488703 ], [ 73.840273, 18.487712 ], [ 73.840173, 18.487703 ], [ 73.840273, 18.487712 ], [ 73.840273, 18.488703 ], [ 73.840601, 18.489613 ] ], [ [ 73.841312, 18.487217 ], [ 73.841312, 18.487217 ], [ 73.840273, 18.487712 ], [ 73.841312, 18.487217 ] ], [ [ 73.841571, 18.49227 ], [ 73.841252, 18.491799 ], [ 73.841571, 18.49227 ], [ 73.842388, 18.492919 ], [ 73.841571, 18.49227 ] ], [ [ 73.843209, 18.493861 ], [ 73.842798, 18.493737 ], [ 73.843209, 18.493861 ], [ 73.843732, 18.494401 ], [ 73.843209, 18.493861 ] ], [ [ 73.844263, 18.49462 ], [ 73.843912, 18.494474 ], [ 73.844263, 18.49462 ], [ 73.844591, 18.494872 ], [ 73.844263, 18.49462 ] ], [ [ 73.846105, 18.495619 ], [ 73.846042, 18.495576 ], [ 73.845201, 18.495511 ], [ 73.846042, 18.495576 ], [ 73.846042, 18.495576 ], [ 73.846105, 18.495619 ] ], [ [ 73.846325, 18.494431 ], [ 73.846269, 18.49466 ], [ 73.846325, 18.494431 ], [ 73.846386, 18.494309 ], [ 73.846325, 18.494431 ] ], [ [ 73.849744, 18.492651 ], [ 73.848691, 18.49267 ], [ 73.849744, 18.492651 ], [ 73.850473, 18.492663 ], [ 73.849744, 18.492651 ] ], [ [ 73.772655, 18.487977 ], [ 73.772655, 18.487977 ], [ 73.774077, 18.488833 ], [ 73.774077, 18.488833 ], [ 73.772655, 18.487977 ] ], [ [ 73.774796, 18.489859 ], [ 73.774339, 18.489525 ], [ 73.774796, 18.489859 ], [ 73.774799, 18.489988 ], [ 73.774796, 18.489859 ] ], [ [ 73.775943, 18.491959 ], [ 73.775353, 18.491273 ], [ 73.775162, 18.491047 ], [ 73.775353, 18.491273 ], [ 73.775943, 18.491959 ], [ 73.775943, 18.491959 ] ], [ [ 73.77726, 18.494641 ], [ 73.77726, 18.494641 ], [ 73.776981, 18.495512 ], [ 73.77726, 18.494641 ] ], [ [ 73.783033, 18.499964 ], [ 73.78089, 18.49802 ], [ 73.780663, 18.497938 ], [ 73.779717, 18.497964 ], [ 73.780663, 18.497938 ], [ 73.78089, 18.49802 ], [ 73.783033, 18.499964 ] ], [ [ 73.784704, 18.500356 ], [ 73.784577, 18.500435 ], [ 73.783222, 18.500442 ], [ 73.7832, 18.500342 ], [ 73.783222, 18.500442 ], [ 73.784577, 18.500435 ], [ 73.784704, 18.500356 ] ], [ [ 73.795196, 18.493765 ], [ 73.795712, 18.49347 ], [ 73.795196, 18.493765 ], [ 73.794131, 18.494546 ], [ 73.79381, 18.494719 ], [ 73.79326, 18.495211 ], [ 73.79381, 18.494719 ], [ 73.794131, 18.494546 ], [ 73.795196, 18.493765 ] ], [ [ 73.798163, 18.492377 ], [ 73.797965, 18.492452 ], [ 73.797766, 18.492526 ], [ 73.797647, 18.492539 ], [ 73.797766, 18.492526 ], [ 73.797965, 18.492452 ], [ 73.798163, 18.492377 ] ], [ [ 73.800017, 18.492339 ], [ 73.800017, 18.492339 ], [ 73.798571, 18.492476 ], [ 73.798199, 18.492363 ], [ 73.798571, 18.492476 ], [ 73.798629, 18.492471 ], [ 73.800017, 18.492339 ] ], [ [ 73.801353, 18.493513 ], [ 73.801516, 18.493541 ], [ 73.801521, 18.493542 ], [ 73.801516, 18.493541 ], [ 73.801353, 18.493513 ], [ 73.801171, 18.493454 ], [ 73.800162, 18.493131 ], [ 73.80004, 18.492469 ], [ 73.800162, 18.493131 ], [ 73.801171, 18.493454 ], [ 73.801353, 18.493513 ] ], [ [ 73.802606, 18.493292 ], [ 73.802093, 18.493446 ], [ 73.802606, 18.493292 ], [ 73.803811, 18.492929 ], [ 73.802606, 18.493292 ] ], [ [ 73.804292, 18.492724 ], [ 73.804225, 18.492769 ], [ 73.804292, 18.492724 ], [ 73.804411, 18.492605 ], [ 73.804292, 18.492724 ] ], [ [ 73.805121, 18.492125 ], [ 73.804967, 18.492082 ], [ 73.804732, 18.492221 ], [ 73.804677, 18.492291 ], [ 73.804732, 18.492221 ], [ 73.804967, 18.492082 ], [ 73.805121, 18.492125 ] ], [ [ 73.805354, 18.492224 ], [ 73.805139, 18.490802 ], [ 73.805354, 18.492224 ], [ 73.805354, 18.492224 ] ], [ [ 73.804428, 18.483399 ], [ 73.804219, 18.483437 ], [ 73.804112, 18.483488 ], [ 73.804219, 18.483437 ], [ 73.804428, 18.483399 ], [ 73.804577, 18.483454 ], [ 73.804656, 18.483639 ], [ 73.80464, 18.485054 ], [ 73.804656, 18.483639 ], [ 73.804577, 18.483454 ], [ 73.804428, 18.483399 ] ], [ [ 73.803228, 18.483767 ], [ 73.803412, 18.483766 ], [ 73.803228, 18.483767 ], [ 73.803066, 18.483714 ], [ 73.803228, 18.483767 ] ], [ [ 73.801999, 18.483146 ], [ 73.801924, 18.483055 ], [ 73.801924, 18.483055 ], [ 73.801999, 18.483146 ] ], [ [ 73.809289, 18.474698 ], [ 73.804277, 18.480374 ], [ 73.803808, 18.481 ], [ 73.802017, 18.482954 ], [ 73.803808, 18.481 ], [ 73.804277, 18.480374 ], [ 73.809289, 18.474698 ] ], [ [ 73.80934, 18.47464 ], [ 73.809232, 18.474398 ], [ 73.80934, 18.47464 ], [ 73.80934, 18.47464 ] ], [ [ 73.804031, 18.469555 ], [ 73.803053, 18.468795 ], [ 73.801017, 18.46765 ], [ 73.799147, 18.466892 ], [ 73.799322, 18.466637 ], [ 73.799147, 18.466892 ], [ 73.801017, 18.46765 ], [ 73.803053, 18.468795 ], [ 73.804031, 18.469555 ] ], [ [ 73.807176, 18.472004 ], [ 73.807281, 18.472085 ], [ 73.80769, 18.47233 ], [ 73.807281, 18.472085 ], [ 73.807176, 18.472004 ] ], [ [ 73.800098, 18.466043 ], [ 73.800046, 18.466138 ], [ 73.799659, 18.46642 ], [ 73.800046, 18.466138 ], [ 73.800098, 18.466043 ] ], [ [ 73.800119, 18.466005 ], [ 73.800119, 18.466005 ], [ 73.800018, 18.465929 ], [ 73.800119, 18.466005 ] ], [ [ 73.799881, 18.465504 ], [ 73.799889, 18.465131 ], [ 73.800118, 18.464776 ], [ 73.800118, 18.464776 ], [ 73.799889, 18.465131 ], [ 73.799881, 18.465504 ] ], [ [ 73.800844, 18.462301 ], [ 73.80067, 18.462403 ], [ 73.800844, 18.462301 ], [ 73.800983, 18.462122 ], [ 73.801009, 18.461989 ], [ 73.800983, 18.462122 ], [ 73.800844, 18.462301 ] ], [ [ 73.800957, 18.461779 ], [ 73.800878, 18.461685 ], [ 73.800957, 18.461779 ], [ 73.801015, 18.461961 ], [ 73.801015, 18.461961 ], [ 73.800957, 18.461779 ] ], [ [ 73.800804, 18.460856 ], [ 73.800939, 18.461125 ], [ 73.800954, 18.461402 ], [ 73.800927, 18.46146 ], [ 73.800954, 18.461402 ], [ 73.800939, 18.461125 ], [ 73.800804, 18.460856 ], [ 73.800669, 18.460652 ], [ 73.800804, 18.460856 ] ], [ [ 73.800659, 18.460457 ], [ 73.800659, 18.460457 ], [ 73.800669, 18.460652 ], [ 73.800659, 18.460457 ] ], [ [ 73.801693, 18.457193 ], [ 73.799923, 18.456633 ], [ 73.801693, 18.457193 ], [ 73.801693, 18.457193 ] ], [ [ 73.809831, 18.446016 ], [ 73.810264, 18.447301 ], [ 73.80789, 18.447119 ], [ 73.810264, 18.447301 ], [ 73.809831, 18.446016 ] ], [ [ 73.842621, 18.48448 ], [ 73.84251, 18.484715 ], [ 73.842384, 18.48524 ], [ 73.84251, 18.484715 ], [ 73.842621, 18.48448 ] ], [ [ 73.84313, 18.482914 ], [ 73.843416, 18.482342 ], [ 73.84313, 18.482914 ], [ 73.843074, 18.483132 ], [ 73.84313, 18.482914 ] ], [ [ 73.843911, 18.474623 ], [ 73.843756, 18.476539 ], [ 73.84411, 18.480067 ], [ 73.843756, 18.476539 ], [ 73.843911, 18.474623 ] ], [ [ 73.843592, 18.472143 ], [ 73.843592, 18.472143 ], [ 73.843911, 18.474623 ], [ 73.843592, 18.472143 ] ], [ [ 73.827976, 18.488947 ], [ 73.829301, 18.490901 ], [ 73.827976, 18.488947 ], [ 73.827705, 18.488482 ], [ 73.826551, 18.489064 ], [ 73.826697, 18.489432 ], [ 73.826551, 18.489064 ], [ 73.827705, 18.488482 ], [ 73.827421, 18.487854 ], [ 73.827705, 18.488482 ], [ 73.827976, 18.488947 ] ], [ [ 73.832701, 18.495828 ], [ 73.832929, 18.496071 ], [ 73.83329, 18.496457 ], [ 73.83485, 18.497714 ], [ 73.83329, 18.496457 ], [ 73.832701, 18.495828 ] ], [ [ 73.845587, 18.501232 ], [ 73.845587, 18.501232 ], [ 73.845481, 18.501861 ], [ 73.845587, 18.501232 ] ], [ [ 73.846821, 18.501244 ], [ 73.847036, 18.501248 ], [ 73.847113, 18.501229 ], [ 73.847036, 18.501248 ], [ 73.846821, 18.501244 ] ], [ [ 73.848824, 18.500709 ], [ 73.84903, 18.50059 ], [ 73.848824, 18.500709 ], [ 73.848575, 18.500807 ], [ 73.848824, 18.500709 ] ], [ [ 73.849996, 18.499982 ], [ 73.850418, 18.499591 ], [ 73.849996, 18.499982 ], [ 73.84984, 18.500086 ], [ 73.849996, 18.499982 ] ], [ [ 73.849939, 18.49849 ], [ 73.849866, 18.498359 ], [ 73.849684, 18.498167 ], [ 73.849866, 18.498359 ], [ 73.849939, 18.49849 ] ], [ [ 73.849421, 18.49736 ], [ 73.849248, 18.496679 ], [ 73.849421, 18.49736 ], [ 73.849438, 18.49752 ], [ 73.849421, 18.49736 ] ], [ [ 73.849027, 18.496118 ], [ 73.847575, 18.496935 ], [ 73.847425, 18.496926 ], [ 73.847575, 18.496935 ], [ 73.849027, 18.496118 ], [ 73.849027, 18.496118 ] ], [ [ 73.801901, 18.502413 ], [ 73.802315, 18.502339 ], [ 73.801901, 18.502413 ], [ 73.801933, 18.502824 ], [ 73.802061, 18.503514 ], [ 73.801933, 18.502824 ], [ 73.801901, 18.502413 ] ], [ [ 73.802668, 18.506597 ], [ 73.802747, 18.506961 ], [ 73.801726, 18.50726 ], [ 73.802747, 18.506961 ], [ 73.802668, 18.506597 ] ], [ [ 73.823696, 18.506697 ], [ 73.823747, 18.506714 ], [ 73.823696, 18.506697 ], [ 73.823696, 18.506697 ] ], [ [ 73.821636, 18.50712 ], [ 73.822032, 18.507289 ], [ 73.822493, 18.506721 ], [ 73.822493, 18.506721 ], [ 73.822032, 18.507289 ], [ 73.821636, 18.50712 ], [ 73.821655, 18.506657 ], [ 73.821636, 18.50712 ] ], [ [ 73.821701, 18.505553 ], [ 73.821701, 18.505553 ], [ 73.822315, 18.504919 ], [ 73.821838, 18.504688 ], [ 73.822315, 18.504919 ], [ 73.821701, 18.505553 ] ], [ [ 73.818621, 18.502963 ], [ 73.817798, 18.50273 ], [ 73.818621, 18.502963 ], [ 73.819194, 18.503183 ], [ 73.818621, 18.502963 ] ], [ [ 73.816336, 18.502391 ], [ 73.816848, 18.502496 ], [ 73.816336, 18.502391 ], [ 73.815629, 18.502239 ], [ 73.815331, 18.502077 ], [ 73.815629, 18.502239 ], [ 73.816336, 18.502391 ] ], [ [ 73.816203, 18.493629 ], [ 73.816203, 18.493629 ], [ 73.816295, 18.49365 ], [ 73.816203, 18.493629 ] ], [ [ 73.818096, 18.494625 ], [ 73.818096, 18.494625 ], [ 73.817923, 18.494371 ], [ 73.818096, 18.494625 ] ], [ [ 73.818403, 18.494044 ], [ 73.8182, 18.494428 ], [ 73.818403, 18.494044 ], [ 73.818363, 18.492767 ], [ 73.818363, 18.492767 ], [ 73.818403, 18.494044 ] ], [ [ 73.826726, 18.490014 ], [ 73.827036, 18.489781 ], [ 73.826726, 18.490014 ], [ 73.82533, 18.490024 ], [ 73.826726, 18.490014 ] ], [ [ 73.807449, 18.491558 ], [ 73.807732, 18.491698 ], [ 73.808743, 18.492202 ], [ 73.811686, 18.492435 ], [ 73.808743, 18.492202 ], [ 73.807732, 18.491698 ], [ 73.807449, 18.491558 ] ], [ [ 73.83579, 18.498574 ], [ 73.836285, 18.49965 ], [ 73.836414, 18.500048 ], [ 73.836285, 18.49965 ], [ 73.83579, 18.498574 ], [ 73.83579, 18.498574 ] ], [ [ 73.836453, 18.505726 ], [ 73.836469, 18.504827 ], [ 73.836794, 18.501816 ], [ 73.836469, 18.504827 ], [ 73.836453, 18.505726 ] ], [ [ 73.836449, 18.505923 ], [ 73.836599, 18.506352 ], [ 73.836955, 18.507084 ], [ 73.836599, 18.506352 ], [ 73.836449, 18.505923 ], [ 73.836449, 18.505923 ] ], [ [ 73.839228, 18.50942 ], [ 73.837807, 18.508104 ], [ 73.837537, 18.507859 ], [ 73.837807, 18.508104 ], [ 73.839228, 18.50942 ] ], [ [ 73.840085, 18.510392 ], [ 73.840542, 18.511152 ], [ 73.840085, 18.510392 ], [ 73.839443, 18.509637 ], [ 73.840085, 18.510392 ] ], [ [ 73.797541, 18.522137 ], [ 73.796555, 18.521051 ], [ 73.795672, 18.519938 ], [ 73.796555, 18.521051 ], [ 73.797541, 18.522137 ] ], [ [ 73.799184, 18.523275 ], [ 73.800133, 18.523596 ], [ 73.801898, 18.523887 ], [ 73.800133, 18.523596 ], [ 73.799184, 18.523275 ] ], [ [ 73.803711, 18.524236 ], [ 73.804484, 18.524544 ], [ 73.804562, 18.524549 ], [ 73.804484, 18.524544 ], [ 73.803711, 18.524236 ] ], [ [ 73.810348, 18.524395 ], [ 73.809324, 18.524846 ], [ 73.807701, 18.524742 ], [ 73.809324, 18.524846 ], [ 73.810348, 18.524395 ] ], [ [ 73.811148, 18.52424 ], [ 73.812091, 18.524314 ], [ 73.812322, 18.524392 ], [ 73.812091, 18.524314 ], [ 73.811148, 18.52424 ] ], [ [ 73.808066, 18.534106 ], [ 73.810079, 18.530138 ], [ 73.810311, 18.529725 ], [ 73.810079, 18.530138 ], [ 73.808066, 18.534106 ], [ 73.807556, 18.534427 ], [ 73.808066, 18.534106 ] ], [ [ 73.806837, 18.535118 ], [ 73.804695, 18.535073 ], [ 73.806837, 18.535118 ], [ 73.806837, 18.535118 ] ], [ [ 73.817274, 18.540054 ], [ 73.817274, 18.540054 ], [ 73.815441, 18.539912 ], [ 73.817274, 18.540054 ] ], [ [ 73.814764, 18.526278 ], [ 73.814764, 18.526278 ], [ 73.814422, 18.525927 ], [ 73.814764, 18.526278 ] ], [ [ 73.836888, 18.536201 ], [ 73.834723, 18.537983 ], [ 73.836888, 18.536201 ], [ 73.84295, 18.532086 ], [ 73.836888, 18.536201 ] ], [ [ 73.827447, 18.519512 ], [ 73.827375, 18.519474 ], [ 73.827447, 18.519512 ], [ 73.828762, 18.521957 ], [ 73.829425, 18.522913 ], [ 73.828762, 18.521957 ], [ 73.827447, 18.519512 ] ], [ [ 73.861134, 18.463405 ], [ 73.861216, 18.463209 ], [ 73.861205, 18.462707 ], [ 73.861216, 18.463209 ], [ 73.861134, 18.463405 ] ], [ [ 73.861089, 18.460701 ], [ 73.861134, 18.460636 ], [ 73.861134, 18.460636 ], [ 73.861089, 18.460701 ] ], [ [ 73.862908, 18.459277 ], [ 73.862906, 18.459403 ], [ 73.862691, 18.459876 ], [ 73.861675, 18.459947 ], [ 73.862691, 18.459876 ], [ 73.862906, 18.459403 ], [ 73.862908, 18.459277 ] ], [ [ 73.862865, 18.457887 ], [ 73.863104, 18.457148 ], [ 73.862878, 18.456546 ], [ 73.863012, 18.456462 ], [ 73.863193, 18.457195 ], [ 73.863094, 18.457764 ], [ 73.862902, 18.458292 ], [ 73.862913, 18.458978 ], [ 73.862909, 18.459235 ], [ 73.862654, 18.458929 ], [ 73.862702, 18.458264 ], [ 73.862865, 18.457887 ] ], [ [ 73.864993, 18.455221 ], [ 73.865002, 18.455217 ], [ 73.864993, 18.455221 ], [ 73.863012, 18.456462 ], [ 73.864993, 18.455221 ] ], [ [ 73.865165, 18.455146 ], [ 73.863963, 18.453269 ], [ 73.865165, 18.455146 ], [ 73.865165, 18.455146 ] ], [ [ 73.862918, 18.450256 ], [ 73.863097, 18.449186 ], [ 73.863097, 18.449186 ], [ 73.862918, 18.450256 ] ], [ [ 73.863097, 18.449186 ], [ 73.863097, 18.449186 ], [ 73.863097, 18.449186 ], [ 73.863097, 18.449186 ], [ 73.863183, 18.448992 ], [ 73.863097, 18.449186 ] ], [ [ 73.863097, 18.449186 ], [ 73.863097, 18.449186 ], [ 73.863097, 18.449186 ], [ 73.863097, 18.449186 ] ], [ [ 73.86409, 18.445082 ], [ 73.863977, 18.445428 ], [ 73.863758, 18.44597 ], [ 73.863718, 18.446097 ], [ 73.863758, 18.44597 ], [ 73.863977, 18.445428 ], [ 73.86409, 18.445082 ] ], [ [ 73.864096, 18.445027 ], [ 73.86409, 18.445082 ], [ 73.86409, 18.445082 ], [ 73.864096, 18.445027 ] ], [ [ 73.864135, 18.444028 ], [ 73.864138, 18.44428 ], [ 73.864135, 18.444028 ], [ 73.864037, 18.443802 ], [ 73.864135, 18.444028 ] ], [ [ 73.864037, 18.443802 ], [ 73.864901, 18.442972 ], [ 73.865117, 18.442812 ], [ 73.864901, 18.442972 ], [ 73.864037, 18.443802 ], [ 73.864037, 18.443802 ] ], [ [ 73.865863, 18.442578 ], [ 73.865536, 18.442607 ], [ 73.865863, 18.442578 ], [ 73.866242, 18.442095 ], [ 73.865863, 18.442578 ] ], [ [ 73.866242, 18.442095 ], [ 73.86729, 18.442045 ], [ 73.866242, 18.442095 ], [ 73.866242, 18.442095 ] ], [ [ 73.881219, 18.425103 ], [ 73.88079, 18.426328 ], [ 73.881219, 18.425103 ], [ 73.881743, 18.424202 ], [ 73.881219, 18.425103 ] ], [ [ 73.883699, 18.420507 ], [ 73.883215, 18.421093 ], [ 73.882677, 18.421948 ], [ 73.882449, 18.422595 ], [ 73.882677, 18.421948 ], [ 73.883215, 18.421093 ], [ 73.883699, 18.420507 ] ], [ [ 73.888708, 18.413644 ], [ 73.889296, 18.411871 ], [ 73.889296, 18.411871 ], [ 73.888708, 18.413644 ] ], [ [ 73.864188, 18.451321 ], [ 73.864848, 18.451975 ], [ 73.864848, 18.451975 ], [ 73.864188, 18.451321 ] ], [ [ 73.866707, 18.451701 ], [ 73.865807, 18.451677 ], [ 73.865619, 18.451724 ], [ 73.865807, 18.451677 ], [ 73.866707, 18.451701 ] ], [ [ 73.867441, 18.452078 ], [ 73.86745, 18.452269 ], [ 73.86745, 18.452269 ], [ 73.867441, 18.452078 ] ], [ [ 73.867805, 18.452334 ], [ 73.867597, 18.452296 ], [ 73.867805, 18.452334 ], [ 73.867815, 18.45264 ], [ 73.867805, 18.452334 ] ], [ [ 73.868134, 18.453517 ], [ 73.868134, 18.453517 ], [ 73.867974, 18.453181 ], [ 73.868134, 18.453517 ] ], [ [ 73.868162, 18.453521 ], [ 73.868397, 18.453556 ], [ 73.868406, 18.453701 ], [ 73.868397, 18.453556 ], [ 73.868162, 18.453521 ] ], [ [ 73.868981, 18.455784 ], [ 73.868629, 18.455904 ], [ 73.868981, 18.455784 ], [ 73.86896, 18.454018 ], [ 73.868681, 18.453971 ], [ 73.86896, 18.454018 ], [ 73.868981, 18.455784 ] ], [ [ 73.868381, 18.455988 ], [ 73.868381, 18.455988 ], [ 73.868396, 18.456282 ], [ 73.868381, 18.455988 ] ], [ [ 73.871942, 18.458638 ], [ 73.870576, 18.458589 ], [ 73.869673, 18.458497 ], [ 73.870576, 18.458589 ], [ 73.871942, 18.458638 ], [ 73.872021, 18.458603 ], [ 73.871942, 18.458638 ] ], [ [ 73.874471, 18.459216 ], [ 73.873493, 18.458842 ], [ 73.87272, 18.458791 ], [ 73.87253, 18.458577 ], [ 73.872291, 18.458565 ], [ 73.87253, 18.458577 ], [ 73.87272, 18.458791 ], [ 73.873493, 18.458842 ], [ 73.874471, 18.459216 ] ], [ [ 73.877682, 18.460783 ], [ 73.877683, 18.462019 ], [ 73.8776, 18.463294 ], [ 73.877683, 18.462019 ], [ 73.877682, 18.460783 ], [ 73.87468, 18.46075 ], [ 73.874674, 18.459773 ], [ 73.87468, 18.46075 ], [ 73.877682, 18.460783 ] ], [ [ 73.877501, 18.464828 ], [ 73.877505, 18.464755 ], [ 73.877501, 18.464828 ], [ 73.876953, 18.465751 ], [ 73.877501, 18.464828 ] ], [ [ 73.885053, 18.543266 ], [ 73.884634, 18.544999 ], [ 73.885053, 18.543266 ], [ 73.885053, 18.543266 ] ], [ [ 73.885432, 18.537119 ], [ 73.885264, 18.541368 ], [ 73.885198, 18.542313 ], [ 73.885189, 18.542436 ], [ 73.885264, 18.541368 ], [ 73.885432, 18.537119 ] ], [ [ 73.881621, 18.530964 ], [ 73.879505, 18.530219 ], [ 73.879249, 18.530381 ], [ 73.879066, 18.526481 ], [ 73.878579, 18.524612 ], [ 73.880468, 18.524097 ], [ 73.878755, 18.52082 ], [ 73.877265, 18.521585 ], [ 73.876684, 18.519643 ], [ 73.876515, 18.519165 ], [ 73.872457, 18.520435 ], [ 73.872273, 18.520301 ], [ 73.872457, 18.520435 ], [ 73.876515, 18.519165 ], [ 73.876216, 18.518409 ], [ 73.875487, 18.51832 ], [ 73.87443, 18.518309 ], [ 73.874349, 18.518076 ], [ 73.873879, 18.517732 ], [ 73.873412, 18.517694 ], [ 73.872984, 18.517296 ], [ 73.873472, 18.516403 ], [ 73.873475, 18.515952 ], [ 73.873276, 18.515461 ], [ 73.873221, 18.515144 ], [ 73.873307, 18.514709 ], [ 73.87367, 18.513958 ], [ 73.874779, 18.512604 ], [ 73.874947, 18.512318 ], [ 73.875075, 18.511818 ], [ 73.875566, 18.511092 ], [ 73.876069, 18.510507 ], [ 73.876172, 18.510171 ], [ 73.87655, 18.5095 ], [ 73.877024, 18.508838 ], [ 73.876744, 18.507659 ], [ 73.876538, 18.507126 ], [ 73.876361, 18.506727 ], [ 73.875917, 18.506904 ], [ 73.875743, 18.50648 ], [ 73.874812, 18.506739 ], [ 73.874486, 18.505766 ], [ 73.873229, 18.505375 ], [ 73.873432, 18.504375 ], [ 73.874586, 18.503043 ], [ 73.874777, 18.501896 ], [ 73.874741, 18.500583 ], [ 73.873864, 18.50052 ], [ 73.873324, 18.500253 ], [ 73.874117, 18.499741 ], [ 73.875345, 18.498697 ], [ 73.877043, 18.4974 ], [ 73.877468, 18.497075 ], [ 73.877249, 18.496658 ], [ 73.87703, 18.495781 ], [ 73.877052, 18.494904 ], [ 73.877271, 18.493511 ], [ 73.877534, 18.491318 ], [ 73.877345, 18.488666 ], [ 73.87858, 18.488455 ], [ 73.87903, 18.48875 ], [ 73.879724, 18.489284 ], [ 73.880244, 18.489536 ], [ 73.88084, 18.489712 ], [ 73.881612, 18.489859 ], [ 73.882868, 18.489901 ], [ 73.883353, 18.490245 ], [ 73.883647, 18.489803 ], [ 73.884012, 18.489656 ], [ 73.884487, 18.489585 ], [ 73.888588, 18.489999 ], [ 73.889234, 18.487241 ], [ 73.889613, 18.486146 ], [ 73.889681, 18.484728 ], [ 73.890202, 18.483942 ], [ 73.890211, 18.483219 ], [ 73.890474, 18.482973 ], [ 73.89096, 18.482687 ], [ 73.891123, 18.482432 ], [ 73.891214, 18.482289 ], [ 73.89096, 18.482687 ], [ 73.892281, 18.482644 ], [ 73.892888, 18.4825 ], [ 73.892771, 18.487403 ], [ 73.892802, 18.487729 ], [ 73.892906, 18.487976 ], [ 73.893118, 18.48814 ], [ 73.893483, 18.488186 ], [ 73.894811, 18.488206 ], [ 73.894966, 18.488407 ], [ 73.89505, 18.488631 ], [ 73.895122, 18.489013 ], [ 73.895743, 18.489675 ], [ 73.895805, 18.489761 ], [ 73.895823, 18.490719 ], [ 73.896243, 18.491081 ], [ 73.896412, 18.491391 ], [ 73.896424, 18.491748 ], [ 73.896678, 18.492265 ], [ 73.897146, 18.492615 ], [ 73.897343, 18.492898 ], [ 73.897119, 18.493473 ], [ 73.896849, 18.493972 ], [ 73.896493, 18.493926 ], [ 73.896274, 18.494012 ], [ 73.896225, 18.494143 ], [ 73.896245, 18.495095 ], [ 73.895971, 18.496168 ], [ 73.896581, 18.49672 ], [ 73.898105, 18.497874 ], [ 73.898394, 18.498195 ], [ 73.898327, 18.498595 ], [ 73.898527, 18.499005 ], [ 73.89879, 18.499347 ], [ 73.898756, 18.500023 ], [ 73.898773, 18.500716 ], [ 73.898998, 18.501445 ], [ 73.89905, 18.50245 ], [ 73.899692, 18.503282 ], [ 73.899674, 18.504305 ], [ 73.903941, 18.504175 ], [ 73.903809, 18.504971 ], [ 73.903582, 18.505375 ], [ 73.903199, 18.505638 ], [ 73.902454, 18.506571 ], [ 73.899514, 18.506527 ], [ 73.899535, 18.507065 ], [ 73.899656, 18.5073 ], [ 73.899926, 18.507434 ], [ 73.900103, 18.507598 ], [ 73.90011, 18.507811 ], [ 73.899961, 18.508166 ], [ 73.89999, 18.509026 ], [ 73.900163, 18.509253 ], [ 73.900235, 18.509521 ], [ 73.900195, 18.509728 ], [ 73.900046, 18.510062 ], [ 73.900025, 18.510395 ], [ 73.900259, 18.510928 ], [ 73.90033, 18.512887 ], [ 73.899885, 18.513666 ], [ 73.899563, 18.514229 ], [ 73.899272, 18.514293 ], [ 73.8982, 18.515356 ], [ 73.898068, 18.515629 ], [ 73.898004, 18.515929 ], [ 73.898013, 18.516247 ], [ 73.89815, 18.516474 ], [ 73.898295, 18.516678 ], [ 73.898372, 18.516946 ], [ 73.89835, 18.518282 ], [ 73.898392, 18.518623 ], [ 73.89879, 18.518779 ], [ 73.89938, 18.518744 ], [ 73.90042, 18.520148 ], [ 73.90061, 18.52124 ], [ 73.900437, 18.521587 ], [ 73.900437, 18.522298 ], [ 73.90094, 18.523026 ], [ 73.898617, 18.526198 ], [ 73.89831, 18.526404 ], [ 73.897992, 18.526615 ], [ 73.897071, 18.52723 ], [ 73.896951, 18.52652 ], [ 73.894075, 18.528001 ], [ 73.887045, 18.531233 ], [ 73.8868, 18.529713 ], [ 73.885441, 18.53002 ], [ 73.88569, 18.53149 ], [ 73.883503, 18.531383 ], [ 73.881621, 18.530964 ] ], [ [ 73.872007, 18.520107 ], [ 73.872273, 18.520301 ], [ 73.872273, 18.520301 ], [ 73.872007, 18.520107 ] ], [ [ 73.874029, 18.510921 ], [ 73.871996, 18.510696 ], [ 73.871848, 18.511318 ], [ 73.871996, 18.510696 ], [ 73.875566, 18.511092 ], [ 73.874029, 18.510921 ] ], [ [ 73.909045, 18.48049 ], [ 73.909045, 18.48049 ], [ 73.910023, 18.483057 ], [ 73.909045, 18.48049 ] ], [ [ 73.91157, 18.486703 ], [ 73.911616, 18.485274 ], [ 73.911493, 18.489358 ], [ 73.91157, 18.486703 ] ], [ [ 73.911493, 18.489358 ], [ 73.911412, 18.492187 ], [ 73.911493, 18.489358 ], [ 73.911493, 18.489358 ], [ 73.911493, 18.489358 ] ], [ [ 73.860917, 18.522064 ], [ 73.861095, 18.522161 ], [ 73.860917, 18.522064 ], [ 73.855713, 18.521769 ], [ 73.855161, 18.521467 ], [ 73.855161, 18.521467 ], [ 73.855713, 18.521769 ], [ 73.860917, 18.522064 ] ], [ [ 73.855257, 18.521179 ], [ 73.856096, 18.520152 ], [ 73.856145, 18.518546 ], [ 73.856145, 18.518546 ], [ 73.856096, 18.520152 ], [ 73.855257, 18.521179 ], [ 73.855161, 18.521467 ], [ 73.855257, 18.521179 ] ], [ [ 73.856145, 18.518546 ], [ 73.856802, 18.518574 ], [ 73.85687, 18.518604 ], [ 73.856802, 18.518574 ], [ 73.856145, 18.518546 ], [ 73.856145, 18.518546 ] ], [ [ 73.856183, 18.516928 ], [ 73.856184, 18.516878 ], [ 73.856184, 18.516878 ], [ 73.856183, 18.516928 ] ], [ [ 73.857432, 18.516893 ], [ 73.85791, 18.516899 ], [ 73.857935, 18.516222 ], [ 73.85791, 18.516899 ], [ 73.856184, 18.516878 ], [ 73.857432, 18.516893 ] ], [ [ 73.858246, 18.513831 ], [ 73.858109, 18.514751 ], [ 73.858246, 18.513831 ], [ 73.858376, 18.513254 ], [ 73.858246, 18.513831 ] ], [ [ 73.858376, 18.513254 ], [ 73.858451, 18.512917 ], [ 73.858376, 18.513254 ], [ 73.858376, 18.513254 ] ], [ [ 73.858479, 18.512793 ], [ 73.858479, 18.512793 ], [ 73.858451, 18.512917 ], [ 73.858479, 18.512793 ] ], [ [ 73.85974, 18.512944 ], [ 73.859703, 18.512934 ], [ 73.859703, 18.512934 ], [ 73.859703, 18.512934 ], [ 73.85974, 18.512944 ] ], [ [ 73.861778, 18.513078 ], [ 73.861238, 18.513221 ], [ 73.861778, 18.513078 ], [ 73.861915, 18.511665 ], [ 73.861778, 18.513078 ] ], [ [ 73.864123, 18.511051 ], [ 73.864124, 18.511053 ], [ 73.864019, 18.510693 ], [ 73.862022, 18.510562 ], [ 73.863594, 18.510665 ], [ 73.864019, 18.510693 ], [ 73.864123, 18.511051 ] ], [ [ 73.865854, 18.510986 ], [ 73.864156, 18.511164 ], [ 73.864156, 18.511164 ], [ 73.865854, 18.510986 ], [ 73.865919, 18.511166 ], [ 73.865854, 18.510986 ] ], [ [ 73.876658, 18.50767 ], [ 73.875652, 18.508055 ], [ 73.87243, 18.509286 ], [ 73.868265, 18.510748 ], [ 73.868265, 18.510748 ], [ 73.87243, 18.509286 ], [ 73.876658, 18.50767 ] ], [ [ 73.888893, 18.47746 ], [ 73.890031, 18.477273 ], [ 73.890499, 18.478085 ], [ 73.890318, 18.477771 ], [ 73.890031, 18.477273 ], [ 73.888893, 18.47746 ] ], [ [ 73.887036, 18.478743 ], [ 73.886963, 18.478744 ], [ 73.887173, 18.47874 ], [ 73.887896, 18.477622 ], [ 73.88782, 18.47774 ], [ 73.887173, 18.47874 ], [ 73.887036, 18.478743 ] ], [ [ 73.886972, 18.478518 ], [ 73.886991, 18.47805 ], [ 73.886983, 18.47824 ], [ 73.886963, 18.478744 ], [ 73.886972, 18.478518 ] ], [ [ 73.886735, 18.476726 ], [ 73.886023, 18.47677 ], [ 73.886735, 18.476726 ], [ 73.886733, 18.477765 ], [ 73.887003, 18.477766 ], [ 73.886997, 18.47792 ], [ 73.887003, 18.477766 ], [ 73.886733, 18.477765 ], [ 73.886735, 18.476726 ] ], [ [ 73.885779, 18.476672 ], [ 73.88559, 18.476688 ], [ 73.885779, 18.476672 ], [ 73.885779, 18.476672 ] ], [ [ 73.883171, 18.476948 ], [ 73.880891, 18.4774 ], [ 73.880891, 18.4774 ], [ 73.883171, 18.476948 ] ], [ [ 73.879551, 18.475025 ], [ 73.879716, 18.475593 ], [ 73.880891, 18.4774 ], [ 73.880039, 18.476089 ], [ 73.879716, 18.475593 ], [ 73.879551, 18.475025 ] ], [ [ 73.879898, 18.473585 ], [ 73.879929, 18.474074 ], [ 73.879898, 18.473585 ], [ 73.879768, 18.473293 ], [ 73.879898, 18.473585 ] ], [ [ 73.87964, 18.471897 ], [ 73.879637, 18.473001 ], [ 73.879637, 18.473001 ], [ 73.879637, 18.473001 ], [ 73.87964, 18.471897 ] ], [ [ 73.86193, 18.500022 ], [ 73.86119, 18.500212 ], [ 73.860406, 18.500413 ], [ 73.86193, 18.500022 ], [ 73.863665, 18.49997 ], [ 73.863174, 18.499984 ], [ 73.86193, 18.500022 ] ], [ [ 73.868467, 18.501325 ], [ 73.867974, 18.501191 ], [ 73.866521, 18.50047 ], [ 73.865211, 18.500092 ], [ 73.864814, 18.500041 ], [ 73.864609, 18.500015 ], [ 73.865211, 18.500092 ], [ 73.866521, 18.50047 ], [ 73.867974, 18.501191 ], [ 73.868467, 18.501325 ] ], [ [ 73.869163, 18.501515 ], [ 73.869054, 18.501485 ], [ 73.868898, 18.502464 ], [ 73.869054, 18.501485 ], [ 73.869194, 18.501524 ], [ 73.86932, 18.500233 ], [ 73.869194, 18.501524 ], [ 73.869163, 18.501515 ] ], [ [ 73.869188, 18.492973 ], [ 73.873641, 18.494041 ], [ 73.869188, 18.492973 ], [ 73.869188, 18.492973 ] ], [ [ 73.874314, 18.494534 ], [ 73.874998, 18.494852 ], [ 73.875652, 18.495372 ], [ 73.874998, 18.494852 ], [ 73.874314, 18.494534 ] ], [ [ 73.87215, 18.480889 ], [ 73.87215, 18.480889 ], [ 73.870681, 18.480465 ], [ 73.870599, 18.480441 ], [ 73.87215, 18.480889 ] ], [ [ 73.877884, 18.479587 ], [ 73.878094, 18.481072 ], [ 73.878094, 18.481072 ], [ 73.878094, 18.481072 ], [ 73.877884, 18.479587 ] ], [ [ 73.862841, 18.485559 ], [ 73.862596, 18.485292 ], [ 73.862841, 18.485559 ], [ 73.863191, 18.488124 ], [ 73.862841, 18.485559 ] ], [ [ 73.868855, 18.502984 ], [ 73.868797, 18.503703 ], [ 73.867665, 18.503596 ], [ 73.867665, 18.503596 ], [ 73.868797, 18.503703 ], [ 73.868855, 18.502984 ] ], [ [ 73.867661, 18.503672 ], [ 73.867641, 18.504056 ], [ 73.867187, 18.504053 ], [ 73.867187, 18.504053 ], [ 73.867641, 18.504056 ], [ 73.867661, 18.503672 ] ], [ [ 73.865632, 18.502987 ], [ 73.865603, 18.50299 ], [ 73.865632, 18.502987 ], [ 73.86572, 18.502992 ], [ 73.865632, 18.502987 ] ], [ [ 73.865058, 18.503017 ], [ 73.865012, 18.503899 ], [ 73.865058, 18.503017 ], [ 73.865249, 18.503016 ], [ 73.865058, 18.503017 ] ], [ [ 73.86492, 18.506119 ], [ 73.86498, 18.504562 ], [ 73.86492, 18.506119 ], [ 73.86492, 18.506119 ] ], [ [ 73.867265, 18.506022 ], [ 73.86759, 18.506016 ], [ 73.867265, 18.506022 ], [ 73.866926, 18.506036 ], [ 73.867265, 18.506022 ] ], [ [ 73.867655, 18.506014 ], [ 73.867655, 18.506014 ], [ 73.868103, 18.506107 ], [ 73.868345, 18.506259 ], [ 73.868103, 18.506107 ], [ 73.867655, 18.506014 ] ], [ [ 73.868411, 18.506392 ], [ 73.868375, 18.506313 ], [ 73.868411, 18.506392 ], [ 73.868346, 18.506796 ], [ 73.868241, 18.507375 ], [ 73.868346, 18.506796 ], [ 73.868411, 18.506392 ] ], [ [ 73.868124, 18.509671 ], [ 73.868168, 18.510009 ], [ 73.868124, 18.509671 ], [ 73.868211, 18.507766 ], [ 73.868124, 18.509671 ] ], [ [ 73.859037, 18.504019 ], [ 73.859072, 18.504244 ], [ 73.858939, 18.504808 ], [ 73.858741, 18.505366 ], [ 73.858939, 18.504808 ], [ 73.859072, 18.504244 ], [ 73.859037, 18.504019 ] ], [ [ 73.858351, 18.506134 ], [ 73.858043, 18.50659 ], [ 73.858043, 18.50659 ], [ 73.858351, 18.506134 ] ], [ [ 73.857852, 18.511864 ], [ 73.857619, 18.512639 ], [ 73.857619, 18.512639 ], [ 73.857852, 18.511864 ], [ 73.858024, 18.507111 ], [ 73.857852, 18.511864 ] ], [ [ 73.862801, 18.51667 ], [ 73.862802, 18.516675 ], [ 73.862985, 18.517794 ], [ 73.862382, 18.518073 ], [ 73.862201, 18.518246 ], [ 73.862201, 18.518246 ], [ 73.862382, 18.518073 ], [ 73.862985, 18.517794 ], [ 73.862802, 18.516675 ], [ 73.862801, 18.51667 ] ], [ [ 73.862794, 18.51627 ], [ 73.862741, 18.516383 ], [ 73.862794, 18.51627 ], [ 73.862794, 18.51627 ] ], [ [ 73.862836, 18.516181 ], [ 73.863614, 18.51618 ], [ 73.864777, 18.515435 ], [ 73.86575, 18.515427 ], [ 73.864777, 18.515435 ], [ 73.863614, 18.51618 ], [ 73.862836, 18.516181 ], [ 73.862794, 18.51627 ], [ 73.862836, 18.516181 ] ], [ [ 73.865919, 18.515426 ], [ 73.86575, 18.515427 ], [ 73.86575, 18.515427 ], [ 73.865919, 18.515426 ] ], [ [ 73.865919, 18.515426 ], [ 73.865934, 18.516785 ], [ 73.865934, 18.516785 ], [ 73.865919, 18.515426 ], [ 73.865919, 18.515426 ] ], [ [ 73.865934, 18.516785 ], [ 73.868531, 18.516804 ], [ 73.868453, 18.517554 ], [ 73.868495, 18.517143 ], [ 73.868531, 18.516804 ], [ 73.865934, 18.516785 ] ], [ [ 73.869639, 18.517463 ], [ 73.869256, 18.517556 ], [ 73.868453, 18.517554 ], [ 73.868453, 18.517554 ], [ 73.869256, 18.517556 ], [ 73.869639, 18.517463 ], [ 73.870042, 18.51731 ], [ 73.869863, 18.517378 ], [ 73.869639, 18.517463 ] ], [ [ 73.870234, 18.517158 ], [ 73.870234, 18.517158 ], [ 73.870042, 18.51731 ], [ 73.870234, 18.517158 ] ], [ [ 73.870485, 18.516959 ], [ 73.871147, 18.516182 ], [ 73.871101, 18.514465 ], [ 73.871121, 18.515198 ], [ 73.871147, 18.516182 ], [ 73.870485, 18.516959 ], [ 73.870234, 18.517158 ], [ 73.870485, 18.516959 ] ], [ [ 73.857263, 18.518777 ], [ 73.857263, 18.518777 ], [ 73.857263, 18.518777 ], [ 73.857263, 18.518777 ] ], [ [ 73.857802, 18.518784 ], [ 73.857263, 18.518777 ], [ 73.857263, 18.518777 ], [ 73.857802, 18.518784 ] ], [ [ 73.858932, 18.5188 ], [ 73.857802, 18.518784 ], [ 73.857802, 18.518784 ], [ 73.858932, 18.5188 ] ], [ [ 73.862336, 18.519416 ], [ 73.862307, 18.519346 ], [ 73.862336, 18.519416 ], [ 73.861731, 18.519249 ], [ 73.861304, 18.519175 ], [ 73.860564, 18.519172 ], [ 73.85969, 18.518686 ], [ 73.85969, 18.518686 ], [ 73.860564, 18.519172 ], [ 73.861304, 18.519175 ], [ 73.861731, 18.519249 ], [ 73.862336, 18.519416 ] ], [ [ 73.86207, 18.518754 ], [ 73.862307, 18.519346 ], [ 73.862307, 18.519346 ], [ 73.86207, 18.518754 ] ], [ [ 73.870167, 18.522418 ], [ 73.870053, 18.522006 ], [ 73.870031, 18.521923 ], [ 73.869869, 18.521954 ], [ 73.870031, 18.521923 ], [ 73.870167, 18.522418 ], [ 73.870167, 18.522418 ], [ 73.870167, 18.522418 ] ], [ [ 73.870737, 18.522657 ], [ 73.870737, 18.522657 ], [ 73.8703, 18.522474 ], [ 73.870167, 18.522418 ], [ 73.870737, 18.522657 ] ], [ [ 73.868968, 18.521996 ], [ 73.869043, 18.522109 ], [ 73.869002, 18.522046 ], [ 73.868968, 18.521996 ], [ 73.868984, 18.520072 ], [ 73.868984, 18.520072 ], [ 73.868984, 18.520072 ], [ 73.868968, 18.521996 ] ], [ [ 73.869653, 18.524367 ], [ 73.869702, 18.524331 ], [ 73.869702, 18.524331 ], [ 73.869653, 18.524367 ] ], [ [ 73.869945, 18.524153 ], [ 73.869954, 18.524139 ], [ 73.870159, 18.52382 ], [ 73.869945, 18.524153 ], [ 73.869702, 18.524331 ], [ 73.869945, 18.524153 ] ], [ [ 73.907101, 18.475496 ], [ 73.906989, 18.475029 ], [ 73.906517, 18.473021 ], [ 73.906989, 18.475029 ], [ 73.907101, 18.475496 ] ], [ [ 73.879731, 18.553289 ], [ 73.879615, 18.552903 ], [ 73.879615, 18.552903 ], [ 73.879731, 18.553289 ] ], [ [ 73.888623, 18.545594 ], [ 73.888744, 18.543647 ], [ 73.890945, 18.543664 ], [ 73.888744, 18.543647 ], [ 73.888623, 18.545594 ] ], [ [ 73.894775, 18.558101 ], [ 73.895363, 18.557977 ], [ 73.894483, 18.558163 ], [ 73.894775, 18.558101 ] ], [ [ 73.906115, 18.555219 ], [ 73.906525, 18.555491 ], [ 73.906713, 18.555596 ], [ 73.906739, 18.555618 ], [ 73.906713, 18.555596 ], [ 73.905747, 18.555061 ], [ 73.905747, 18.555061 ], [ 73.906525, 18.555491 ], [ 73.906115, 18.555219 ] ], [ [ 73.906739, 18.555618 ], [ 73.906817, 18.555685 ], [ 73.906739, 18.555618 ], [ 73.906739, 18.555618 ] ], [ [ 73.906845, 18.555669 ], [ 73.906819, 18.555687 ], [ 73.906358, 18.556001 ], [ 73.906845, 18.555669 ] ], [ [ 73.917565, 18.56062 ], [ 73.918621, 18.560939 ], [ 73.91818, 18.560828 ], [ 73.913179, 18.559143 ], [ 73.913179, 18.559144 ], [ 73.91318, 18.559144 ], [ 73.917565, 18.56062 ] ], [ [ 73.918672, 18.557824 ], [ 73.918682, 18.557877 ], [ 73.918772, 18.559424 ], [ 73.918621, 18.560939 ], [ 73.918621, 18.560939 ], [ 73.918772, 18.559424 ], [ 73.918682, 18.557877 ], [ 73.918672, 18.557824 ] ], [ [ 73.920441, 18.554584 ], [ 73.920649, 18.55457 ], [ 73.919115, 18.554671 ], [ 73.918206, 18.555173 ], [ 73.918319, 18.55589 ], [ 73.918206, 18.555173 ], [ 73.919115, 18.554671 ], [ 73.920441, 18.554584 ] ], [ [ 73.922001, 18.557896 ], [ 73.921377, 18.557814 ], [ 73.921377, 18.557814 ], [ 73.922001, 18.557896 ], [ 73.922409, 18.558217 ], [ 73.922001, 18.557896 ] ], [ [ 73.924447, 18.557912 ], [ 73.926069, 18.557687 ], [ 73.926464, 18.557609 ], [ 73.928153, 18.557322 ], [ 73.928205, 18.556287 ], [ 73.928153, 18.557322 ], [ 73.928153, 18.557322 ], [ 73.926464, 18.557609 ], [ 73.926069, 18.557687 ], [ 73.924447, 18.557912 ], [ 73.924305, 18.557751 ], [ 73.922616, 18.55838 ], [ 73.922463, 18.558259 ], [ 73.922616, 18.55838 ], [ 73.924305, 18.557751 ], [ 73.924447, 18.557912 ] ], [ [ 73.931942, 18.538851 ], [ 73.931775, 18.539733 ], [ 73.931293, 18.542363 ], [ 73.931179, 18.542831 ], [ 73.931293, 18.542363 ], [ 73.931775, 18.539733 ], [ 73.931942, 18.538851 ] ], [ [ 73.931942, 18.538851 ], [ 73.931947, 18.538823 ], [ 73.931942, 18.538851 ], [ 73.931942, 18.538851 ] ], [ [ 73.931556, 18.535999 ], [ 73.931905, 18.536976 ], [ 73.931941, 18.537461 ], [ 73.931905, 18.536976 ], [ 73.931556, 18.535999 ], [ 73.931556, 18.535999 ] ], [ [ 73.933669, 18.535805 ], [ 73.93471, 18.535733 ], [ 73.937486, 18.53554 ], [ 73.933669, 18.535805 ], [ 73.931696, 18.535953 ], [ 73.931556, 18.535999 ], [ 73.931556, 18.535999 ], [ 73.931696, 18.535953 ], [ 73.933669, 18.535805 ] ], [ [ 73.938668, 18.535682 ], [ 73.938114, 18.535615 ], [ 73.938668, 18.535682 ], [ 73.939017, 18.535856 ], [ 73.938668, 18.535682 ] ], [ [ 73.939017, 18.535856 ], [ 73.939336, 18.536016 ], [ 73.939017, 18.535856 ], [ 73.939017, 18.535856 ] ], [ [ 73.940098, 18.536767 ], [ 73.940565, 18.537578 ], [ 73.940565, 18.537578 ], [ 73.940098, 18.536767 ] ], [ [ 73.940734, 18.537871 ], [ 73.941473, 18.539695 ], [ 73.940734, 18.537871 ], [ 73.940565, 18.537578 ], [ 73.940734, 18.537871 ] ], [ [ 73.944821, 18.544686 ], [ 73.943819, 18.543941 ], [ 73.94323, 18.543237 ], [ 73.942958, 18.542913 ], [ 73.943121, 18.543108 ], [ 73.943819, 18.543941 ], [ 73.944821, 18.544686 ] ], [ [ 73.946954, 18.545456 ], [ 73.945669, 18.545187 ], [ 73.946731, 18.54541 ], [ 73.946954, 18.545456 ], [ 73.946954, 18.545456 ] ], [ [ 73.949494, 18.545415 ], [ 73.948213, 18.545436 ], [ 73.949494, 18.545415 ], [ 73.952026, 18.545574 ], [ 73.949494, 18.545415 ] ], [ [ 73.955679, 18.546216 ], [ 73.954455, 18.545654 ], [ 73.955679, 18.546216 ], [ 73.957124, 18.546557 ], [ 73.955679, 18.546216 ] ], [ [ 73.957947, 18.546638 ], [ 73.958059, 18.54663 ], [ 73.957947, 18.546638 ], [ 73.957947, 18.546638 ] ], [ [ 73.958059, 18.54663 ], [ 73.959613, 18.546517 ], [ 73.958059, 18.54663 ], [ 73.958059, 18.54663 ] ], [ [ 73.967103, 18.543434 ], [ 73.966574, 18.543574 ], [ 73.965152, 18.543915 ], [ 73.965772, 18.543766 ], [ 73.967103, 18.543434 ], [ 73.967103, 18.543434 ] ], [ [ 73.906252, 18.515174 ], [ 73.906756, 18.515457 ], [ 73.906252, 18.515174 ], [ 73.906252, 18.515174 ] ], [ [ 73.906948, 18.515512 ], [ 73.9071, 18.515585 ], [ 73.907225, 18.51559 ], [ 73.9071, 18.515585 ], [ 73.906948, 18.515512 ] ], [ [ 73.910115, 18.514303 ], [ 73.910096, 18.515007 ], [ 73.910096, 18.515007 ], [ 73.910115, 18.514303 ] ], [ [ 73.922269, 18.509078 ], [ 73.923502, 18.508946 ], [ 73.923502, 18.508946 ], [ 73.925169, 18.508955 ], [ 73.923502, 18.508946 ], [ 73.922269, 18.509078 ], [ 73.922026, 18.509135 ], [ 73.921903, 18.509274 ], [ 73.921446, 18.510461 ], [ 73.920619, 18.510074 ], [ 73.921446, 18.510461 ], [ 73.921903, 18.509274 ], [ 73.922026, 18.509135 ], [ 73.922269, 18.509078 ] ], [ [ 73.924099, 18.508557 ], [ 73.924264, 18.50845 ], [ 73.924472, 18.50812 ], [ 73.924264, 18.50845 ], [ 73.924099, 18.508557 ] ], [ [ 73.93275, 18.511779 ], [ 73.932761, 18.511897 ], [ 73.932761, 18.511897 ], [ 73.93275, 18.511779 ] ], [ [ 73.932601, 18.511091 ], [ 73.932677, 18.511421 ], [ 73.932601, 18.511091 ], [ 73.932253, 18.510276 ], [ 73.932253, 18.510276 ], [ 73.932601, 18.511091 ] ], [ [ 73.944702, 18.509281 ], [ 73.945061, 18.508187 ], [ 73.945067, 18.508027 ], [ 73.945061, 18.508187 ], [ 73.944702, 18.509281 ] ], [ [ 73.9439, 18.503555 ], [ 73.943891, 18.503696 ], [ 73.94389, 18.505429 ], [ 73.943954, 18.506277 ], [ 73.944061, 18.506433 ], [ 73.943954, 18.506277 ], [ 73.94389, 18.505429 ], [ 73.943891, 18.503696 ], [ 73.9439, 18.503555 ] ], [ [ 73.956648, 18.504137 ], [ 73.956648, 18.504137 ], [ 73.956026, 18.503248 ], [ 73.955633, 18.502664 ], [ 73.956026, 18.503248 ], [ 73.956648, 18.504137 ] ], [ [ 73.927757, 18.493798 ], [ 73.927691, 18.4937 ], [ 73.927757, 18.493798 ], [ 73.927757, 18.493798 ] ], [ [ 73.928249, 18.495389 ], [ 73.92832, 18.495726 ], [ 73.928249, 18.495389 ], [ 73.927938, 18.494886 ], [ 73.928249, 18.495389 ] ], [ [ 73.928216, 18.496831 ], [ 73.928157, 18.497109 ], [ 73.928216, 18.496831 ], [ 73.928272, 18.496555 ], [ 73.928216, 18.496831 ] ], [ [ 73.928136, 18.497842 ], [ 73.928075, 18.498069 ], [ 73.928136, 18.497842 ], [ 73.928107, 18.497475 ], [ 73.928136, 18.497842 ] ], [ [ 73.927834, 18.500128 ], [ 73.927441, 18.49932 ], [ 73.927403, 18.499059 ], [ 73.92751, 18.498731 ], [ 73.927403, 18.499059 ], [ 73.927441, 18.49932 ], [ 73.927834, 18.500128 ], [ 73.927839, 18.500237 ], [ 73.927834, 18.500128 ] ], [ [ 73.927866, 18.500818 ], [ 73.92795, 18.500819 ], [ 73.928564, 18.500757 ], [ 73.92795, 18.500819 ], [ 73.927866, 18.500818 ], [ 73.927866, 18.500818 ] ], [ [ 73.929689, 18.501444 ], [ 73.929672, 18.500645 ], [ 73.929672, 18.500645 ], [ 73.929689, 18.501444 ] ], [ [ 73.929693, 18.501636 ], [ 73.929693, 18.501636 ], [ 73.931184, 18.501524 ], [ 73.929693, 18.501636 ] ], [ [ 73.937431, 18.500858 ], [ 73.939331, 18.500598 ], [ 73.937431, 18.500858 ], [ 73.936931, 18.500924 ], [ 73.937431, 18.500858 ] ], [ [ 73.954363, 18.500332 ], [ 73.954128, 18.499074 ], [ 73.954363, 18.500332 ], [ 73.954669, 18.501162 ], [ 73.954874, 18.501499 ], [ 73.954669, 18.501162 ], [ 73.954363, 18.500332 ] ], [ [ 73.924383, 18.503209 ], [ 73.917443, 18.505176 ], [ 73.924383, 18.503209 ], [ 73.92451, 18.503174 ], [ 73.924383, 18.503209 ] ], [ [ 73.912272, 18.502744 ], [ 73.911684, 18.5024 ], [ 73.911684, 18.5024 ], [ 73.912272, 18.502744 ], [ 73.912272, 18.502744 ] ], [ [ 73.912479, 18.506227 ], [ 73.912479, 18.506227 ], [ 73.912299, 18.503198 ], [ 73.912479, 18.506227 ] ], [ [ 73.911392, 18.500881 ], [ 73.910384, 18.498744 ], [ 73.910384, 18.498744 ], [ 73.911392, 18.500881 ], [ 73.911577, 18.501842 ], [ 73.911392, 18.500881 ] ], [ [ 73.911429, 18.497386 ], [ 73.91171, 18.496669 ], [ 73.911429, 18.497386 ], [ 73.911204, 18.498188 ], [ 73.911429, 18.497386 ] ], [ [ 73.91139, 18.493947 ], [ 73.91141, 18.494615 ], [ 73.91184, 18.49627 ], [ 73.91141, 18.494615 ], [ 73.91139, 18.493947 ] ], [ [ 73.93216, 18.531632 ], [ 73.9326, 18.532203 ], [ 73.93216, 18.531632 ], [ 73.932341, 18.529292 ], [ 73.93216, 18.531632 ] ], [ [ 73.914818, 18.539576 ], [ 73.916034, 18.539608 ], [ 73.916034, 18.539608 ], [ 73.914818, 18.539576 ] ], [ [ 73.90612, 18.53057 ], [ 73.906216, 18.534685 ], [ 73.906547, 18.535309 ], [ 73.906823, 18.536375 ], [ 73.90414, 18.536669 ], [ 73.90425, 18.538047 ], [ 73.903349, 18.538084 ], [ 73.903239, 18.537717 ], [ 73.903202, 18.537184 ], [ 73.902559, 18.537 ], [ 73.901163, 18.536853 ], [ 73.90085, 18.536449 ], [ 73.900703, 18.53553 ], [ 73.900703, 18.533949 ], [ 73.900519, 18.532516 ], [ 73.900685, 18.531064 ], [ 73.900758, 18.530568 ], [ 73.900905, 18.530201 ], [ 73.901145, 18.529934 ], [ 73.906167, 18.529311 ], [ 73.905943, 18.529699 ], [ 73.90612, 18.53057 ] ], [ [ 73.909578, 18.529031 ], [ 73.909623, 18.51972 ], [ 73.914514, 18.519665 ], [ 73.915488, 18.519753 ], [ 73.915773, 18.519636 ], [ 73.91735, 18.519657 ], [ 73.917372, 18.528017 ], [ 73.909578, 18.529031 ] ], [ [ 73.901656, 18.528745 ], [ 73.901619, 18.528861 ], [ 73.901373, 18.528901 ], [ 73.90111, 18.528794 ], [ 73.899655, 18.527569 ], [ 73.898822, 18.527155 ], [ 73.898108, 18.526983 ], [ 73.898915, 18.526348 ], [ 73.899481, 18.525491 ], [ 73.901146, 18.52485 ], [ 73.901101, 18.524976 ], [ 73.900999, 18.525531 ], [ 73.901029, 18.526045 ], [ 73.901168, 18.526529 ], [ 73.901344, 18.527141 ], [ 73.901431, 18.528095 ], [ 73.901636, 18.528462 ], [ 73.901656, 18.528745 ] ], [ [ 73.884787, 18.574763 ], [ 73.88385, 18.573315 ], [ 73.882725, 18.573132 ], [ 73.88178, 18.572979 ], [ 73.88385, 18.573315 ], [ 73.884787, 18.574763 ], [ 73.884787, 18.574763 ], [ 73.884787, 18.574763 ] ], [ [ 73.885092, 18.577805 ], [ 73.885208, 18.577862 ], [ 73.885316, 18.577893 ], [ 73.885701, 18.577972 ], [ 73.8863, 18.57822 ], [ 73.886811, 18.578479 ], [ 73.88683, 18.578498 ], [ 73.887043, 18.578711 ], [ 73.886811, 18.578479 ], [ 73.8863, 18.57822 ], [ 73.885701, 18.577972 ], [ 73.885316, 18.577893 ], [ 73.885208, 18.577862 ], [ 73.885084, 18.577801 ], [ 73.884945, 18.577524 ], [ 73.885013, 18.577212 ], [ 73.884952, 18.57749 ], [ 73.884945, 18.577524 ], [ 73.885084, 18.577801 ], [ 73.885092, 18.577805 ] ], [ [ 73.887779, 18.579507 ], [ 73.887658, 18.579522 ], [ 73.887588, 18.579402 ], [ 73.887658, 18.579522 ], [ 73.887779, 18.579507 ], [ 73.888106, 18.579503 ], [ 73.887779, 18.579507 ] ], [ [ 73.891337, 18.580701 ], [ 73.892994, 18.580976 ], [ 73.893165, 18.581164 ], [ 73.892994, 18.580976 ], [ 73.891337, 18.580701 ] ], [ [ 73.89354, 18.581463 ], [ 73.893404, 18.581426 ], [ 73.893404, 18.581426 ], [ 73.89354, 18.581463 ] ], [ [ 73.89354, 18.581463 ], [ 73.893854, 18.581549 ], [ 73.89354, 18.581463 ], [ 73.89354, 18.581463 ] ], [ [ 73.894047, 18.581697 ], [ 73.89432, 18.581905 ], [ 73.894568, 18.582107 ], [ 73.89432, 18.581905 ], [ 73.893854, 18.581549 ], [ 73.894047, 18.581697 ] ], [ [ 73.894892, 18.582857 ], [ 73.894735, 18.582533 ], [ 73.894677, 18.582196 ], [ 73.894703, 18.582345 ], [ 73.894735, 18.582533 ], [ 73.894892, 18.582857 ], [ 73.894892, 18.582857 ] ], [ [ 73.894892, 18.582857 ], [ 73.895155, 18.583059 ], [ 73.894892, 18.582857 ], [ 73.894892, 18.582857 ] ], [ [ 73.895234, 18.583119 ], [ 73.89541, 18.583255 ], [ 73.896142, 18.583251 ], [ 73.896255, 18.58323 ], [ 73.896255, 18.58323 ], [ 73.896255, 18.58323 ], [ 73.896142, 18.583251 ], [ 73.89541, 18.583255 ], [ 73.895155, 18.583059 ], [ 73.895234, 18.583119 ] ], [ [ 73.895691, 18.574833 ], [ 73.895691, 18.574833 ], [ 73.896048, 18.579014 ], [ 73.895691, 18.574833 ] ], [ [ 73.895684, 18.57475 ], [ 73.896875, 18.57494 ], [ 73.895684, 18.57475 ], [ 73.895691, 18.574833 ], [ 73.895684, 18.57475 ] ], [ [ 73.899771, 18.572437 ], [ 73.89982, 18.573474 ], [ 73.899191, 18.575414 ], [ 73.899191, 18.575414 ], [ 73.89982, 18.573474 ], [ 73.899771, 18.572437 ], [ 73.900325, 18.571589 ], [ 73.899771, 18.572437 ] ], [ [ 73.900987, 18.570413 ], [ 73.900864, 18.570915 ], [ 73.900758, 18.571351 ], [ 73.900987, 18.570413 ] ], [ [ 73.906132, 18.570487 ], [ 73.907, 18.570443 ], [ 73.905458, 18.570522 ], [ 73.906132, 18.570487 ] ], [ [ 73.894085, 18.564766 ], [ 73.894049, 18.564714 ], [ 73.894049, 18.564714 ], [ 73.894085, 18.564766 ] ], [ [ 73.927979, 18.560773 ], [ 73.927976, 18.560822 ], [ 73.927946, 18.562653 ], [ 73.927946, 18.562653 ], [ 73.927976, 18.560822 ], [ 73.927979, 18.560773 ] ], [ [ 73.928593, 18.562726 ], [ 73.928636, 18.56273 ], [ 73.930035, 18.562888 ], [ 73.934408, 18.563281 ], [ 73.930035, 18.562888 ], [ 73.928593, 18.562726 ] ], [ [ 73.930849, 18.568161 ], [ 73.931244, 18.56813 ], [ 73.931244, 18.56813 ], [ 73.930849, 18.568161 ] ], [ [ 73.927309, 18.569731 ], [ 73.927424, 18.568217 ], [ 73.930185, 18.568205 ], [ 73.927424, 18.568217 ], [ 73.927366, 18.568974 ], [ 73.927309, 18.569731 ], [ 73.927578, 18.570263 ], [ 73.927309, 18.569731 ] ], [ [ 73.92811, 18.571318 ], [ 73.92811, 18.571318 ], [ 73.928673, 18.57101 ], [ 73.92811, 18.571318 ] ], [ [ 73.930155, 18.572366 ], [ 73.931085, 18.571579 ], [ 73.931341, 18.571824 ], [ 73.931085, 18.571579 ], [ 73.930155, 18.572366 ], [ 73.930155, 18.572366 ] ], [ [ 73.931391, 18.574649 ], [ 73.931791, 18.574593 ], [ 73.93219, 18.574537 ], [ 73.933585, 18.572933 ], [ 73.93219, 18.574537 ], [ 73.931391, 18.574649 ] ], [ [ 73.933691, 18.572573 ], [ 73.933829, 18.572417 ], [ 73.933691, 18.572573 ], [ 73.933585, 18.572933 ], [ 73.933691, 18.572573 ] ], [ [ 73.933837, 18.572408 ], [ 73.93398, 18.572274 ], [ 73.934122, 18.572141 ], [ 73.933837, 18.572408 ], [ 73.933837, 18.572408 ] ], [ [ 73.934594, 18.572638 ], [ 73.936031, 18.573242 ], [ 73.934594, 18.572638 ], [ 73.934439, 18.572475 ], [ 73.934594, 18.572638 ] ], [ [ 73.934523, 18.575618 ], [ 73.937328, 18.575622 ], [ 73.934523, 18.575618 ], [ 73.934545, 18.57521 ], [ 73.934523, 18.575618 ] ], [ [ 73.946713, 18.573752 ], [ 73.946706, 18.576246 ], [ 73.941287, 18.57644 ], [ 73.946706, 18.576246 ], [ 73.946713, 18.573752 ], [ 73.943564, 18.573686 ], [ 73.943564, 18.573686 ], [ 73.946713, 18.573752 ] ], [ [ 73.943611, 18.564476 ], [ 73.9438, 18.564504 ], [ 73.943611, 18.564476 ], [ 73.943458, 18.564548 ], [ 73.943611, 18.564476 ] ], [ [ 73.954633, 18.571334 ], [ 73.954797, 18.571775 ], [ 73.957071, 18.573205 ], [ 73.957255, 18.573321 ], [ 73.954797, 18.571775 ], [ 73.954633, 18.571334 ] ], [ [ 73.958008, 18.573654 ], [ 73.9601, 18.574581 ], [ 73.960246, 18.574635 ], [ 73.9601, 18.574581 ], [ 73.957255, 18.573321 ], [ 73.958008, 18.573654 ] ], [ [ 73.960246, 18.574635 ], [ 73.962161, 18.575353 ], [ 73.960246, 18.574635 ], [ 73.960246, 18.574635 ] ], [ [ 73.966548, 18.57665 ], [ 73.964686, 18.576177 ], [ 73.964633, 18.57616 ], [ 73.964686, 18.576177 ], [ 73.966548, 18.57665 ], [ 73.967171, 18.57676 ], [ 73.96747, 18.576813 ], [ 73.966548, 18.57665 ] ], [ [ 73.970907, 18.577717 ], [ 73.971952, 18.57814 ], [ 73.972007, 18.578162 ], [ 73.972046, 18.578181 ], [ 73.972007, 18.578162 ], [ 73.970907, 18.577717 ] ], [ [ 73.972046, 18.578181 ], [ 73.972291, 18.578302 ], [ 73.972046, 18.578181 ], [ 73.972046, 18.578181 ] ], [ [ 73.974972, 18.579307 ], [ 73.973638, 18.579068 ], [ 73.973303, 18.578937 ], [ 73.973303, 18.578937 ], [ 73.973638, 18.579068 ], [ 73.974972, 18.579307 ], [ 73.97611, 18.579784 ], [ 73.977548, 18.580387 ], [ 73.974972, 18.579307 ] ], [ [ 73.978039, 18.580457 ], [ 73.978489, 18.580521 ], [ 73.979093, 18.58225 ], [ 73.979406, 18.583147 ], [ 73.978489, 18.580521 ], [ 73.978039, 18.580457 ] ], [ [ 73.979947, 18.584544 ], [ 73.979506, 18.584241 ], [ 73.979947, 18.584544 ], [ 73.979947, 18.584544 ] ], [ [ 73.97998, 18.584567 ], [ 73.980096, 18.584744 ], [ 73.980608, 18.585191 ], [ 73.981073, 18.585336 ], [ 73.980608, 18.585191 ], [ 73.980096, 18.584744 ], [ 73.97998, 18.584567 ], [ 73.979947, 18.584544 ], [ 73.97998, 18.584567 ] ], [ [ 73.983007, 18.585102 ], [ 73.982063, 18.585495 ], [ 73.981092, 18.585342 ], [ 73.981243, 18.585366 ], [ 73.982063, 18.585495 ], [ 73.983007, 18.585102 ], [ 73.983209, 18.584625 ], [ 73.983007, 18.585102 ] ], [ [ 73.983559, 18.583799 ], [ 73.983655, 18.583851 ], [ 73.984333, 18.584211 ], [ 73.983559, 18.583799 ], [ 73.983559, 18.583799 ] ], [ [ 73.984935, 18.584287 ], [ 73.985478, 18.584356 ], [ 73.985746, 18.584311 ], [ 73.985765, 18.583824 ], [ 73.985746, 18.584311 ], [ 73.985478, 18.584356 ], [ 73.984333, 18.584211 ], [ 73.984935, 18.584287 ] ], [ [ 73.985871, 18.581131 ], [ 73.985818, 18.582483 ], [ 73.985871, 18.581131 ], [ 73.985871, 18.581131 ] ], [ [ 73.986538, 18.581338 ], [ 73.986538, 18.581338 ], [ 73.986538, 18.581338 ], [ 73.986538, 18.581338 ] ], [ [ 73.986538, 18.581338 ], [ 73.986687, 18.581417 ], [ 73.989099, 18.582701 ], [ 73.986538, 18.581338 ], [ 73.986538, 18.581338 ] ], [ [ 73.995697, 18.587479 ], [ 73.993615, 18.585427 ], [ 73.9922, 18.584573 ], [ 73.993615, 18.585427 ], [ 73.995697, 18.587479 ], [ 73.997348, 18.589539 ], [ 73.998002, 18.590356 ], [ 73.995697, 18.587479 ] ], [ [ 73.998394, 18.591158 ], [ 73.999769, 18.593213 ], [ 73.998394, 18.591158 ], [ 73.998267, 18.590898 ], [ 73.998394, 18.591158 ] ], [ [ 73.999769, 18.593213 ], [ 73.99978, 18.593228 ], [ 73.999769, 18.593213 ], [ 73.999769, 18.593213 ] ], [ [ 74.007631, 18.599601 ], [ 74.008583, 18.60001 ], [ 74.008709, 18.600125 ], [ 74.009547, 18.600885 ], [ 74.008583, 18.60001 ], [ 74.007631, 18.599601 ] ], [ [ 73.898594, 18.585295 ], [ 73.899012, 18.586175 ], [ 73.899012, 18.586175 ], [ 73.898594, 18.585295 ] ], [ [ 73.899338, 18.58678 ], [ 73.8991, 18.58636 ], [ 73.899012, 18.586175 ], [ 73.899338, 18.58678 ] ], [ [ 73.900608, 18.588723 ], [ 73.901606, 18.588621 ], [ 73.901606, 18.588621 ], [ 73.900608, 18.588723 ] ], [ [ 73.901606, 18.588621 ], [ 73.901687, 18.588611 ], [ 73.901606, 18.588621 ], [ 73.901606, 18.588621 ], [ 73.901606, 18.588621 ] ], [ [ 73.901687, 18.588611 ], [ 73.904469, 18.588283 ], [ 73.901687, 18.588611 ], [ 73.901687, 18.588611 ] ], [ [ 73.905084, 18.585263 ], [ 73.905084, 18.585263 ], [ 73.904486, 18.587448 ], [ 73.905003, 18.585559 ], [ 73.905084, 18.585263 ] ], [ [ 73.905554, 18.585346 ], [ 73.90648, 18.585508 ], [ 73.909621, 18.585994 ], [ 73.90648, 18.585508 ], [ 73.905084, 18.585263 ], [ 73.905554, 18.585346 ] ], [ [ 73.909621, 18.585994 ], [ 73.910447, 18.586122 ], [ 73.909621, 18.585994 ], [ 73.909621, 18.585994 ] ], [ [ 73.911245, 18.586457 ], [ 73.911835, 18.586704 ], [ 73.912081, 18.586814 ], [ 73.912306, 18.58699 ], [ 73.912348, 18.587107 ], [ 73.912367, 18.58716 ], [ 73.912306, 18.58699 ], [ 73.912081, 18.586814 ], [ 73.911835, 18.586704 ], [ 73.910447, 18.586122 ], [ 73.911245, 18.586457 ] ], [ [ 73.912913, 18.587836 ], [ 73.914587, 18.589907 ], [ 73.914797, 18.590067 ], [ 73.917385, 18.592041 ], [ 73.914587, 18.589907 ], [ 73.912367, 18.58716 ], [ 73.912913, 18.587836 ] ], [ [ 73.922184, 18.593404 ], [ 73.922233, 18.59342 ], [ 73.922612, 18.593544 ], [ 73.922815, 18.593733 ], [ 73.923633, 18.59449 ], [ 73.922612, 18.593544 ], [ 73.922184, 18.593404 ] ], [ [ 73.924636, 18.596418 ], [ 73.924701, 18.595896 ], [ 73.924481, 18.595607 ], [ 73.924701, 18.595896 ], [ 73.924636, 18.596418 ] ], [ [ 73.92583, 18.599687 ], [ 73.924919, 18.597784 ], [ 73.924684, 18.597225 ], [ 73.924919, 18.597784 ], [ 73.92583, 18.599687 ], [ 73.926185, 18.60018 ], [ 73.926263, 18.600156 ], [ 73.926185, 18.60018 ], [ 73.92583, 18.599687 ] ], [ [ 73.927601, 18.602742 ], [ 73.928252, 18.602675 ], [ 73.928807, 18.602617 ], [ 73.929078, 18.602661 ], [ 73.929895, 18.602796 ], [ 73.928807, 18.602617 ], [ 73.928252, 18.602675 ], [ 73.927601, 18.602742 ], [ 73.927423, 18.599936 ], [ 73.927254, 18.598477 ], [ 73.926921, 18.598487 ], [ 73.926847, 18.599631 ], [ 73.926508, 18.60008 ], [ 73.92665, 18.599891 ], [ 73.926847, 18.599631 ], [ 73.926921, 18.598487 ], [ 73.927254, 18.598477 ], [ 73.927423, 18.599936 ], [ 73.927601, 18.602742 ] ], [ [ 73.930713, 18.603129 ], [ 73.930713, 18.603129 ], [ 73.929895, 18.602796 ], [ 73.930713, 18.603129 ] ], [ [ 73.930788, 18.603159 ], [ 73.931576, 18.60383 ], [ 73.932299, 18.604853 ], [ 73.93277, 18.605536 ], [ 73.933278, 18.606286 ], [ 73.93277, 18.605536 ], [ 73.932299, 18.604853 ], [ 73.931576, 18.60383 ], [ 73.930788, 18.603159 ], [ 73.930713, 18.603129 ], [ 73.930788, 18.603159 ] ], [ [ 73.933278, 18.606286 ], [ 73.933559, 18.606701 ], [ 73.933278, 18.606286 ], [ 73.933278, 18.606286 ] ], [ [ 73.935332, 18.608676 ], [ 73.935946, 18.609144 ], [ 73.936098, 18.609259 ], [ 73.935332, 18.608676 ], [ 73.934958, 18.607981 ], [ 73.935332, 18.608676 ] ], [ [ 73.93692, 18.609777 ], [ 73.93692, 18.609777 ], [ 73.93692, 18.609777 ], [ 73.936753, 18.610809 ], [ 73.93704, 18.611102 ], [ 73.936753, 18.610809 ], [ 73.93692, 18.609777 ] ], [ [ 73.937152, 18.611215 ], [ 73.937855, 18.611479 ], [ 73.938836, 18.611656 ], [ 73.938836, 18.611656 ], [ 73.937855, 18.611479 ], [ 73.937152, 18.611215 ], [ 73.937152, 18.611215 ] ], [ [ 73.939672, 18.6121 ], [ 73.940367, 18.612167 ], [ 73.940903, 18.612219 ], [ 73.939672, 18.6121 ], [ 73.939109, 18.611801 ], [ 73.939672, 18.6121 ] ], [ [ 73.941528, 18.612728 ], [ 73.941668, 18.612843 ], [ 73.942327, 18.613124 ], [ 73.941668, 18.612843 ], [ 73.940903, 18.612219 ], [ 73.941528, 18.612728 ] ], [ [ 73.942731, 18.614059 ], [ 73.942737, 18.614102 ], [ 73.942871, 18.614607 ], [ 73.943096, 18.61501 ], [ 73.942871, 18.614607 ], [ 73.942737, 18.614102 ], [ 73.942731, 18.614059 ] ], [ [ 73.943096, 18.61501 ], [ 73.943256, 18.615296 ], [ 73.943096, 18.61501 ], [ 73.943096, 18.61501 ] ], [ [ 73.943825, 18.616113 ], [ 73.944286, 18.616775 ], [ 73.94453, 18.616986 ], [ 73.94497, 18.617368 ], [ 73.944286, 18.616775 ], [ 73.943256, 18.615296 ], [ 73.943825, 18.616113 ] ], [ [ 73.945506, 18.617676 ], [ 73.945506, 18.617676 ], [ 73.945874, 18.618153 ], [ 73.946123, 18.618235 ], [ 73.946379, 18.618319 ], [ 73.945874, 18.618153 ], [ 73.945506, 18.617676 ] ], [ [ 73.946652, 18.618793 ], [ 73.946684, 18.618818 ], [ 73.946652, 18.618793 ], [ 73.946379, 18.618319 ], [ 73.946652, 18.618793 ] ] ] } }
]
}
